{
  "type": "FeatureCollection",
  "generator": "overpass-turbo",
  "features": [
    {
      "type": "Feature",
      "properties": {
        "@id": "node/5236202307",
        "noexit": "yes",
        "barrier": "gate",
        "access_sign": "none",
        "survey:date": "2019-12-21"
      },
      "geometry": {
        "type": "Point",
        "coordinates": [
          5.4025523,
          52.1205496
        ]
      },
      "id": "node/5236202307"
    },
    {
      "type": "Feature",
      "properties": {
        "@id": "node/13507626188",
        "access": "private",
        "barrier": "gate",
        "gate:type": "double"
      },
      "geometry": {
        "type": "Point",
        "coordinates": [
          5.3997273,
          52.1242403
        ]
      },
      "id": "node/13507626188"
    },
    {
      "type": "Feature",
      "properties": {
        "@id": "node/13507709345",
        "access": "private",
        "barrier": "gate",
        "gate:type": "double"
      },
      "geometry": {
        "type": "Point",
        "coordinates": [
          5.3994986,
          52.1247234
        ]
      },
      "id": "node/13507709345"
    },
    {
      "type": "Feature",
      "properties": {
        "@id": "node/13952122588",
        "barrier": "gate"
      },
      "geometry": {
        "type": "Point",
        "coordinates": [
          5.3911229,
          52.1254307
        ]
      },
      "id": "node/13952122588"
    },
    {
      "type": "Feature",
      "properties": {
        "@id": "node/2098058809",
        "barrier": "bollard",
        "bollard": "fixed"
      },
      "geometry": {
        "type": "Point",
        "coordinates": [
          5.4162512,
          52.1260363
        ]
      },
      "id": "node/2098058809"
    },
    {
      "type": "Feature",
      "properties": {
        "@id": "node/3622531527",
        "barrier": "cycle_barrier",
        "cycle_barrier": "double",
        "cycle_barrier:installation": "fixed"
      },
      "geometry": {
        "type": "Point",
        "coordinates": [
          5.4161681,
          52.1252469
        ]
      },
      "id": "node/3622531527"
    },
    {
      "type": "Feature",
      "properties": {
        "@id": "node/2098058810",
        "barrier": "bollard",
        "bollard": "fixed"
      },
      "geometry": {
        "type": "Point",
        "coordinates": [
          5.416335,
          52.1261834
        ]
      },
      "id": "node/2098058810"
    },
    {
      "type": "Feature",
      "properties": {
        "@id": "node/8757203953",
        "barrier": "cycle_barrier",
        "bicycle": "yes"
      },
      "geometry": {
        "type": "Point",
        "coordinates": [
          5.3903372,
          52.1264255
        ]
      },
      "id": "node/8757203953"
    },
    {
      "type": "Feature",
      "properties": {
        "@id": "node/13952122591",
        "barrier": "gate",
        "surface": "paving_stones"
      },
      "geometry": {
        "type": "Point",
        "coordinates": [
          5.3870025,
          52.1318425
        ]
      },
      "id": "node/13952122591"
    },
    {
      "type": "Feature",
      "properties": {
        "@id": "node/6002569406",
        "barrier": "gate"
      },
      "geometry": {
        "type": "Point",
        "coordinates": [
          5.3993821,
          52.1270324
        ]
      },
      "id": "node/6002569406"
    },
    {
      "type": "Feature",
      "properties": {
        "@id": "node/13448209900",
        "barrier": "bollard"
      },
      "geometry": {
        "type": "Point",
        "coordinates": [
          5.417324,
          52.1247347
        ]
      },
      "id": "node/13448209900"
    },
    {
      "type": "Feature",
      "properties": {
        "@id": "node/13453413892",
        "barrier": "cycle_barrier",
        "wheelchair": "limited",
        "cycle_barrier": "double",
        "cycle_barrier:installation": "fixed"
      },
      "geometry": {
        "type": "Point",
        "coordinates": [
          5.4174361,
          52.1236675
        ]
      },
      "id": "node/13453413892"
    },
    {
      "type": "Feature",
      "properties": {
        "@id": "node/794885291",
        "barrier": "gate"
      },
      "geometry": {
        "type": "Point",
        "coordinates": [
          5.4115147,
          52.1236084
        ]
      },
      "id": "node/794885291"
    },
    {
      "type": "Feature",
      "properties": {
        "@id": "node/2083178309",
        "barrier": "bollard"
      },
      "geometry": {
        "type": "Point",
        "coordinates": [
          5.4110433,
          52.1201406
        ]
      },
      "id": "node/2083178309"
    },
    {
      "type": "Feature",
      "properties": {
        "@id": "node/4776384827",
        "foot": "yes",
        "barrier": "swing_gate"
      },
      "geometry": {
        "type": "Point",
        "coordinates": [
          5.3874394,
          52.1206838
        ]
      },
      "id": "node/4776384827"
    },
    {
      "type": "Feature",
      "properties": {
        "@id": "node/7476126086",
        "barrier": "gate"
      },
      "geometry": {
        "type": "Point",
        "coordinates": [
          5.4153668,
          52.1324614
        ]
      },
      "id": "node/7476126086"
    },
    {
      "type": "Feature",
      "properties": {
        "@id": "node/13484020400",
        "barrier": "cycle_barrier"
      },
      "geometry": {
        "type": "Point",
        "coordinates": [
          5.416882,
          52.126655
        ]
      },
      "id": "node/13484020400"
    },
    {
      "type": "Feature",
      "properties": {
        "@id": "node/13484026701",
        "barrier": "cycle_barrier"
      },
      "geometry": {
        "type": "Point",
        "coordinates": [
          5.4171117,
          52.1266047
        ]
      },
      "id": "node/13484026701"
    },
    {
      "type": "Feature",
      "properties": {
        "@id": "way/1470275257",
        "barrier": "hedge"
      },
      "geometry": {
        "type": "MultiLineString",
        "coordinates": [
          [
            [
              5.4171915,
              52.126828
            ],
            [
              5.4172208,
              52.1268464
            ],
            [
              5.4172309,
              52.126868
            ],
            [
              5.4172223,
              52.1268969
            ]
          ]
        ]
      },
      "id": "way/1470275257"
    },
    {
      "type": "Feature",
      "properties": {
        "@id": "way/1470275258",
        "barrier": "hedge"
      },
      "geometry": {
        "type": "MultiLineString",
        "coordinates": [
          [
            [
              5.4171142,
              52.1269316
            ],
            [
              5.4171478,
              52.1269325
            ],
            [
              5.4171857,
              52.1269255
            ],
            [
              5.4172079,
              52.1269114
            ]
          ]
        ]
      },
      "id": "way/1470275258"
    },
    {
      "type": "Feature",
      "properties": {
        "@id": "way/1470275259",
        "barrier": "hedge"
      },
      "geometry": {
        "type": "MultiLineString",
        "coordinates": [
          [
            [
              5.4171678,
              52.126821
            ],
            [
              5.4171328,
              52.1268157
            ],
            [
              5.4170873,
              52.1268252
            ],
            [
              5.4170584,
              52.1268438
            ]
          ]
        ]
      },
      "id": "way/1470275259"
    },
    {
      "type": "Feature",
      "properties": {
        "@id": "way/1470275256",
        "barrier": "hedge"
      },
      "geometry": {
        "type": "MultiLineString",
        "coordinates": [
          [
            [
              5.4170892,
              52.1269246
            ],
            [
              5.4170641,
              52.1269123
            ],
            [
              5.4170434,
              52.1268877
            ],
            [
              5.4170441,
              52.1268614
            ]
          ]
        ]
      },
      "id": "way/1470275256"
    },
    {
      "type": "Feature",
      "properties": {
        "@id": "way/1470275253",
        "barrier": "hedge"
      },
      "geometry": {
        "type": "MultiLineString",
        "coordinates": [
          [
            [
              5.4169168,
              52.1266739
            ],
            [
              5.4169533,
              52.1266471
            ],
            [
              5.4169934,
              52.1266313
            ],
            [
              5.417047,
              52.1266309
            ],
            [
              5.4171042,
              52.1266397
            ]
          ]
        ]
      },
      "id": "way/1470275253"
    },
    {
      "type": "Feature",
      "properties": {
        "@id": "way/1470275252",
        "barrier": "hedge"
      },
      "geometry": {
        "type": "MultiLineString",
        "coordinates": [
          [
            [
              5.4171643,
              52.127112
            ],
            [
              5.417225,
              52.1271213
            ],
            [
              5.4172773,
              52.1271156
            ],
            [
              5.4173173,
              52.1270993
            ],
            [
              5.4173538,
              52.1270752
            ]
          ]
        ]
      },
      "id": "way/1470275252"
    },
    {
      "type": "Feature",
      "properties": {
        "@id": "way/1464142405",
        "barrier": "hedge"
      },
      "geometry": {
        "type": "MultiLineString",
        "coordinates": [
          [
            [
              5.4176809,
              52.1278795
            ],
            [
              5.4177276,
              52.127967
            ],
            [
              5.4177991,
              52.1279527
            ]
          ]
        ]
      },
      "id": "way/1464142405"
    },
    {
      "type": "Feature",
      "properties": {
        "@id": "way/1464142406",
        "barrier": "hedge"
      },
      "geometry": {
        "type": "MultiLineString",
        "coordinates": [
          [
            [
              5.4176524,
              52.1278857
            ],
            [
              5.4176977,
              52.1279737
            ],
            [
              5.4176278,
              52.1279873
            ]
          ]
        ]
      },
      "id": "way/1464142406"
    },
    {
      "type": "Feature",
      "properties": {
        "@id": "way/1464142404",
        "barrier": "hedge"
      },
      "geometry": {
        "type": "MultiLineString",
        "coordinates": [
          [
            [
              5.4175781,
              52.1276804
            ],
            [
              5.4176228,
              52.1277643
            ]
          ]
        ]
      },
      "id": "way/1464142404"
    },
    {
      "type": "Feature",
      "properties": {
        "@id": "way/1464142403",
        "barrier": "hedge"
      },
      "geometry": {
        "type": "MultiLineString",
        "coordinates": [
          [
            [
              5.4175511,
              52.1276866
            ],
            [
              5.4175931,
              52.1277701
            ]
          ]
        ]
      },
      "id": "way/1464142403"
    },
    {
      "type": "Feature",
      "properties": {
        "@id": "way/1323784165",
        "barrier": "fence"
      },
      "geometry": {
        "type": "MultiLineString",
        "coordinates": [
          [
            [
              5.4110676,
              52.126451
            ],
            [
              5.4108612,
              52.1260197
            ],
            [
              5.4103479,
              52.1261106
            ],
            [
              5.4105513,
              52.1265471
            ],
            [
              5.4110676,
              52.126451
            ]
          ]
        ]
      },
      "id": "way/1323784165"
    },
    {
      "type": "Feature",
      "properties": {
        "@id": "way/1323784163",
        "barrier": "fence"
      },
      "geometry": {
        "type": "MultiLineString",
        "coordinates": [
          [
            [
              5.4113341,
              52.1264586
            ],
            [
              5.4106332,
              52.126591
            ],
            [
              5.4107838,
              52.1269015
            ],
            [
              5.4109351,
              52.1272133
            ],
            [
              5.4116376,
              52.1270837
            ],
            [
              5.4114856,
              52.1267706
            ],
            [
              5.4113341,
              52.1264586
            ]
          ]
        ]
      },
      "id": "way/1323784163"
    },
    {
      "type": "Feature",
      "properties": {
        "@id": "way/1323784164",
        "barrier": "fence"
      },
      "geometry": {
        "type": "MultiLineString",
        "coordinates": [
          [
            [
              5.4114856,
              52.1267706
            ],
            [
              5.4107838,
              52.1269015
            ]
          ]
        ]
      },
      "id": "way/1323784164"
    },
    {
      "type": "Feature",
      "properties": {
        "@id": "way/1327792836",
        "barrier": "fence"
      },
      "geometry": {
        "type": "MultiLineString",
        "coordinates": [
          [
            [
              5.4116576,
              52.1281338
            ],
            [
              5.4120828,
              52.1280543
            ]
          ]
        ]
      },
      "id": "way/1327792836"
    },
    {
      "type": "Feature",
      "properties": {
        "@id": "way/1327792835",
        "barrier": "fence"
      },
      "geometry": {
        "type": "MultiLineString",
        "coordinates": [
          [
            [
              5.4119288,
              52.1270768
            ],
            [
              5.4109205,
              52.1272546
            ],
            [
              5.411787,
              52.1291103
            ],
            [
              5.4127937,
              52.1289339
            ],
            [
              5.4119288,
              52.1270768
            ]
          ]
        ]
      },
      "id": "way/1327792835"
    },
    {
      "type": "Feature",
      "properties": {
        "@id": "way/1322162062",
        "barrier": "fence"
      },
      "geometry": {
        "type": "MultiLineString",
        "coordinates": [
          [
            [
              5.4128542,
              52.1287811
            ],
            [
              5.4127654,
              52.1286098
            ]
          ]
        ]
      },
      "id": "way/1322162062"
    },
    {
      "type": "Feature",
      "properties": {
        "@id": "way/1327792834",
        "barrier": "fence"
      },
      "geometry": {
        "type": "MultiLineString",
        "coordinates": [
          [
            [
              5.4139576,
              52.1279584
            ],
            [
              5.4134585,
              52.1280681
            ],
            [
              5.4129277,
              52.1281474
            ],
            [
              5.4126675,
              52.1276803
            ],
            [
              5.4124499,
              52.1272055
            ],
            [
              5.4129648,
              52.1270969
            ],
            [
              5.4134799,
              52.1270029
            ],
            [
              5.4137396,
              52.1274727
            ],
            [
              5.4139576,
              52.1279584
            ]
          ]
        ]
      },
      "id": "way/1327792834"
    },
    {
      "type": "Feature",
      "properties": {
        "@id": "way/1322162061",
        "barrier": "fence"
      },
      "geometry": {
        "type": "MultiLineString",
        "coordinates": [
          [
            [
              5.413063,
              52.1291813
            ],
            [
              5.413122,
              52.1294035
            ]
          ]
        ]
      },
      "id": "way/1322162061"
    },
    {
      "type": "Feature",
      "properties": {
        "@id": "way/1327792838",
        "barrier": "fence"
      },
      "geometry": {
        "type": "MultiLineString",
        "coordinates": [
          [
            [
              5.4144074,
              52.128504
            ],
            [
              5.4142794,
              52.1282591
            ]
          ]
        ]
      },
      "id": "way/1327792838"
    },
    {
      "type": "Feature",
      "properties": {
        "@id": "way/1322161873",
        "barrier": "hedge"
      },
      "geometry": {
        "type": "MultiLineString",
        "coordinates": [
          [
            [
              5.4146678,
              52.1314821
            ],
            [
              5.4146911,
              52.1316792
            ]
          ]
        ]
      },
      "id": "way/1322161873"
    },
    {
      "type": "Feature",
      "properties": {
        "@id": "way/1322161871",
        "barrier": "hedge"
      },
      "geometry": {
        "type": "MultiLineString",
        "coordinates": [
          [
            [
              5.4146173,
              52.1311261
            ],
            [
              5.4145677,
              52.1306247
            ]
          ]
        ]
      },
      "id": "way/1322161871"
    },
    {
      "type": "Feature",
      "properties": {
        "@id": "way/1322161872",
        "barrier": "hedge"
      },
      "geometry": {
        "type": "MultiLineString",
        "coordinates": [
          [
            [
              5.4142203,
              52.1311763
            ],
            [
              5.4146295,
              52.1311603
            ],
            [
              5.4146641,
              52.1314404
            ]
          ]
        ]
      },
      "id": "way/1322161872"
    },
    {
      "type": "Feature",
      "properties": {
        "@id": "way/1327792837",
        "barrier": "fence"
      },
      "geometry": {
        "type": "MultiLineString",
        "coordinates": [
          [
            [
              5.4141555,
              52.1295333
            ],
            [
              5.4145793,
              52.1295015
            ]
          ]
        ]
      },
      "id": "way/1327792837"
    },
    {
      "type": "Feature",
      "properties": {
        "@id": "way/1530689416",
        "barrier": "hedge"
      },
      "geometry": {
        "type": "MultiLineString",
        "coordinates": [
          [
            [
              5.416108,
              52.1278758
            ],
            [
              5.416137,
              52.1278972
            ],
            [
              5.4161804,
              52.127875
            ],
            [
              5.4161537,
              52.1278553
            ]
          ]
        ]
      },
      "id": "way/1530689416"
    },
    {
      "type": "Feature",
      "properties": {
        "@id": "way/798115178",
        "wall": "noise_barrier",
        "barrier": "wall"
      },
      "geometry": {
        "type": "MultiLineString",
        "coordinates": [
          [
            [
              5.3869421,
              52.1321439
            ],
            [
              5.3863729,
              52.1320576
            ],
            [
              5.3863191,
              52.1320677
            ],
            [
              5.3849255,
              52.1318118
            ],
            [
              5.383738,
              52.1315904
            ],
            [
              5.3827894,
              52.1314379
            ],
            [
              5.3818783,
              52.1313301
            ],
            [
              5.3806392,
              52.1312122
            ],
            [
              5.3791683,
              52.1310411
            ],
            [
              5.3780066,
              52.130893
            ]
          ]
        ]
      },
      "id": "way/798115178"
    },
    {
      "type": "Feature",
      "properties": {
        "@id": "way/1419219749",
        "height": "1.8 m",
        "barrier": "fence"
      },
      "geometry": {
        "type": "MultiLineString",
        "coordinates": [
          [
            [
              5.3803926,
              52.1296464
            ],
            [
              5.3812589,
              52.1297464
            ],
            [
              5.3819872,
              52.129823
            ],
            [
              5.382244,
              52.1298481
            ],
            [
              5.382368,
              52.1298596
            ],
            [
              5.3824082,
              52.1298637
            ],
            [
              5.3825343,
              52.1298765
            ],
            [
              5.3836602,
              52.1300041
            ],
            [
              5.3845453,
              52.1301177
            ],
            [
              5.3862198,
              52.1303295
            ],
            [
              5.3865637,
              52.1303729
            ],
            [
              5.3871256,
              52.1304289
            ],
            [
              5.3872074,
              52.1304421
            ],
            [
              5.3872772,
              52.130452
            ],
            [
              5.3874461,
              52.1304833
            ],
            [
              5.3875923,
              52.1305261
            ],
            [
              5.387603,
              52.1305563
            ],
            [
              5.3875859,
              52.1305755
            ],
            [
              5.3874294,
              52.130792
            ],
            [
              5.3872839,
              52.131111
            ],
            [
              5.3871896,
              52.13131
            ],
            [
              5.3871504,
              52.1313186
            ],
            [
              5.3871394,
              52.1313419
            ],
            [
              5.3869003,
              52.1318766
            ]
          ]
        ]
      },
      "id": "way/1419219749"
    },
    {
      "type": "Feature",
      "properties": {
        "@id": "way/798115175",
        "wall": "noise_barrier",
        "barrier": "wall"
      },
      "geometry": {
        "type": "MultiLineString",
        "coordinates": [
          [
            [
              5.386623,
              52.1327944
            ],
            [
              5.3874601,
              52.1328772
            ],
            [
              5.387479,
              52.1328945
            ],
            [
              5.3876974,
              52.132921
            ],
            [
              5.3877365,
              52.1329086
            ],
            [
              5.3908476,
              52.1333025
            ],
            [
              5.391,
              52.1333314
            ],
            [
              5.3910067,
              52.1333463
            ],
            [
              5.3912777,
              52.1333943
            ],
            [
              5.3912979,
              52.1333811
            ],
            [
              5.3928575,
              52.1336881
            ],
            [
              5.3944118,
              52.1340811
            ],
            [
              5.3947986,
              52.1342143
            ],
            [
              5.3953688,
              52.1344311
            ],
            [
              5.3959822,
              52.1347091
            ],
            [
              5.3962936,
              52.1348713
            ]
          ]
        ]
      },
      "id": "way/798115175"
    },
    {
      "type": "Feature",
      "properties": {
        "@id": "way/798115176",
        "wall": "noise_barrier",
        "barrier": "wall"
      },
      "geometry": {
        "type": "MultiLineString",
        "coordinates": [
          [
            [
              5.3869879,
              52.1321547
            ],
            [
              5.3870412,
              52.1321776
            ],
            [
              5.3902058,
              52.1326619
            ],
            [
              5.3924767,
              52.1330185
            ],
            [
              5.3929039,
              52.1330927
            ]
          ]
        ]
      },
      "id": "way/798115176"
    },
    {
      "type": "Feature",
      "properties": {
        "@id": "way/304259211",
        "access": "private",
        "barrier": "gate",
        "material": "metal",
        "opening_hours": "Mo-Sa 06:00-20:00"
      },
      "geometry": {
        "type": "MultiLineString",
        "coordinates": [
          [
            [
              5.4150331,
              52.123634
            ],
            [
              5.4152182,
              52.1235895
            ]
          ]
        ]
      },
      "id": "way/304259211"
    },
    {
      "type": "Feature",
      "properties": {
        "@id": "way/296556439",
        "lit": "no",
        "sport": "tennis",
        "barrier": "fence",
        "leisure": "pitch",
        "surface": "clay"
      },
      "geometry": {
        "type": "MultiPolygon",
        "coordinates": [
          [
            [
              [
                5.4114725,
                52.1264485
              ],
              [
                5.4117316,
                52.1264018
              ],
              [
                5.4117654,
                52.126474
              ],
              [
                5.4115081,
                52.1265213
              ],
              [
                5.4114725,
                52.1264485
              ]
            ]
          ]
        ]
      },
      "id": "way/296556439"
    }
  ]
}