{
"type": "FeatureCollection",
"name": "dth_wandelroutes",
"crs": { "type": "name", "properties": { "name": "urn:ogc:def:crs:OGC:1.3:CRS84" } },
"features": [
{ "type": "Feature", "properties": { "@id": "relation/21391780", "name": "Themawandeling vanaf de Doornseweg" }, "geometry": { "type": "LineString", "coordinates": [ [ 5.3635337, 52.094315799109836 ], [ 5.3634618, 52.094353999109849 ], [ 5.3634358, 52.094399799109837 ], [ 5.3633907, 52.094442899109829 ], [ 5.3633277, 52.094479199109834 ], [ 5.3632365, 52.094503099109815 ], [ 5.363148, 52.094513799109826 ], [ 5.3630541, 52.094517099109815 ], [ 5.362991, 52.094533599109837 ], [ 5.3630627, 52.094495799109836 ], [ 5.36309, 52.094453499109839 ], [ 5.3630974, 52.09432339910984 ], [ 5.3631128, 52.094054299109871 ], [ 5.3631476, 52.093442699109922 ], [ 5.3631514, 52.093375399109924 ], [ 5.3631675, 52.093286599109931 ], [ 5.3631926, 52.092857899109951 ], [ 5.3632042, 52.092815299109951 ], [ 5.3632246, 52.092780299109961 ], [ 5.3633268, 52.092604399109973 ], [ 5.363577, 52.092426699109986 ], [ 5.363643, 52.092363799109989 ], [ 5.3636524, 52.09231669911 ], [ 5.363535, 52.092082499110028 ], [ 5.3634497, 52.091921999110014 ], [ 5.3633174, 52.091960199110012 ], [ 5.3631839, 52.09200309911003 ], [ 5.3629067, 52.092104799110018 ], [ 5.3628463, 52.092102099110001 ], [ 5.3627363, 52.092085599110014 ], [ 5.3626183, 52.092036999110007 ], [ 5.3625096, 52.092020499110006 ], [ 5.3624225, 52.091989199110024 ], [ 5.3623366, 52.091889499110046 ], [ 5.3622709, 52.091814499110036 ], [ 5.362291, 52.091748599110062 ], [ 5.3623916, 52.091676899110048 ], [ 5.3624788, 52.091582999110045 ], [ 5.3625781, 52.091572199110047 ], [ 5.3630578, 52.091627999110052 ], [ 5.3639621, 52.091730499110049 ], [ 5.3641793, 52.091737099110055 ], [ 5.3643161, 52.091707399110064 ], [ 5.3644378, 52.09169709911005 ], [ 5.3645521, 52.091692599110047 ], [ 5.3648069, 52.091700799110043 ], [ 5.36511, 52.091709099110055 ], [ 5.365397, 52.09171569911004 ], [ 5.3655982, 52.091710699110031 ], [ 5.3656974, 52.09171569911004 ], [ 5.3658761, 52.091772499110036 ], [ 5.365982, 52.091804599110063 ], [ 5.3661033, 52.091754999110044 ], [ 5.3662456, 52.091741999110049 ], [ 5.3664593, 52.091740899110036 ], [ 5.3666022, 52.091733299110047 ], [ 5.3667465, 52.091718599110045 ], [ 5.3669243, 52.091693899110034 ], [ 5.3670493, 52.091673099110054 ], [ 5.367129, 52.091659699110053 ], [ 5.3671936, 52.091653999110044 ], [ 5.3673492, 52.091648199110061 ], [ 5.3678034, 52.091580099110047 ], [ 5.367866, 52.091615099110058 ], [ 5.367917, 52.091659599110059 ], [ 5.3679773, 52.091727999110049 ], [ 5.3680846, 52.091810399110031 ], [ 5.3681221, 52.091895399110022 ], [ 5.36809, 52.09199579911003 ], [ 5.3681095, 52.09210679911002 ], [ 5.3681543, 52.09212269911 ], [ 5.368212, 52.092125999110017 ], [ 5.368385, 52.092119399110011 ], [ 5.3686707, 52.092138199110018 ], [ 5.3688714, 52.092154699110012 ], [ 5.3693852, 52.09219199911 ], [ 5.3699583, 52.09228019911 ], [ 5.3699428, 52.091790099110035 ], [ 5.3705778, 52.091724499110043 ], [ 5.3710336, 52.091727999110049 ], [ 5.3718286, 52.091794099110047 ], [ 5.3718214, 52.091878199110006 ], [ 5.3729703, 52.091767899110046 ], [ 5.3736951, 52.091705599110028 ], [ 5.3740959, 52.091639599110053 ], [ 5.374387, 52.091352399110058 ], [ 5.3742365, 52.090924499110095 ], [ 5.3760113, 52.09074219911011 ], [ 5.3761399, 52.090707899110122 ], [ 5.3761116, 52.090507899110122 ], [ 5.3761408, 52.090343099110136 ], [ 5.3762623, 52.09015669911016 ], [ 5.3759979, 52.089280899110243 ], [ 5.3764802, 52.089160099110231 ], [ 5.3766871, 52.089111799110249 ], [ 5.3782521, 52.088959599110261 ], [ 5.378937, 52.088832699110256 ], [ 5.3792959, 52.088714099110263 ], [ 5.3793581, 52.088693599110258 ], [ 5.3801384, 52.088404899110287 ], [ 5.3804345, 52.088507099110288 ], [ 5.3804345, 52.088855099110262 ], [ 5.3804352, 52.088892499110258 ], [ 5.3808385, 52.089171999110228 ], [ 5.3809808, 52.089220499110247 ], [ 5.3810383, 52.089212799110221 ], [ 5.381174, 52.089168599110238 ], [ 5.3816361, 52.089140799110233 ], [ 5.3817116, 52.089183499110234 ], [ 5.3817469, 52.089211699110216 ], [ 5.3818175, 52.089407699110218 ], [ 5.3818716, 52.089457999110216 ], [ 5.381957, 52.089541099110207 ], [ 5.3820468, 52.089570999110215 ], [ 5.3841725, 52.089462499110219 ], [ 5.3842524, 52.089487999110204 ], [ 5.3842682, 52.089582499110193 ], [ 5.3842339, 52.089871399110187 ], [ 5.384204, 52.090122499110166 ], [ 5.3842031, 52.090171299110175 ], [ 5.3843402, 52.09033339911015 ], [ 5.3844959, 52.090890499110102 ], [ 5.3846258, 52.091432299110075 ], [ 5.3845744, 52.091591799110056 ], [ 5.3847842, 52.092009599110021 ], [ 5.385367, 52.091979799110007 ], [ 5.3861213, 52.091947299110025 ], [ 5.3863938, 52.092554999109971 ], [ 5.3868879, 52.093568599109915 ], [ 5.3858755, 52.094312599109855 ], [ 5.3837816, 52.094456599109826 ], [ 5.382496, 52.094554399109832 ], [ 5.3823201, 52.094778199109811 ], [ 5.3819536, 52.095497999109753 ], [ 5.3799757, 52.095734499109732 ], [ 5.3794035, 52.095802899109714 ], [ 5.3795532, 52.096404799109699 ], [ 5.3795645, 52.09643719910968 ], [ 5.379689, 52.096794499109656 ], [ 5.3797154, 52.097872699109594 ], [ 5.3797163, 52.097907599109583 ], [ 5.379227, 52.097973099109566 ], [ 5.3774764, 52.098182999109561 ], [ 5.3771112, 52.098231299109543 ], [ 5.376634, 52.098292499109562 ], [ 5.3761854, 52.098324199109541 ], [ 5.3757244, 52.098361699109546 ], [ 5.3751474, 52.098417599109538 ], [ 5.3750542, 52.098440599109523 ], [ 5.3749517, 52.098460799109525 ], [ 5.3749389, 52.098446699109537 ], [ 5.3749427, 52.098423099109525 ], [ 5.374937, 52.098404599109536 ], [ 5.3749276, 52.098386899109528 ], [ 5.3748984, 52.09835329910954 ], [ 5.3748616, 52.098325199109532 ], [ 5.3747578, 52.098259699109569 ], [ 5.3747314, 52.098239099109556 ], [ 5.3746909, 52.098194499109546 ], [ 5.374538, 52.098050799109565 ], [ 5.3741749, 52.097765199109574 ], [ 5.3738811, 52.097554799109588 ], [ 5.3735521, 52.097492099109608 ], [ 5.3734321, 52.097527599109597 ], [ 5.3733345, 52.097543499109598 ], [ 5.3732477, 52.097550799109584 ], [ 5.3728548, 52.097581299109599 ], [ 5.3723791, 52.097616099109601 ], [ 5.3721521, 52.097632699109582 ], [ 5.3707623, 52.097736399109586 ], [ 5.3695998, 52.09783559910958 ], [ 5.3693455, 52.097827799109567 ], [ 5.3692673, 52.09780339910958 ], [ 5.369223, 52.097760499109583 ], [ 5.3691843, 52.097598899109592 ], [ 5.369135, 52.09739759910962 ], [ 5.3690371, 52.09722739910962 ], [ 5.3689055, 52.097072799109625 ], [ 5.3687795, 52.096919699109648 ], [ 5.3686689, 52.096771699109667 ], [ 5.3685999, 52.096637099109657 ], [ 5.3685589, 52.096396199109691 ], [ 5.3684392, 52.096114999109702 ], [ 5.3682041, 52.095829299109752 ], [ 5.3680082, 52.095618299109745 ], [ 5.3678692, 52.095417199109761 ], [ 5.3678554, 52.095357999109773 ], [ 5.3679041, 52.095363199109791 ], [ 5.3679399, 52.095381699109751 ], [ 5.3680054, 52.095374399109751 ], [ 5.3680662, 52.095364399109755 ], [ 5.3681275, 52.095355899109769 ], [ 5.3681967, 52.095351699109763 ], [ 5.3682709, 52.095354699109777 ], [ 5.3683658, 52.09536929910977 ], [ 5.3684458, 52.095380799109769 ], [ 5.3684893, 52.095389299109762 ], [ 5.3685121, 52.095406899109747 ], [ 5.3686139, 52.095431199109761 ], [ 5.3686595, 52.095077299109775 ], [ 5.3686578, 52.094996999109803 ], [ 5.3686747, 52.094966299109807 ], [ 5.3687187, 52.094916599109787 ], [ 5.3687819, 52.094780799109806 ], [ 5.3687713, 52.094715599109811 ], [ 5.3687398, 52.09466729910983 ], [ 5.3687259, 52.094607299109825 ], [ 5.3687072, 52.094539999109827 ], [ 5.3686819, 52.094482499109823 ], [ 5.3685182, 52.094253199109843 ], [ 5.3683544, 52.094097899109869 ], [ 5.3682753, 52.094012699109875 ], [ 5.3682238, 52.093934699109866 ], [ 5.3681395, 52.093807399109892 ], [ 5.3681023, 52.093737399109905 ], [ 5.3680958, 52.093677299109913 ], [ 5.3680296, 52.0935508991099 ], [ 5.3679994, 52.093509299109911 ], [ 5.368115, 52.093476199109901 ], [ 5.3682319, 52.093416599109887 ], [ 5.3678892, 52.093225399109919 ], [ 5.3677097, 52.093335999109918 ], [ 5.3676616, 52.093349099109908 ], [ 5.3675925, 52.093362399109914 ], [ 5.3675057, 52.093382599109916 ], [ 5.3669709, 52.093511399109907 ], [ 5.3665718, 52.09363549910988 ], [ 5.3659549, 52.093815099109889 ], [ 5.3655982, 52.09386779910988 ], [ 5.3654255, 52.093898299109881 ], [ 5.3650779, 52.094008699109878 ], [ 5.3649397, 52.094040899109878 ], [ 5.3646815, 52.09408869910984 ], [ 5.3643939, 52.09412569910986 ], [ 5.364131, 52.094158699109848 ], [ 5.3639212, 52.094236599109841 ], [ 5.3635337, 52.094315799109836 ] ] } },
{ "type": "Feature", "properties": { "@id": "relation/5361155", "name": "Themawandeling Akkersesteeg" }, "geometry": { "type": "LineString", "coordinates": [ [ 5.3933912, 52.105953799108967 ], [ 5.3932824, 52.105987599108978 ], [ 5.3931136, 52.106041999108967 ], [ 5.3928853, 52.10611879910897 ], [ 5.3927165, 52.106181599108957 ], [ 5.3926115, 52.106222899108971 ], [ 5.3924571, 52.106293999108914 ], [ 5.3922317, 52.106427799108914 ], [ 5.3921824, 52.106449399108939 ], [ 5.3917866, 52.10654309910894 ], [ 5.3916657, 52.106563599108924 ], [ 5.3915773, 52.106575699108909 ], [ 5.3915085, 52.106579699108913 ], [ 5.3915228, 52.10666599910892 ], [ 5.3915371, 52.106714099108906 ], [ 5.3914293, 52.1066533991089 ], [ 5.3900798, 52.106923099108897 ], [ 5.3906412, 52.105442799109007 ], [ 5.3906678, 52.105373199109025 ], [ 5.3906768, 52.105349599109026 ], [ 5.3905518, 52.105260599109037 ], [ 5.3904474, 52.105185999109025 ], [ 5.3904207, 52.105195799109033 ], [ 5.3903712, 52.10519389910904 ], [ 5.3895728, 52.105159299109019 ], [ 5.3893388, 52.105145699109038 ], [ 5.3885634, 52.105105499109037 ], [ 5.3881217, 52.105171999109039 ], [ 5.38719, 52.105312199109015 ], [ 5.3860434, 52.105484799109007 ], [ 5.3859125, 52.105504499109003 ], [ 5.38587, 52.105352599109018 ], [ 5.3857587, 52.104902899109049 ], [ 5.3853626, 52.103351099109155 ], [ 5.3854188, 52.103027399109187 ], [ 5.3853716, 52.102876999109199 ], [ 5.3853447, 52.102830899109208 ], [ 5.3853034, 52.102814599109216 ], [ 5.3852622, 52.102798299109196 ], [ 5.3852157, 52.10267299910921 ], [ 5.3850909, 52.102586999109214 ], [ 5.3850227, 52.102521299109227 ], [ 5.3848143, 52.102261599109255 ], [ 5.3844671, 52.10208809910926 ], [ 5.3843463, 52.101942699109266 ], [ 5.3842425, 52.101585199109302 ], [ 5.3841186, 52.101401499109301 ], [ 5.3840621, 52.101191199109309 ], [ 5.3841346, 52.101084699109336 ], [ 5.3841787, 52.10099169910935 ], [ 5.3841429, 52.100901699109357 ], [ 5.3841954, 52.100814499109362 ], [ 5.3843003, 52.100731799109361 ], [ 5.3845332, 52.100662099109364 ], [ 5.3843849, 52.100421199109363 ], [ 5.3857824, 52.100296699109386 ], [ 5.3869367, 52.100193899109399 ], [ 5.3873859, 52.100251899109381 ], [ 5.3879748, 52.10043509910939 ], [ 5.389096, 52.100504699109393 ], [ 5.3892507, 52.100431699109379 ], [ 5.3895252, 52.100435499109381 ], [ 5.3895971, 52.100509999109377 ], [ 5.3897442, 52.100544299109373 ], [ 5.3898425, 52.100657399109359 ], [ 5.3898621, 52.100784899109357 ], [ 5.3898826, 52.100898999109347 ], [ 5.3899126, 52.101016199109338 ], [ 5.3900732, 52.101013299109333 ], [ 5.3900847, 52.101087899109345 ], [ 5.3911419, 52.101066999109335 ], [ 5.3972549, 52.10091029910933 ], [ 5.3973342, 52.100908299109356 ], [ 5.4034217, 52.10078849910937 ], [ 5.4042724, 52.103479399109162 ], [ 5.4043187, 52.103668899109145 ], [ 5.4043846, 52.103944099109121 ], [ 5.4043281, 52.10396549910913 ], [ 5.4042164, 52.104010099109118 ], [ 5.4041101, 52.104043599109112 ], [ 5.4040386, 52.104064699109131 ], [ 5.4039023, 52.104098899109111 ], [ 5.4036594, 52.104150199109121 ], [ 5.4033377, 52.104211599109078 ], [ 5.4031015, 52.104263999109087 ], [ 5.4028444, 52.104315899109103 ], [ 5.4023898, 52.10441089910907 ], [ 5.4022568, 52.104424799109076 ], [ 5.4021198, 52.104421899109084 ], [ 5.4018776, 52.10438539910907 ], [ 5.4011626, 52.104323399109106 ], [ 5.4008853, 52.104303999109085 ], [ 5.4007595, 52.104301599109085 ], [ 5.4005835, 52.104315899109103 ], [ 5.4003496, 52.104355199109087 ], [ 5.3997784, 52.104471399109087 ], [ 5.3995733, 52.104504099109086 ], [ 5.399356, 52.104526799109067 ], [ 5.3981879, 52.10455079910907 ], [ 5.3974708, 52.104568499109078 ], [ 5.3968634, 52.104575999109066 ], [ 5.3962126, 52.104579499109086 ], [ 5.3957888, 52.104582199109075 ], [ 5.3956353, 52.104585499109078 ], [ 5.3955485, 52.104591599109078 ], [ 5.395503, 52.104615399109072 ], [ 5.3954839, 52.10463589910907 ], [ 5.3954731, 52.104657899109078 ], [ 5.3954372, 52.104808899109052 ], [ 5.3952401, 52.105449099109016 ], [ 5.3952076, 52.105602899108987 ], [ 5.3951979, 52.105642699108991 ], [ 5.3951793, 52.105669799108995 ], [ 5.3951533, 52.105693399108986 ], [ 5.3951217, 52.105712899108994 ], [ 5.3950899, 52.105725099108987 ], [ 5.3950559, 52.105730299108984 ], [ 5.3950015, 52.105734999108996 ], [ 5.3949114, 52.105736899108983 ], [ 5.3940544, 52.105731999108983 ], [ 5.3939559, 52.10573139910899 ], [ 5.3938319, 52.105730699108982 ], [ 5.3937684, 52.105731899108989 ], [ 5.3936792, 52.105735999108973 ], [ 5.3936015, 52.105744699108989 ], [ 5.3935392, 52.105756799108988 ], [ 5.3934886, 52.105771999108995 ], [ 5.3934399, 52.105797399108987 ], [ 5.3934055, 52.105832999108969 ], [ 5.3933977, 52.105871099108967 ], [ 5.3933921, 52.105916399108978 ], [ 5.3933912, 52.105953799108967 ] ] } },
{ "type": "Feature", "properties": { "@id": "relation/5361054", "name": "Themawandeling Waterlooweg" }, "geometry": { "type": "LineString", "coordinates": [ [ 5.3720654, 52.117405099108147 ], [ 5.3719658, 52.117341699108117 ], [ 5.3719167, 52.117272699108121 ], [ 5.3719085, 52.117162999108125 ], [ 5.3718619, 52.117114799108151 ], [ 5.3718471, 52.11697269910816 ], [ 5.3718193, 52.116928999108147 ], [ 5.3717376, 52.116804299108168 ], [ 5.3717087, 52.116753699108173 ], [ 5.371722, 52.116696199108169 ], [ 5.3717819, 52.116630799108187 ], [ 5.3718087, 52.116558799108184 ], [ 5.3718075, 52.116502999108192 ], [ 5.3718004, 52.116423299108192 ], [ 5.371727, 52.116305299108198 ], [ 5.3716731, 52.116190299108204 ], [ 5.3716048, 52.115911199108233 ], [ 5.371608, 52.115829199108234 ], [ 5.3717508, 52.115644199108253 ], [ 5.3719559, 52.115417199108272 ], [ 5.372121, 52.115262099108271 ], [ 5.3722497, 52.115141099108293 ], [ 5.3722749, 52.115123499108293 ], [ 5.372465, 52.114961199108301 ], [ 5.3724999, 52.114921999108304 ], [ 5.3725256, 52.114833199108318 ], [ 5.3726064, 52.114746399108327 ], [ 5.3727375, 52.114639499108343 ], [ 5.3727771, 52.114584999108338 ], [ 5.3728697, 52.114332999108342 ], [ 5.3729973, 52.114071399108362 ], [ 5.3732417, 52.114099199108374 ], [ 5.373994, 52.114228799108361 ], [ 5.3744897, 52.11428879910833 ], [ 5.3751227, 52.11427679910836 ], [ 5.3752159, 52.114117599108383 ], [ 5.3753828, 52.113971399108365 ], [ 5.3755808, 52.113943999108365 ], [ 5.3756986, 52.113905899108403 ], [ 5.3757098, 52.113871699108387 ], [ 5.3759634, 52.113919499108377 ], [ 5.3761925, 52.113961899108375 ], [ 5.3764216, 52.113978299108361 ], [ 5.3765974, 52.113978299108361 ], [ 5.3767264, 52.113926399108372 ], [ 5.3768265, 52.113847099108398 ], [ 5.3769511, 52.113709199108406 ], [ 5.3771023, 52.113483799108415 ], [ 5.377198, 52.113383999108414 ], [ 5.3772603, 52.113296599108423 ], [ 5.3773048, 52.113229699108444 ], [ 5.3773159, 52.113146299108436 ], [ 5.3772936, 52.113026099108438 ], [ 5.3773515, 52.112965999108447 ], [ 5.3774805, 52.112920899108452 ], [ 5.3776451, 52.11287449910845 ], [ 5.3778097, 52.112856699108463 ], [ 5.3780019, 52.112800599108468 ], [ 5.3777507, 52.112709499108476 ], [ 5.3769211, 52.112582199108481 ], [ 5.3768182, 52.112574499108462 ], [ 5.3762227, 52.112629099108474 ], [ 5.3756873, 52.112616099108465 ], [ 5.3750596, 52.112535199108478 ], [ 5.3747035, 52.112420199108513 ], [ 5.3736802, 52.112212899108506 ], [ 5.3733113, 52.112078299108511 ], [ 5.3729086, 52.111924799108522 ], [ 5.371972, 52.111531099108568 ], [ 5.3716815, 52.111469799108541 ], [ 5.3714266, 52.111417499108562 ], [ 5.3711772, 52.11134969910858 ], [ 5.3709804, 52.111286899108578 ], [ 5.3709389, 52.111267699108581 ], [ 5.3708621, 52.111231099108579 ], [ 5.3706593, 52.111060599108598 ], [ 5.3705838, 52.111039799108589 ], [ 5.370494, 52.111027999108614 ], [ 5.3703618, 52.11102099910859 ], [ 5.3697105, 52.110991699108595 ], [ 5.3693545, 52.11095829910861 ], [ 5.3692377, 52.110897499108596 ], [ 5.369166, 52.110814399108612 ], [ 5.3692114, 52.110345899108637 ], [ 5.3691574, 52.109784199108688 ], [ 5.3695604, 52.109753399108683 ], [ 5.3701878, 52.109703399108689 ], [ 5.3701892, 52.109660099108709 ], [ 5.3701832, 52.109235499108713 ], [ 5.3702203, 52.108883699108745 ], [ 5.3701876, 52.107838399108829 ], [ 5.3702723, 52.107733499108846 ], [ 5.3703907, 52.107600899108853 ], [ 5.3704029, 52.107362499108866 ], [ 5.3704109, 52.107208199108882 ], [ 5.3707742, 52.107211499108871 ], [ 5.3716164, 52.10723479910888 ], [ 5.3716842, 52.107158799108902 ], [ 5.3718577, 52.107085999108882 ], [ 5.3720389, 52.107139299108887 ], [ 5.3720185, 52.107229499108882 ], [ 5.3720318, 52.107292199108898 ], [ 5.3743045, 52.108226399108794 ], [ 5.3767386, 52.109100999108733 ], [ 5.3767981, 52.109138099108733 ], [ 5.3772665, 52.109414999108715 ], [ 5.3773479, 52.109478599108705 ], [ 5.3773903, 52.109543599108697 ], [ 5.3773954, 52.109604499108698 ], [ 5.3773954, 52.109662099108682 ], [ 5.3773675, 52.10974669910869 ], [ 5.3773273, 52.109814699108675 ], [ 5.3772222, 52.109935599108653 ], [ 5.3770313, 52.110137099108655 ], [ 5.3768687, 52.110331199108622 ], [ 5.3767291, 52.110486799108628 ], [ 5.3774693, 52.110712599108595 ], [ 5.3775862, 52.110769399108619 ], [ 5.3776727, 52.110889099108604 ], [ 5.3777054, 52.111094099108584 ], [ 5.3779496, 52.111200099108579 ], [ 5.3780778, 52.111325999108573 ], [ 5.3781451, 52.111440199108578 ], [ 5.378211, 52.111547899108544 ], [ 5.3782127, 52.111703599108544 ], [ 5.378222, 52.111795099108541 ], [ 5.378958, 52.111736299108543 ], [ 5.3808697, 52.111597599108563 ], [ 5.3810101, 52.111580599108549 ], [ 5.3810535, 52.111682399108538 ], [ 5.3810572, 52.111961599108518 ], [ 5.3810719, 52.112030799108517 ], [ 5.3811699, 52.112320099108501 ], [ 5.3813491, 52.11259469910847 ], [ 5.3814544, 52.112691099108467 ], [ 5.3817149, 52.112972499108444 ], [ 5.3818092, 52.113098499108453 ], [ 5.381798, 52.113152599108432 ], [ 5.3810144, 52.114232699108356 ], [ 5.3804948, 52.114903399108314 ], [ 5.3801697, 52.115338999108275 ], [ 5.3795903, 52.116121299108222 ], [ 5.3818872, 52.117255499108133 ], [ 5.3819672, 52.117285099108138 ], [ 5.3820417, 52.117312799108134 ], [ 5.3828303, 52.117473499108122 ], [ 5.3827876, 52.11762629910811 ], [ 5.3827725, 52.117776899108108 ], [ 5.3826215, 52.118181199108065 ], [ 5.3824706, 52.118880799108013 ], [ 5.3823764, 52.118949699108015 ], [ 5.3823324, 52.118980399108011 ], [ 5.3823165, 52.119071999108009 ], [ 5.3822577, 52.119107599107998 ], [ 5.3822216, 52.119131899107998 ], [ 5.3821943, 52.119168999107998 ], [ 5.3821433, 52.119238199107997 ], [ 5.3813892, 52.120000999107951 ], [ 5.3810441, 52.120298799107921 ], [ 5.3807313, 52.120596299107895 ], [ 5.3805663, 52.120726299107872 ], [ 5.3803293, 52.120865099107874 ], [ 5.3801691, 52.120962299107866 ], [ 5.3800795, 52.121041099107849 ], [ 5.3798919, 52.121225599107859 ], [ 5.379624, 52.121454099107822 ], [ 5.3791305, 52.121711899107808 ], [ 5.3790323, 52.121746199107783 ], [ 5.3789094, 52.121790999107795 ], [ 5.3787868, 52.121823999107789 ], [ 5.3781208, 52.121783199107796 ], [ 5.3776413, 52.121621999107823 ], [ 5.3772674, 52.121347499107834 ], [ 5.3770921, 52.120932299107885 ], [ 5.3771666, 52.120808099107876 ], [ 5.3771666, 52.120686199107887 ], [ 5.3770364, 52.120607899107888 ], [ 5.3769583, 52.120530099107896 ], [ 5.3769632, 52.120456499107902 ], [ 5.3769853, 52.120381399107892 ], [ 5.3770073, 52.120310699107918 ], [ 5.377022, 52.120219099107906 ], [ 5.3770807, 52.120125899107911 ], [ 5.3771395, 52.12003569910793 ], [ 5.3771321, 52.119953099107938 ], [ 5.3772055, 52.119886899107925 ], [ 5.3772863, 52.119834299107929 ], [ 5.3773499, 52.119771199107952 ], [ 5.3774013, 52.11966149910797 ], [ 5.3774209, 52.119520199107974 ], [ 5.3774405, 52.11942409910796 ], [ 5.3774674, 52.119371499107984 ], [ 5.3775678, 52.119353399107972 ], [ 5.3776167, 52.119320399107991 ], [ 5.3776314, 52.119258699108002 ], [ 5.3776436, 52.119198599107982 ], [ 5.3776804, 52.119167099107969 ], [ 5.3777416, 52.119121999107989 ], [ 5.3777786, 52.119047299107983 ], [ 5.377831, 52.118982699107995 ], [ 5.377898, 52.118913799108029 ], [ 5.3777795, 52.118798099108027 ], [ 5.3777406, 52.11876009910803 ], [ 5.3777579, 52.11870489910801 ], [ 5.3777441, 52.118599599108038 ], [ 5.3774746, 52.11857269910805 ], [ 5.3773744, 52.118560899108026 ], [ 5.3762913, 52.118443499108054 ], [ 5.3763048, 52.11840279910804 ], [ 5.3763099, 52.11838359910805 ], [ 5.3761725, 52.118130899108067 ], [ 5.3760261, 52.117817699108095 ], [ 5.3759185, 52.117806799108102 ], [ 5.3757624, 52.117818099108099 ], [ 5.3755961, 52.11790459910808 ], [ 5.3754218, 52.117941599108079 ], [ 5.3751791, 52.117951499108074 ], [ 5.3749739, 52.117953199108072 ], [ 5.3748438, 52.117991899108077 ], [ 5.3746718, 52.118072199108056 ], [ 5.3745849, 52.118086399108073 ], [ 5.3745249, 52.118082899108067 ], [ 5.3744066, 52.118057099108086 ], [ 5.3742691, 52.118037799108095 ], [ 5.374133, 52.118009999108054 ], [ 5.3740958, 52.11800809910806 ], [ 5.3739258, 52.117998399108068 ], [ 5.3737716, 52.117988399108093 ], [ 5.3736371, 52.117980099108081 ], [ 5.3735141, 52.117987099108085 ], [ 5.373379, 52.117981399108082 ], [ 5.3732676, 52.117955199108074 ], [ 5.3731624, 52.117926799108083 ], [ 5.3730782, 52.117918599108094 ], [ 5.3729441, 52.117910499108085 ], [ 5.372813, 52.117902499108091 ], [ 5.3726678, 52.117896299108082 ], [ 5.3725518, 52.117890599108087 ], [ 5.3724248, 52.117884399108085 ], [ 5.3723376, 52.117867099108068 ], [ 5.3722266, 52.117823899108089 ], [ 5.3721388, 52.117799999108094 ], [ 5.372011, 52.1177828991081 ], [ 5.3719653, 52.117773199108093 ], [ 5.3720106, 52.117606499108113 ], [ 5.3720654, 52.117405099108147 ] ] } },
{ "type": "Feature", "properties": { "@id": "relation/2966082", "name": "Themawandeling De Troet" }, "geometry": { "type": "LineString", "coordinates": [ [ 5.3941343, 52.118794999108019 ], [ 5.3942852, 52.118779999108021 ], [ 5.3944692, 52.118737899108034 ], [ 5.3947739, 52.118635999108037 ], [ 5.3949966, 52.118674399108059 ], [ 5.3953098, 52.118849899108007 ], [ 5.3956656, 52.119118699107993 ], [ 5.3957567, 52.119157199107995 ], [ 5.3958338, 52.119164499107995 ], [ 5.3959718, 52.119141899108001 ], [ 5.3960524, 52.119108599107996 ], [ 5.3961516, 52.119212399108008 ], [ 5.3958108, 52.119348099107981 ], [ 5.3955299, 52.119437999107973 ], [ 5.3949467, 52.119807499107964 ], [ 5.3942591, 52.120202499107904 ], [ 5.3941309, 52.120359599107907 ], [ 5.3940611, 52.120432999107898 ], [ 5.3936286, 52.121178599107829 ], [ 5.3929487, 52.122400199107751 ], [ 5.3926047, 52.122410099107782 ], [ 5.3923198, 52.122434499107754 ], [ 5.3911286, 52.122535799107752 ], [ 5.3908037, 52.122557599107743 ], [ 5.3906009, 52.122536099107741 ], [ 5.3902057, 52.12151349910782 ], [ 5.3892491, 52.121385499107831 ], [ 5.3889571, 52.121346399107843 ], [ 5.3889025, 52.121213199107856 ], [ 5.3888883, 52.121178399107862 ], [ 5.3888595, 52.121086999107845 ], [ 5.3887554, 52.120977899107857 ], [ 5.3886242, 52.120904199107862 ], [ 5.3883729, 52.12082059910788 ], [ 5.387859, 52.120674199107896 ], [ 5.3874814, 52.120587199107895 ], [ 5.3875337, 52.120390799107909 ], [ 5.3877776, 52.119707099107941 ], [ 5.3891952, 52.11986059910793 ], [ 5.3892044, 52.119813299107953 ], [ 5.3892346, 52.119706099107965 ], [ 5.389265, 52.119683599107944 ], [ 5.3893918, 52.119589899107964 ], [ 5.389513, 52.119176699107996 ], [ 5.3895921, 52.11889849910802 ], [ 5.3896098, 52.118836099108023 ], [ 5.3882423, 52.118551499108044 ], [ 5.3878198, 52.118469399108051 ], [ 5.3868789, 52.11828599910806 ], [ 5.3867739, 52.118299099108071 ], [ 5.385994, 52.118128199108064 ], [ 5.3862137, 52.117225199108134 ], [ 5.3860849, 52.117070399108144 ], [ 5.3859481, 52.116839799108149 ], [ 5.3858596, 52.116573799108181 ], [ 5.3858221, 52.11648489910818 ], [ 5.3857644, 52.116354699108193 ], [ 5.3857582, 52.116202599108213 ], [ 5.3857891, 52.116046099108218 ], [ 5.3857598, 52.116010599108229 ], [ 5.3857349, 52.11600099910823 ], [ 5.3856702, 52.115955099108234 ], [ 5.3838621, 52.115428799108265 ], [ 5.384273, 52.115131199108298 ], [ 5.3848593, 52.114711599108304 ], [ 5.3852284, 52.114447399108343 ], [ 5.3854998, 52.11428319910835 ], [ 5.3858889, 52.114147099108365 ], [ 5.3862085, 52.114057999108368 ], [ 5.3863449, 52.114058199108378 ], [ 5.3864685, 52.114022399108379 ], [ 5.3869559, 52.113881399108386 ], [ 5.3873241, 52.113774899108392 ], [ 5.3874008, 52.113761099108395 ], [ 5.3876125, 52.113702299108375 ], [ 5.3887207, 52.113404799108423 ], [ 5.3887636, 52.113456999108422 ], [ 5.389871, 52.114681799108318 ], [ 5.3895878, 52.114768799108319 ], [ 5.3891428, 52.11490849910831 ], [ 5.3897841, 52.115647399108241 ], [ 5.3921666, 52.114842699108301 ], [ 5.3922936, 52.114831699108315 ], [ 5.3924586, 52.114956299108286 ], [ 5.3924385, 52.115036999108291 ], [ 5.3924541, 52.115108199108299 ], [ 5.3925878, 52.115183499108291 ], [ 5.3926279, 52.115247799108282 ], [ 5.3926346, 52.115333999108266 ], [ 5.3926034, 52.115447599108279 ], [ 5.3924987, 52.115606299108251 ], [ 5.3924626, 52.115696899108251 ], [ 5.391065, 52.116215799108204 ], [ 5.390546, 52.116406999108207 ], [ 5.3895673, 52.116757299108173 ], [ 5.3891267, 52.116948699108157 ], [ 5.3892971, 52.117025399108158 ], [ 5.3898975, 52.117219599108147 ], [ 5.3906989, 52.117437999108134 ], [ 5.3920738, 52.11782009910808 ], [ 5.3929411, 52.118163199108054 ], [ 5.3937636, 52.118596199108012 ], [ 5.3941343, 52.118794999108019 ] ] } }
]
}
