{
"type": "FeatureCollection",
"name": "dth_mtb_knooppunten",
"crs": { "type": "name", "properties": { "name": "urn:ogc:def:crs:OGC:1.3:CRS84" } },
"features": [
{ "type": "Feature", "properties": { "@id": "node/1018639047", "name": "DTH6" }, "geometry": { "type": "Point", "coordinates": [ 5.3764802, 52.089160099110231 ] } },
{ "type": "Feature", "properties": { "@id": "node/1019694223", "name": "DTH13" }, "geometry": { "type": "Point", "coordinates": [ 5.3782377, 52.104877199109048 ] } },
{ "type": "Feature", "properties": { "@id": "node/1019736135", "name": "DTH12" }, "geometry": { "type": "Point", "coordinates": [ 5.3757979, 52.101386199109307 ] } },
{ "type": "Feature", "properties": { "@id": "node/1038566152", "name": "DTH15" }, "geometry": { "type": "Point", "coordinates": [ 5.3833043, 52.114491499108325 ] } },
{ "type": "Feature", "properties": { "@id": "node/109796072", "name": "DTH39" }, "geometry": { "type": "Point", "coordinates": [ 5.3473089, 52.074294299111379 ] } },
{ "type": "Feature", "properties": { "@id": "node/109796265", "name": "DTH47" }, "geometry": { "type": "Point", "coordinates": [ 5.3346346, 52.09091789911011 ] } },
{ "type": "Feature", "properties": { "@id": "node/1161144939", "name": "DTH29" }, "geometry": { "type": "Point", "coordinates": [ 5.3717568, 52.101891899109269 ] } },
{ "type": "Feature", "properties": { "@id": "node/1163307888", "name": "DTH3" }, "geometry": { "type": "Point", "coordinates": [ 5.3755825, 52.087816999110338 ] } },
{ "type": "Feature", "properties": { "@id": "node/1163956231", "name": "DTH9" }, "geometry": { "type": "Point", "coordinates": [ 5.3780247, 52.095958899109718 ] } },
{ "type": "Feature", "properties": { "@id": "node/1163956497", "name": "DTH8" }, "geometry": { "type": "Point", "coordinates": [ 5.3767835, 52.094813499109812 ] } },
{ "type": "Feature", "properties": { "@id": "node/12039862069", "name": "DTH10" }, "geometry": { "type": "Point", "coordinates": [ 5.3791899, 52.098954099109491 ] } },
{ "type": "Feature", "properties": { "@id": "node/1387405530", "name": "DTH25" }, "geometry": { "type": "Point", "coordinates": [ 5.3607744, 52.112727699108447 ] } },
{ "type": "Feature", "properties": { "@id": "node/1405698452", "name": "DTH5" }, "geometry": { "type": "Point", "coordinates": [ 5.3752313, 52.086851199110413 ] } },
{ "type": "Feature", "properties": { "@id": "node/1445346170", "name": "DTH49" }, "geometry": { "type": "Point", "coordinates": [ 5.3454528, 52.093004799109934 ] } },
{ "type": "Feature", "properties": { "@id": "node/1493418234", "name": "DTH18" }, "geometry": { "type": "Point", "coordinates": [ 5.3892645, 52.122348299107784 ] } },
{ "type": "Feature", "properties": { "@id": "node/1539087715", "name": "DTH17" }, "geometry": { "type": "Point", "coordinates": [ 5.3877776, 52.119707099107941 ] } },
{ "type": "Feature", "properties": { "@id": "node/2032048498", "name": "DTH26" }, "geometry": { "type": "Point", "coordinates": [ 5.3661847, 52.110052799108672 ] } },
{ "type": "Feature", "properties": { "@id": "node/45157595", "name": "DTH44" }, "geometry": { "type": "Point", "coordinates": [ 5.3294418, 52.08056739911089 ] } },
{ "type": "Feature", "properties": { "@id": "node/45209578", "name": "DTH31" }, "geometry": { "type": "Point", "coordinates": [ 5.3634497, 52.091921999110014 ] } },
{ "type": "Feature", "properties": { "@id": "node/588945495", "name": "DTH14" }, "geometry": { "type": "Point", "coordinates": [ 5.3854439, 52.108345799108797 ] } },
{ "type": "Feature", "properties": { "@id": "node/7005551306", "name": "DTH32" }, "geometry": { "type": "Point", "coordinates": [ 5.3651112, 52.089205899110233 ] } },
{ "type": "Feature", "properties": { "@id": "node/708958549", "name": "DTH45" }, "geometry": { "type": "Point", "coordinates": [ 5.3304347, 52.086614999110445 ] } },
{ "type": "Feature", "properties": { "@id": "node/7177010538", "name": "DTH1" }, "geometry": { "type": "Point", "coordinates": [ 5.3708708, 52.084298699110612 ] } },
{ "type": "Feature", "properties": { "@id": "node/7177010592", "name": "DTH33" }, "geometry": { "type": "Point", "coordinates": [ 5.3666803, 52.085278199110526 ] } },
{ "type": "Feature", "properties": { "@id": "node/7177171257", "name": "DTH4" }, "geometry": { "type": "Point", "coordinates": [ 5.3737119, 52.086803699110419 ] } },
{ "type": "Feature", "properties": { "@id": "node/7177362165", "name": "DTH16" }, "geometry": { "type": "Point", "coordinates": [ 5.3857582, 52.116202599108213 ] } },
{ "type": "Feature", "properties": { "@id": "node/7178913727", "name": "DTH34" }, "geometry": { "type": "Point", "coordinates": [ 5.3812862, 52.083242499110696 ] } },
{ "type": "Feature", "properties": { "@id": "node/7179436717", "name": "DTH7" }, "geometry": { "type": "Point", "coordinates": [ 5.3766169, 52.092388999109986 ] } },
{ "type": "Feature", "properties": { "@id": "node/7232959027", "name": "DTH19" }, "geometry": { "type": "Point", "coordinates": [ 5.3847268, 52.124443699107594 ] } },
{ "type": "Feature", "properties": { "@id": "node/7232959078", "name": "DTH20" }, "geometry": { "type": "Point", "coordinates": [ 5.3774746, 52.11857269910805 ] } },
{ "type": "Feature", "properties": { "@id": "node/7235038381", "name": "DTH37" }, "geometry": { "type": "Point", "coordinates": [ 5.358208, 52.080608799110898 ] } },
{ "type": "Feature", "properties": { "@id": "node/7235053362", "name": "DTH30" }, "geometry": { "type": "Point", "coordinates": [ 5.3688322, 52.099159199109472 ] } },
{ "type": "Feature", "properties": { "@id": "node/7235063943", "name": "DTH28" }, "geometry": { "type": "Point", "coordinates": [ 5.3718078, 52.104642299109081 ] } },
{ "type": "Feature", "properties": { "@id": "node/7235064018", "name": "DTH27" }, "geometry": { "type": "Point", "coordinates": [ 5.3674856, 52.104849599109045 ] } },
{ "type": "Feature", "properties": { "@id": "node/7235064021", "name": "DTH21" }, "geometry": { "type": "Point", "coordinates": [ 5.3753454, 52.122485399107752 ] } },
{ "type": "Feature", "properties": { "@id": "node/7235079837", "name": "DTH36" }, "geometry": { "type": "Point", "coordinates": [ 5.3596671, 52.08378919911064 ] } },
{ "type": "Feature", "properties": { "@id": "node/7250099711", "name": "DTH40" }, "geometry": { "type": "Point", "coordinates": [ 5.3423246, 52.076252199111224 ] } },
{ "type": "Feature", "properties": { "@id": "node/7250099744", "name": "DTH41" }, "geometry": { "type": "Point", "coordinates": [ 5.3381156, 52.078194699111073 ] } },
{ "type": "Feature", "properties": { "@id": "node/7252370714", "name": "DTH22" }, "geometry": { "type": "Point", "coordinates": [ 5.3727966, 52.12728039910742 ] } },
{ "type": "Feature", "properties": { "@id": "node/7253038132", "name": "DTH48" }, "geometry": { "type": "Point", "coordinates": [ 5.3406677, 52.091351899110059 ] } },
{ "type": "Feature", "properties": { "@id": "node/7253069846", "name": "DTH46" }, "geometry": { "type": "Point", "coordinates": [ 5.3307627, 52.088115899110306 ] } },
{ "type": "Feature", "properties": { "@id": "node/7273981071", "name": "DTH53" }, "geometry": { "type": "Point", "coordinates": [ 5.3600479, 52.092422699109989 ] } },
{ "type": "Feature", "properties": { "@id": "node/7273987337", "name": "DTH52" }, "geometry": { "type": "Point", "coordinates": [ 5.3530354, 52.092466699109977 ] } },
{ "type": "Feature", "properties": { "@id": "node/7292373045", "name": "DTH23" }, "geometry": { "type": "Point", "coordinates": [ 5.3675992, 52.123961599107638 ] } },
{ "type": "Feature", "properties": { "@id": "node/7292373118", "name": "DTH24" }, "geometry": { "type": "Point", "coordinates": [ 5.3632715, 52.120503099107893 ] } },
{ "type": "Feature", "properties": { "@id": "node/7518652920", "name": "DTH43" }, "geometry": { "type": "Point", "coordinates": [ 5.3328246, 52.078859299111045 ] } },
{ "type": "Feature", "properties": { "@id": "node/7613179499", "name": "DTH2" }, "geometry": { "type": "Point", "coordinates": [ 5.3722903, 52.085864199110475 ] } },
{ "type": "Feature", "properties": { "@id": "node/824304842", "name": "DTH38" }, "geometry": { "type": "Point", "coordinates": [ 5.3517373, 52.076120799111237 ] } },
{ "type": "Feature", "properties": { "@id": "node/8895292337", "name": "DTH11" }, "geometry": { "type": "Point", "coordinates": [ 5.3769591, 52.099696499109434 ] } },
{ "type": "Feature", "properties": { "@id": "node/942693050", "name": "DTH42" }, "geometry": { "type": "Point", "coordinates": [ 5.3346763, 52.079794999110945 ] } },
{ "type": "Feature", "properties": { "@id": "node/942724790", "name": "DTH51" }, "geometry": { "type": "Point", "coordinates": [ 5.3536966, 52.088337199110292 ] } },
{ "type": "Feature", "properties": { "@id": "node/942734189", "name": "DTH50" }, "geometry": { "type": "Point", "coordinates": [ 5.3485043, 52.089650599110186 ] } }
]
}
