{
"type": "FeatureCollection",
"name": "sql_statement",
"crs": { "type": "name", "properties": { "name": "urn:ogc:def:crs:OGC:1.3:CRS84" } },
"features": [
{ "type": "Feature", "properties": { "id": 1 }, "geometry": { "type": "LineString", "coordinates": [ [ 5.3596671, 52.08378919911064 ], [ 5.3598946, 52.083759999110633 ], [ 5.3599727, 52.083754999110653 ], [ 5.3601628, 52.083744099110646 ], [ 5.3602877, 52.083737199110651 ], [ 5.3603683, 52.08373009911066 ] ] } },
{ "type": "Feature", "properties": { "id": 2 }, "geometry": { "type": "LineString", "coordinates": [ [ 5.3544972, 52.088615799110272 ], [ 5.3554485, 52.090116999110165 ] ] } },
{ "type": "Feature", "properties": { "id": 3 }, "geometry": { "type": "LineString", "coordinates": [ [ 5.3536966, 52.088337199110292 ], [ 5.3537824, 52.088356999110303 ], [ 5.3538629, 52.088384599110285 ], [ 5.3539192, 52.088413499110295 ], [ 5.3539708, 52.088423799110274 ], [ 5.3540339, 52.088442299110291 ], [ 5.3540855, 52.088459599110301 ], [ 5.3542082, 52.088493799110303 ], [ 5.3543396, 52.088554399110272 ], [ 5.3543926, 52.088585299110271 ], [ 5.3544972, 52.088615799110272 ] ] } },
{ "type": "Feature", "properties": { "id": 4 }, "geometry": { "type": "LineString", "coordinates": [ [ 5.3490107, 52.090219299110153 ], [ 5.3491006, 52.09022999911015 ], [ 5.3491817, 52.090215999110178 ], [ 5.3492206, 52.090163699110164 ], [ 5.3492441, 52.090145599110159 ], [ 5.3492468, 52.09010149911019 ], [ 5.3492475, 52.090073899110159 ], [ 5.3492729, 52.090051999110166 ], [ 5.3492931, 52.090041299110176 ], [ 5.3493427, 52.090030599110179 ], [ 5.3494124, 52.089990599110166 ], [ 5.3494788, 52.089977499110169 ], [ 5.3495117, 52.089949399110182 ], [ 5.3495163, 52.08992389911019 ], [ 5.3495036, 52.089909499110185 ], [ 5.3492998, 52.089849299110192 ], [ 5.3492454, 52.089810599110187 ], [ 5.349226, 52.089783399110196 ], [ 5.3492206, 52.089741799110186 ], [ 5.3492495, 52.089698499110192 ], [ 5.3492441, 52.089639199110202 ], [ 5.349222, 52.089614099110193 ], [ 5.3491784, 52.089593499110215 ], [ 5.3491174, 52.089571199110196 ], [ 5.3490128, 52.089529599110207 ], [ 5.3489906, 52.089478899110219 ], [ 5.3489886, 52.089434399110203 ], [ 5.3490061, 52.089396899110234 ], [ 5.349289, 52.089300899110221 ], [ 5.349397, 52.089258099110232 ], [ 5.3494783, 52.089201399110216 ], [ 5.3495318, 52.089153399110245 ], [ 5.3495834, 52.089098699110245 ], [ 5.3496619, 52.089066099110234 ], [ 5.3497953, 52.089042199110239 ], [ 5.3498778, 52.089037699110243 ], [ 5.3499247, 52.089037699110243 ], [ 5.3499784, 52.089028599110257 ], [ 5.3500159, 52.089007999110244 ], [ 5.3500461, 52.088985799110255 ], [ 5.3500649, 52.088970099110256 ], [ 5.3501118, 52.088949499110242 ], [ 5.3501527, 52.088924799110266 ], [ 5.3501909, 52.088920199110241 ], [ 5.3502459, 52.08891819911026 ], [ 5.3503291, 52.088937599110245 ], [ 5.3503773, 52.088950299110259 ], [ 5.3503941, 52.088958199110252 ], [ 5.3504223, 52.088968499110244 ], [ 5.3504806, 52.088963099110266 ], [ 5.3505235, 52.088937099110268 ], [ 5.3505856, 52.088850299110248 ], [ 5.3506621, 52.088743399110257 ] ] } },
{ "type": "Feature", "properties": { "id": 5 }, "geometry": { "type": "LineString", "coordinates": [ [ 5.3621634, 52.092099599110028 ], [ 5.3621053, 52.09210579911003 ], [ 5.3619601, 52.092118699110003 ], [ 5.3618634, 52.092127299110011 ], [ 5.3618355, 52.092130099110015 ], [ 5.3617845, 52.092142299110016 ], [ 5.3617001, 52.092162499110017 ], [ 5.3616424, 52.092187399110031 ], [ 5.3616206, 52.092196899110007 ], [ 5.3615832, 52.092213299109986 ], [ 5.3615627, 52.092222299110006 ], [ 5.3615394, 52.092230699110011 ], [ 5.3615106, 52.09223879911 ], [ 5.3614822, 52.092244799110013 ], [ 5.3613083, 52.092269099110005 ], [ 5.3607442, 52.092336599109998 ], [ 5.3605802, 52.092391499109986 ], [ 5.3604758, 52.092369199110003 ] ] } },
{ "type": "Feature", "properties": { "id": 6 }, "geometry": { "type": "LineString", "coordinates": [ [ 5.3665744, 52.087276499110374 ], [ 5.3665963, 52.086891499110415 ], [ 5.3665991, 52.086516499110445 ], [ 5.3666803, 52.085278199110526 ] ] } },
{ "type": "Feature", "properties": { "id": 7 }, "geometry": { "type": "LineString", "coordinates": [ [ 5.3468943, 52.092634399109997 ], [ 5.3469851, 52.092602899109977 ], [ 5.347035, 52.092573199109985 ], [ 5.3470704, 52.092509999109971 ], [ 5.3471119, 52.09243619910999 ], [ 5.3471679, 52.09239609910999 ], [ 5.3472245, 52.092366599109965 ], [ 5.3473283, 52.09235749910998 ], [ 5.3474497, 52.092345999109995 ], [ 5.3475261, 52.092309699109975 ], [ 5.3475543, 52.092261499109981 ], [ 5.3475657, 52.092194399109992 ], [ 5.3476073, 52.092121099110003 ], [ 5.3476757, 52.092073699110024 ], [ 5.3478088, 52.092029499110012 ], [ 5.347895, 52.091958699110016 ], [ 5.347905, 52.091927799110024 ], [ 5.347899, 52.091792699110037 ], [ 5.3478339, 52.091649299110053 ], [ 5.3478064, 52.091580899110056 ], [ 5.3478158, 52.091503499110068 ] ] } },
{ "type": "Feature", "properties": { "id": 8 }, "geometry": { "type": "LineString", "coordinates": [ [ 5.3423343, 52.091426299110054 ], [ 5.342338, 52.091521199110062 ], [ 5.3423946, 52.091588999110044 ], [ 5.3430794, 52.092307399110005 ] ] } },
{ "type": "Feature", "properties": { "id": 9 }, "geometry": { "type": "LineString", "coordinates": [ [ 5.3343539, 52.089863199110184 ], [ 5.3346346, 52.09091789911011 ], [ 5.3349135, 52.091982499110038 ], [ 5.3350536, 52.092503499109981 ] ] } },
{ "type": "Feature", "properties": { "id": 10 }, "geometry": { "type": "LineString", "coordinates": [ [ 5.3603683, 52.08373009911066 ], [ 5.360387, 52.083848399110643 ], [ 5.3603937, 52.083901999110644 ], [ 5.3604131, 52.084042499110645 ] ] } },
{ "type": "Feature", "properties": { "id": 11 }, "geometry": { "type": "LineString", "coordinates": [ [ 5.3604131, 52.084042499110645 ], [ 5.3604267, 52.084127099110617 ], [ 5.360447, 52.084653699110568 ], [ 5.3606075, 52.085266599110518 ] ] } },
{ "type": "Feature", "properties": { "id": 12 }, "geometry": { "type": "LineString", "coordinates": [ [ 5.3606075, 52.085266599110518 ], [ 5.3614366, 52.085226699110535 ] ] } },
{ "type": "Feature", "properties": { "id": 13 }, "geometry": { "type": "LineString", "coordinates": [ [ 5.3806672, 52.083396199110673 ], [ 5.3806749, 52.083379199110674 ], [ 5.3806675, 52.083370099110674 ], [ 5.3806387, 52.083354799110687 ], [ 5.380581, 52.083343699110678 ], [ 5.3804536, 52.083326799110672 ], [ 5.3803731, 52.083326799110672 ], [ 5.3802873, 52.083339199110668 ], [ 5.3802149, 52.083347799110683 ], [ 5.3801478, 52.083351099110679 ], [ 5.380062, 52.08334449911068 ], [ 5.3799581, 52.083337099110686 ], [ 5.3798769, 52.083337499110684 ], [ 5.3798347, 52.083361399110665 ], [ 5.3797697, 52.083396099110679 ], [ 5.3797153, 52.08341829911069 ], [ 5.3796751, 52.083422799110664 ], [ 5.3796194, 52.083409199110669 ], [ 5.3795437, 52.083391899110687 ], [ 5.3794719, 52.083368899110681 ], [ 5.3793975, 52.083342099110681 ], [ 5.379315, 52.083324399110673 ], [ 5.3792325, 52.083328499110678 ], [ 5.3791635, 52.083346199110686 ], [ 5.3791246, 52.083370899110669 ], [ 5.3790864, 52.083397299110686 ], [ 5.3790475, 52.083412899110684 ], [ 5.3789844, 52.083398099110667 ], [ 5.3789127, 52.083376299110689 ], [ 5.3788228, 52.083356099110688 ], [ 5.3787189, 52.083353599110694 ], [ 5.3786096, 52.08336599911069 ], [ 5.3785513, 52.083384099110681 ], [ 5.3784929, 52.08342449911067 ], [ 5.3784453, 52.083474299110669 ], [ 5.3784044, 52.083517199110666 ], [ 5.3783648, 52.08354069911065 ], [ 5.3783058, 52.083552599110661 ], [ 5.3782368, 52.083564199110683 ], [ 5.378155, 52.083566199110692 ], [ 5.3780678, 52.083549799110671 ], [ 5.37799, 52.083518399110659 ], [ 5.3779578, 52.083474299110669 ], [ 5.377878, 52.083432299110669 ], [ 5.3777768, 52.083438499110677 ], [ 5.3776695, 52.083454599110674 ], [ 5.3775716, 52.083452499110685 ], [ 5.3774797, 52.083417099110669 ], [ 5.3773805, 52.083383699110676 ], [ 5.3772839, 52.083369299110686 ], [ 5.3772041, 52.083379599110671 ], [ 5.3771082, 52.083386199110663 ], [ 5.377017, 52.083410899110667 ], [ 5.3769721, 52.083446699110674 ], [ 5.3769426, 52.083489999110682 ], [ 5.3768923, 52.083507699110676 ], [ 5.3768273, 52.083503599110664 ], [ 5.3767461, 52.083493299110678 ], [ 5.376669, 52.083502799110654 ], [ 5.3765745, 52.083513899110677 ], [ 5.3764759, 52.083526699110664 ], [ 5.376382, 52.083545599110671 ], [ 5.3762995, 52.083527499110673 ], [ 5.3762144, 52.083503199110666 ], [ 5.3761252, 52.083474299110669 ], [ 5.3760219, 52.083474299110669 ], [ 5.3759133, 52.083485099110661 ], [ 5.375804, 52.083508999110656 ], [ 5.3756927, 52.08351139911067 ], [ 5.3756028, 52.08352999911066 ], [ 5.3755418, 52.083567899110669 ], [ 5.3754506, 52.083596299110667 ], [ 5.3753762, 52.083638799110666 ], [ 5.3753232, 52.083684499110674 ], [ 5.3752676, 52.083724499110666 ], [ 5.3751958, 52.083732699110648 ], [ 5.3751033, 52.083733499110657 ], [ 5.3750288, 52.083721999110658 ], [ 5.3749725, 52.083675399110646 ], [ 5.3749256, 52.083633399110667 ], [ 5.3748518, 52.083622699110663 ], [ 5.3748149, 52.083636699110677 ], [ 5.374774, 52.083655199110659 ], [ 5.3747184, 52.083675399110646 ], [ 5.3746574, 52.083691499110643 ], [ 5.3745937, 52.083706299110673 ], [ 5.3745367, 52.083705899110647 ], [ 5.3744703, 52.083685299110655 ], [ 5.3744005, 52.083654799110654 ], [ 5.3743288, 52.083613199110658 ], [ 5.3742423, 52.083582699110671 ], [ 5.3741837, 52.083564099110653 ], [ 5.3741471, 52.083556799110653 ], [ 5.3740063, 52.083551399110654 ], [ 5.3738996, 52.083588499110654 ], [ 5.373785, 52.083615299110662 ], [ 5.3737079, 52.08361569911068 ], [ 5.3736569, 52.083587699110666 ], [ 5.3735912, 52.083555099110654 ], [ 5.3734832, 52.083543999110674 ], [ 5.3733739, 52.083544799110669 ], [ 5.3733156, 52.083574899110701 ], [ 5.3732378, 52.083595499110665 ], [ 5.37315, 52.083599599110656 ], [ 5.3730433, 52.083593799110659 ], [ 5.3729394, 52.083598799110653 ], [ 5.372877, 52.083633799110657 ], [ 5.3728361, 52.083683299110632 ], [ 5.3728006, 52.083742199110638 ], [ 5.3727228, 52.083773899110632 ], [ 5.3726229, 52.083794099110648 ], [ 5.3725129, 52.083802299110644 ], [ 5.3724197, 52.083777999110637 ], [ 5.372344, 52.083740099110656 ], [ 5.3722917, 52.083693199110655 ], [ 5.3722246, 52.083657299110662 ], [ 5.3721287, 52.083647399110653 ], [ 5.3720221, 52.083651899110649 ], [ 5.3719376, 52.08368079911066 ], [ 5.3718444, 52.083696399110657 ], [ 5.3717411, 52.083695599110655 ], [ 5.371656, 52.083718299110657 ], [ 5.3715614, 52.083745899110653 ], [ 5.3714789, 52.083777599110654 ], [ 5.3714045, 52.083798199110653 ], [ 5.3713629, 52.083795799110646 ], [ 5.3712764, 52.083788299110644 ], [ 5.3711638, 52.08373229911065 ], [ 5.3710364, 52.083686099110658 ], [ 5.370905, 52.083686999110661 ], [ 5.3708205, 52.08370919911065 ], [ 5.3707467, 52.08375289911065 ], [ 5.3706756, 52.08380729911066 ], [ 5.3705911, 52.083815499110649 ], [ 5.3704946, 52.083777599110654 ], [ 5.3703779, 52.083726499110632 ], [ 5.3702505, 52.083714999110633 ], [ 5.3701177, 52.083733099110646 ], [ 5.369985, 52.083752099110647 ], [ 5.3698455, 52.083728999110669 ], [ 5.369702, 52.083724099110647 ], [ 5.3695048, 52.083727399110657 ], [ 5.369301, 52.083745499110663 ], [ 5.3690931, 52.083759499110663 ], [ 5.3690247, 52.083784999110662 ], [ 5.3690127, 52.083853399110659 ], [ 5.369014, 52.083907799110627 ], [ 5.3689805, 52.083944099110624 ], [ 5.3689479, 52.083952699110625 ], [ 5.3689148, 52.083961399110635 ], [ 5.3688034, 52.083966299110635 ], [ 5.3686921, 52.08399349911064 ], [ 5.368554, 52.08402569911064 ], [ 5.3684051, 52.084039699110626 ], [ 5.3682818, 52.084021599110649 ], [ 5.3681892, 52.083986999110657 ], [ 5.3681637, 52.083950699110645 ], [ 5.3681825, 52.083890499110652 ], [ 5.3681771, 52.083825399110644 ], [ 5.3681061, 52.083790799110659 ], [ 5.368035, 52.083795799110646 ], [ 5.3679746, 52.083827099110643 ], [ 5.367917, 52.083869899110638 ], [ 5.3678673, 52.083907799110627 ], [ 5.367815, 52.083916099110631 ], [ 5.3677534, 52.083903699110643 ], [ 5.367685, 52.083876499110644 ], [ 5.3676233, 52.083837799110647 ], [ 5.3675482, 52.083798199110653 ], [ 5.3674959, 52.083822999110645 ], [ 5.3674328, 52.083859199110655 ], [ 5.3673899, 52.083901199110642 ], [ 5.3673575, 52.083900999110625 ], [ 5.367174, 52.083878999110645 ], [ 5.3670546, 52.083880599110643 ], [ 5.3669219, 52.083908699110637 ], [ 5.3667797, 52.083910299110634 ], [ 5.3666282, 52.083909499110632 ], [ 5.3664847, 52.08393749911064 ], [ 5.3663304, 52.083968799110643 ], [ 5.3662379, 52.084013299110644 ], [ 5.3661253, 52.084023999110634 ], [ 5.3660019, 52.084033099110634 ], [ 5.3658651, 52.084043799110638 ], [ 5.3657229, 52.084053699110619 ], [ 5.3655969, 52.084040499110614 ], [ 5.3654896, 52.084013299110644 ], [ 5.3653903, 52.083980399110636 ], [ 5.3652683, 52.083958899110641 ], [ 5.3651945, 52.083977099110626 ], [ 5.365153, 52.084028199110641 ], [ 5.3651033, 52.084073499110623 ], [ 5.3650296, 52.084097399110611 ], [ 5.3649437, 52.084098199110628 ], [ 5.3648525, 52.084089099110628 ], [ 5.3647627, 52.084063599110621 ], [ 5.364693, 52.084056999110615 ], [ 5.3646407, 52.084084999110623 ], [ 5.3645776, 52.084126999110609 ], [ 5.3645092, 52.084165799110615 ], [ 5.3644395, 52.084189699110603 ], [ 5.3643738, 52.084178099110616 ], [ 5.3642987, 52.084145999110603 ], [ 5.3642343, 52.084094899110617 ], [ 5.3641565, 52.084043799110638 ], [ 5.3640492, 52.084037199110625 ], [ 5.3639299, 52.084038899110631 ], [ 5.3637984, 52.084048799110626 ], [ 5.363667, 52.084061899110623 ], [ 5.3635369, 52.084049599110642 ], [ 5.3634551, 52.084037999110642 ], [ 5.3633317, 52.084029799110617 ], [ 5.3631882, 52.084031499110637 ], [ 5.363144, 52.084063599110621 ], [ 5.3631373, 52.084127899110619 ], [ 5.3631118, 52.08418389911062 ], [ 5.3630729, 52.084195499110628 ], [ 5.36303, 52.084180599110624 ], [ 5.3629844, 52.084154199110614 ], [ 5.3629482, 52.084112199110614 ], [ 5.3629187, 52.084062799110626 ], [ 5.3628717, 52.084020699110638 ], [ 5.3627765, 52.084013299110644 ], [ 5.3627068, 52.084023999110634 ], [ 5.3626209, 52.084055399110632 ], [ 5.3625754, 52.084108899110625 ], [ 5.3625016, 52.084176499110612 ], [ 5.3624278, 52.084214399110614 ], [ 5.362346, 52.084245699110596 ], [ 5.3622508, 52.084260599110607 ], [ 5.3621341, 52.084245699110596 ], [ 5.3620436, 52.084241299110609 ], [ 5.3619276, 52.084225899110599 ], [ 5.3617989, 52.084225899110599 ], [ 5.3617398, 52.084264699110612 ], [ 5.3616942, 52.084316599110615 ], [ 5.3616352, 52.0843511991106 ], [ 5.3615628, 52.084338799110597 ], [ 5.3614984, 52.084324799110604 ], [ 5.3614528, 52.084350399110605 ], [ 5.3614381, 52.08440309911061 ], [ 5.3614582, 52.084467399110601 ], [ 5.3615078, 52.08451029911059 ], [ 5.3615092, 52.084554799110578 ], [ 5.3614569, 52.084590199110579 ], [ 5.3613885, 52.084628899110591 ], [ 5.3613295, 52.084675099110569 ], [ 5.3613617, 52.084742699110578 ], [ 5.3614099, 52.084817699110566 ], [ 5.3614622, 52.084868699110558 ], [ 5.3615065, 52.084920699110548 ], [ 5.3615132, 52.084978399110582 ], [ 5.3615038, 52.085043499110533 ], [ 5.361481, 52.085107699110551 ], [ 5.3614609, 52.085172799110531 ], [ 5.3614366, 52.085226699110535 ] ] } },
{ "type": "Feature", "properties": { "id": 14 }, "geometry": { "type": "LineString", "coordinates": [ [ 5.3629067, 52.092104799110018 ], [ 5.3627637, 52.092151999109994 ], [ 5.3625711, 52.092201699109999 ] ] } },
{ "type": "Feature", "properties": { "id": 15 }, "geometry": { "type": "LineString", "coordinates": [ [ 5.3305392, 52.087290599110375 ], [ 5.3305161, 52.08710939911041 ] ] } },
{ "type": "Feature", "properties": { "id": 16 }, "geometry": { "type": "LineString", "coordinates": [ [ 5.3305392, 52.087290599110375 ], [ 5.3305488, 52.087381499110386 ], [ 5.3305565, 52.087409699110381 ], [ 5.3305726, 52.087436299110351 ], [ 5.3305986, 52.087460599110358 ], [ 5.330642, 52.08748839911037 ], [ 5.3306854, 52.087512299110358 ], [ 5.3306962, 52.087522399110362 ], [ 5.3307047, 52.087535099110347 ], [ 5.3307094, 52.087553899110361 ], [ 5.3307104, 52.087581199110353 ], [ 5.3307068, 52.087599999110353 ], [ 5.3306799, 52.087660199110353 ], [ 5.3306405, 52.087711499110334 ] ] } },
{ "type": "Feature", "properties": { "id": 17 }, "geometry": { "type": "LineString", "coordinates": [ [ 5.3601977, 52.09240339910999 ], [ 5.3600479, 52.092422699109989 ] ] } },
{ "type": "Feature", "properties": { "id": 18 }, "geometry": { "type": "LineString", "coordinates": [ [ 5.3306405, 52.087711499110334 ], [ 5.3306486, 52.087714499110348 ], [ 5.3306571, 52.087739399110355 ], [ 5.3306587, 52.087772299110334 ] ] } },
{ "type": "Feature", "properties": { "id": 19 }, "geometry": { "type": "LineString", "coordinates": [ [ 5.3506621, 52.088743399110257 ], [ 5.3509357, 52.088695999110278 ], [ 5.3516344, 52.088610699110276 ], [ 5.3517786, 52.088601799110265 ], [ 5.3519563, 52.088590899110272 ], [ 5.3522406, 52.088557899110292 ], [ 5.3527824, 52.088462399110298 ], [ 5.3531686, 52.088422799110283 ], [ 5.3536966, 52.088337199110292 ] ] } },
{ "type": "Feature", "properties": { "id": 20 }, "geometry": { "type": "LineString", "coordinates": [ [ 5.3527877, 52.078500399111064 ], [ 5.35256, 52.078229999111052 ], [ 5.3524095, 52.077998499111082 ], [ 5.3522138, 52.077694399111117 ], [ 5.35186, 52.076999999111166 ], [ 5.35178, 52.076669999111203 ], [ 5.3517494, 52.076337299111231 ], [ 5.3517373, 52.076120799111237 ] ] } },
{ "type": "Feature", "properties": { "id": 21 }, "geometry": { "type": "LineString", "coordinates": [ [ 5.3302857, 52.087145299110396 ], [ 5.3304378, 52.087136299110391 ], [ 5.3305161, 52.08710939911041 ] ] } },
{ "type": "Feature", "properties": { "id": 22 }, "geometry": { "type": "LineString", "coordinates": [ [ 5.3302857, 52.087145299110396 ], [ 5.3302857, 52.086983999110402 ], [ 5.330309, 52.086817799110392 ], [ 5.330364, 52.086700599110422 ], [ 5.3304347, 52.086614999110445 ] ] } },
{ "type": "Feature", "properties": { "id": 23 }, "geometry": { "type": "LineString", "coordinates": [ [ 5.3472184, 52.074143899111384 ], [ 5.3469689, 52.074199899111385 ], [ 5.3465371, 52.074317799111398 ], [ 5.3455885, 52.074742299111342 ], [ 5.3448111, 52.075119199111306 ], [ 5.3443253, 52.075328099111296 ], [ 5.3423246, 52.076252199111224 ] ] } },
{ "type": "Feature", "properties": { "id": 24 }, "geometry": { "type": "LineString", "coordinates": [ [ 5.3634497, 52.091921999110014 ], [ 5.3633174, 52.091960199110012 ], [ 5.3631839, 52.09200309911003 ], [ 5.3629067, 52.092104799110018 ] ] } },
{ "type": "Feature", "properties": { "id": 25 }, "geometry": { "type": "LineString", "coordinates": [ [ 5.3629276, 52.088941399110261 ], [ 5.3628744, 52.088906999110257 ], [ 5.3627926, 52.088809799110258 ], [ 5.3628121, 52.08873689911028 ], [ 5.3628664, 52.088703099110269 ], [ 5.3629301, 52.088684999110271 ], [ 5.3630394, 52.088682499110277 ], [ 5.3631547, 52.088733599110263 ], [ 5.3632969, 52.088817699110265 ], [ 5.3633572, 52.088817699110265 ], [ 5.3635356, 52.08886549911027 ], [ 5.3636456, 52.089003099110258 ], [ 5.3636707, 52.089045899110239 ], [ 5.3637025, 52.089104399110248 ], [ 5.3637582, 52.08914479911023 ], [ 5.3637891, 52.089173599110232 ], [ 5.363832, 52.089183499110234 ], [ 5.3638521, 52.089211499110228 ], [ 5.3639151, 52.089223099110228 ], [ 5.3639419, 52.089262599110228 ], [ 5.364024, 52.089294199110213 ], [ 5.3641042, 52.089306299110213 ], [ 5.3642142, 52.089314499110209 ], [ 5.3643845, 52.089321099110222 ], [ 5.3644569, 52.08932149911022 ], [ 5.3645065, 52.08933599911024 ], [ 5.364583, 52.089350799110214 ], [ 5.3646192, 52.089344999110217 ], [ 5.3647399, 52.089302199110229 ], [ 5.364866, 52.089263499110217 ], [ 5.3649585, 52.089255999110229 ], [ 5.3651112, 52.089205899110233 ] ] } },
{ "type": "Feature", "properties": { "id": 26 }, "geometry": { "type": "LineString", "coordinates": [ [ 5.3682656, 52.089309299110212 ], [ 5.3683059, 52.089288199110214 ], [ 5.36833, 52.089268399110253 ], [ 5.3683247, 52.089243699110234 ], [ 5.3683099, 52.089223899110237 ], [ 5.3681168, 52.08923299911023 ], [ 5.3679854, 52.08921899911023 ], [ 5.3678834, 52.089189299110238 ], [ 5.3678687, 52.08916209911024 ], [ 5.3678727, 52.089100299110235 ], [ 5.3678915, 52.08904009911025 ], [ 5.3678667, 52.089006799110244 ], [ 5.367811, 52.088972599110249 ], [ 5.367744, 52.088962699110262 ], [ 5.3676675, 52.088961899110259 ], [ 5.3676394, 52.088968499110244 ], [ 5.3674932, 52.08902529911024 ], [ 5.3674529, 52.089054999110232 ], [ 5.3673953, 52.089074799110236 ], [ 5.3673363, 52.089082199110258 ], [ 5.367288, 52.089101899110233 ], [ 5.3672035, 52.089125799110242 ], [ 5.3671297, 52.089131599110225 ], [ 5.3670479, 52.089134899110228 ], [ 5.3669567, 52.089112699110238 ], [ 5.3669071, 52.08908549911024 ], [ 5.366891, 52.089053299110233 ], [ 5.3668857, 52.089007999110244 ], [ 5.3669232, 52.088956099110241 ], [ 5.3670117, 52.088925599110269 ], [ 5.3670654, 52.088890199110239 ], [ 5.3671029, 52.088838299110265 ], [ 5.3671123, 52.088806099110258 ], [ 5.3670989, 52.088777299110255 ], [ 5.3670332, 52.088760799110268 ], [ 5.3669554, 52.088759199110257 ], [ 5.3668025, 52.08872119911026 ], [ 5.3667006, 52.088679999110262 ], [ 5.3666697, 52.088658599110289 ], [ 5.3666362, 52.088628999110284 ], [ 5.3666389, 52.088576199110285 ], [ 5.366659, 52.088539999110282 ], [ 5.3667046, 52.088519399110304 ], [ 5.3668052, 52.088513599110286 ], [ 5.3668562, 52.08848389911028 ], [ 5.3668857, 52.088378499110298 ], [ 5.3668964, 52.08831089911029 ], [ 5.3668898, 52.08826139911033 ], [ 5.3668119, 52.088201299110317 ], [ 5.3667811, 52.088141999110313 ], [ 5.366777, 52.08807439911034 ], [ 5.3668293, 52.088011799110333 ], [ 5.3669238, 52.087924499110329 ], [ 5.3669715, 52.08790049911034 ], [ 5.366997, 52.087871699110337 ], [ 5.3669983, 52.087832899110339 ], [ 5.3668964, 52.087780199110341 ], [ 5.3668226, 52.087722499110335 ], [ 5.3668132, 52.087574999110359 ], [ 5.3667837, 52.087473699110369 ], [ 5.3667343, 52.087404899110375 ], [ 5.366639, 52.087298799110357 ], [ 5.3665744, 52.087276499110374 ] ] } },
{ "type": "Feature", "properties": { "id": 27 }, "geometry": { "type": "LineString", "coordinates": [ [ 5.3651112, 52.089205899110233 ], [ 5.3653256, 52.089213099110239 ], [ 5.3656271, 52.089218199110235 ], [ 5.3663783, 52.089174699110238 ], [ 5.3664593, 52.08916999911024 ], [ 5.3669415, 52.089176099110233 ], [ 5.3670801, 52.089187599110232 ], [ 5.3674435, 52.089258999110235 ], [ 5.3676461, 52.089288999110209 ], [ 5.3678157, 52.089306199110233 ], [ 5.3682656, 52.089309299110212 ] ] } },
{ "type": "Feature", "properties": { "id": 28 }, "geometry": { "type": "LineString", "coordinates": [ [ 5.3634497, 52.091921999110014 ], [ 5.3632942, 52.091871399110033 ], [ 5.3632312, 52.091815399110061 ], [ 5.3631547, 52.091759299110031 ], [ 5.3630742, 52.091667899110035 ], [ 5.3630578, 52.091627999110052 ], [ 5.3630286, 52.091556599110056 ], [ 5.3630172, 52.091475899110065 ], [ 5.3629991, 52.091448299110056 ], [ 5.3629918, 52.091437599110073 ], [ 5.3629596, 52.091414499110051 ], [ 5.3629106, 52.091407499110062 ], [ 5.3628771, 52.091400099110075 ], [ 5.3628402, 52.091379099110078 ], [ 5.3628275, 52.091360499110081 ], [ 5.362796, 52.091287599110075 ], [ 5.3627591, 52.091240199110082 ], [ 5.3625244, 52.091105899110097 ], [ 5.3625016, 52.091088199110111 ], [ 5.3624828, 52.091012799110089 ], [ 5.3624614, 52.090972399110093 ], [ 5.3624084, 52.090931699110108 ], [ 5.3623822, 52.090888399110092 ], [ 5.3623554, 52.090822499110089 ], [ 5.3624037, 52.090728499110106 ], [ 5.3624171, 52.090623099110125 ], [ 5.3623769, 52.090586799110135 ], [ 5.3623393, 52.09054229911014 ], [ 5.3623205, 52.090479699110141 ], [ 5.3625378, 52.090440099110147 ], [ 5.3627349, 52.090284399110146 ], [ 5.3628114, 52.090223399110151 ], [ 5.3628275, 52.090166599110148 ], [ 5.3628355, 52.090111399110171 ], [ 5.3628121, 52.090082899110165 ], [ 5.3628181, 52.090024799110196 ], [ 5.3627846, 52.089988599110164 ], [ 5.3627846, 52.089937499110164 ], [ 5.3627209, 52.089891799110184 ], [ 5.3627336, 52.089803999110181 ], [ 5.3627457, 52.089763199110202 ], [ 5.3627229, 52.0897240991102 ], [ 5.3626612, 52.0897034991102 ], [ 5.3626344, 52.089660599110218 ], [ 5.3625458, 52.089596399110214 ], [ 5.3624547, 52.089525499110216 ], [ 5.3623795, 52.089423299110209 ], [ 5.3623179, 52.089395299110222 ], [ 5.3622374, 52.089337599110245 ], [ 5.3621757, 52.089306299110213 ], [ 5.3620805, 52.089217299110224 ], [ 5.3620496, 52.089194199110239 ], [ 5.362051, 52.089164599110234 ], [ 5.362, 52.089148899110235 ], [ 5.3619799, 52.089129099110224 ], [ 5.3619799, 52.089087899110247 ], [ 5.3621046, 52.08903359911023 ], [ 5.3621529, 52.08901459911025 ], [ 5.3622964, 52.089017899110253 ], [ 5.3623849, 52.089008799110232 ], [ 5.3624359, 52.088984899110237 ], [ 5.3624884, 52.088895199110269 ] ] } },
{ "type": "Feature", "properties": { "id": 29 }, "geometry": { "type": "LineString", "coordinates": [ [ 5.3624884, 52.088895199110269 ], [ 5.3629276, 52.088941399110261 ] ] } },
{ "type": "Feature", "properties": { "id": 30 }, "geometry": { "type": "LineString", "coordinates": [ [ 5.3709849, 52.084031599110631 ], [ 5.3710694, 52.084025399110629 ], [ 5.371191, 52.084023699110624 ], [ 5.3711988, 52.084035099110622 ], [ 5.3712324, 52.08410279911061 ], [ 5.3712217, 52.08418449911062 ], [ 5.3712825, 52.084251399110592 ], [ 5.3713254, 52.084281299110607 ], [ 5.371407, 52.084286499110618 ], [ 5.3715071, 52.084255799110629 ], [ 5.3715658, 52.084184599110621 ], [ 5.3716201, 52.084098399110623 ], [ 5.3716688, 52.083986799110626 ], [ 5.371643, 52.083918199110641 ], [ 5.3716344, 52.083849599110643 ], [ 5.3716954, 52.083797399110658 ], [ 5.3717805, 52.083785999110646 ], [ 5.3718609, 52.083803599110659 ], [ 5.3720784, 52.083850999110638 ], [ 5.3720918, 52.083881499110632 ], [ 5.3720945, 52.08393669911063 ], [ 5.3721079, 52.083984499110635 ], [ 5.3721958, 52.084072699110642 ], [ 5.3722058, 52.084148899110616 ], [ 5.3722098, 52.084179799110622 ], [ 5.3722789, 52.084170699110629 ], [ 5.3722957, 52.084154199110614 ], [ 5.3723332, 52.084066899110631 ], [ 5.3723681, 52.083972899110613 ], [ 5.372411, 52.083941599110638 ], [ 5.372462, 52.083896299110648 ], [ 5.3726256, 52.08389959911063 ], [ 5.3727195, 52.083894599110629 ], [ 5.3727865, 52.083855099110636 ], [ 5.3728107, 52.083819699110641 ], [ 5.3728697, 52.083784999110662 ], [ 5.3729367, 52.083756999110655 ], [ 5.372993, 52.08371909911066 ], [ 5.3730574, 52.08369029911065 ], [ 5.3730963, 52.083669699110672 ], [ 5.3731452, 52.083659299110657 ], [ 5.3732049, 52.083670499110639 ], [ 5.3732479, 52.08370919911065 ], [ 5.3732908, 52.083762799110666 ], [ 5.3733256, 52.083808899110657 ], [ 5.373382, 52.08381469911064 ], [ 5.3734269, 52.083800299110642 ], [ 5.3734303, 52.083748799110666 ], [ 5.3733887, 52.083637499110672 ], [ 5.3734155, 52.083607899110667 ], [ 5.3734343, 52.083580699110669 ], [ 5.3734973, 52.083573199110667 ], [ 5.3735617, 52.083602899110666 ], [ 5.3735577, 52.083691899110661 ], [ 5.3736059, 52.083752099110647 ], [ 5.3736609, 52.083762799110666 ], [ 5.373724, 52.083759499110663 ], [ 5.3737682, 52.083759499110663 ], [ 5.3738837, 52.083771599110655 ], [ 5.3739426, 52.083774299110658 ], [ 5.3740109, 52.08380069911064 ], [ 5.3740364, 52.083828699110654 ], [ 5.3741088, 52.083887199110649 ], [ 5.3741732, 52.083905399110648 ], [ 5.3742483, 52.083898799110642 ], [ 5.3743677, 52.083850099110634 ], [ 5.374542, 52.083784999110662 ], [ 5.3746453, 52.08374049911064 ], [ 5.37477, 52.083724099110647 ], [ 5.3748183, 52.083755399110643 ], [ 5.3748371, 52.083808099110634 ], [ 5.3748277, 52.083925999110626 ], [ 5.3748465, 52.083957299110629 ], [ 5.3749256, 52.083982799110643 ], [ 5.3749953, 52.083980399110636 ], [ 5.3750476, 52.083959799110637 ], [ 5.3751026, 52.083944899110634 ], [ 5.3751522, 52.083957299110629 ], [ 5.3752018, 52.083966299110635 ], [ 5.3753065, 52.083972899110613 ], [ 5.3753816, 52.08396059911064 ], [ 5.3754312, 52.083938299110635 ], [ 5.3754634, 52.083887199110649 ], [ 5.3755116, 52.083859199110655 ], [ 5.3755827, 52.083767699110659 ], [ 5.3756994, 52.083716599110673 ], [ 5.375753, 52.083598799110653 ], [ 5.3757919, 52.083561699110675 ], [ 5.3758812, 52.083528299110647 ], [ 5.3760575, 52.083545999110662 ], [ 5.3761674, 52.083603699110661 ], [ 5.3761326, 52.083704299110657 ], [ 5.3761326, 52.083772699110646 ], [ 5.3761554, 52.083828699110654 ], [ 5.376213, 52.083845999110636 ], [ 5.3763297, 52.083852599110628 ], [ 5.3763941, 52.083831199110634 ], [ 5.3764732, 52.08380069911064 ], [ 5.3765067, 52.083716599110673 ], [ 5.3765698, 52.083633399110667 ], [ 5.3766773, 52.083586299110664 ], [ 5.3768358, 52.083588599110669 ], [ 5.3769815, 52.083620199110662 ], [ 5.3769547, 52.083727399110657 ], [ 5.3769332, 52.083783399110636 ], [ 5.3768849, 52.083854299110634 ], [ 5.3769144, 52.08388889911064 ], [ 5.3769788, 52.083895499110639 ], [ 5.3771156, 52.083873999110637 ], [ 5.3772041, 52.083900399110632 ], [ 5.3773087, 52.083931699110622 ], [ 5.3773651, 52.083933399110634 ], [ 5.3773879, 52.083917699110636 ], [ 5.3773972, 52.083831199110634 ], [ 5.377353, 52.083746299110672 ], [ 5.3772873, 52.083724099110647 ], [ 5.3771196, 52.083653999110659 ], [ 5.3770767, 52.083625999110666 ], [ 5.3770459, 52.083583999110672 ], [ 5.3770512, 52.083483399110683 ], [ 5.3771478, 52.083414199110678 ], [ 5.3772537, 52.083436399110667 ], [ 5.3773275, 52.083461999110661 ], [ 5.3773423, 52.08348589911067 ], [ 5.3773208, 52.083508999110656 ], [ 5.377294, 52.08351969911066 ], [ 5.3773074, 52.083553499110671 ], [ 5.3773342, 52.083578999110671 ], [ 5.3773624, 52.083605399110667 ], [ 5.3773905, 52.083648199110641 ], [ 5.3774562, 52.083694399110641 ], [ 5.3775381, 52.083747099110639 ], [ 5.3776829, 52.083818799110645 ], [ 5.3777044, 52.083868299110641 ], [ 5.3777564, 52.08388769911064 ], [ 5.3778385, 52.083923499110639 ], [ 5.3779122, 52.083945699110636 ], [ 5.3779471, 52.083963899110643 ], [ 5.3780048, 52.08397459911064 ], [ 5.3780289, 52.083967199110624 ], [ 5.3780557, 52.08393669911063 ], [ 5.3780825, 52.083887199110649 ], [ 5.3780946, 52.083850999110638 ], [ 5.3780825, 52.083818799110645 ], [ 5.3780302, 52.083816399110638 ], [ 5.3780048, 52.08378919911064 ], [ 5.3780329, 52.083760299110658 ], [ 5.3781094, 52.083747099110639 ], [ 5.3781845, 52.083773499110663 ], [ 5.3782824, 52.083769399110672 ], [ 5.3783412, 52.083734699110657 ], [ 5.3784031, 52.083711699110651 ], [ 5.3784366, 52.083634199110669 ], [ 5.3784487, 52.083586399110665 ], [ 5.3785506, 52.083515599110669 ], [ 5.3786176, 52.08343809911068 ], [ 5.3787504, 52.083413399110675 ], [ 5.3788644, 52.083414199110678 ], [ 5.3788818, 52.08342329911067 ], [ 5.3788966, 52.083443899110677 ], [ 5.3788872, 52.083473499110674 ], [ 5.3788255, 52.083549299110658 ], [ 5.3788282, 52.083667999110666 ], [ 5.3788845, 52.083711699110651 ], [ 5.3789328, 52.083752099110647 ], [ 5.3790039, 52.083776799110652 ], [ 5.3790535, 52.083805599110647 ], [ 5.3791648, 52.083824599110663 ], [ 5.3792399, 52.083837799110647 ], [ 5.3792909, 52.08385669911064 ], [ 5.3793633, 52.083855099110636 ], [ 5.3794049, 52.083848499110637 ], [ 5.3794344, 52.083812199110639 ], [ 5.379421, 52.083776799110652 ], [ 5.3793432, 52.08369689911067 ], [ 5.3792882, 52.083622699110663 ], [ 5.3792278, 52.083544399110671 ], [ 5.3791997, 52.083449599110679 ], [ 5.3792305, 52.083413399110675 ], [ 5.3792842, 52.083394399110688 ], [ 5.3793325, 52.083399399110689 ], [ 5.3793646, 52.083456999110673 ], [ 5.3794089, 52.083539499110671 ], [ 5.3794491, 52.083562499110656 ], [ 5.379492, 52.083575699110661 ], [ 5.3795296, 52.083621099110658 ], [ 5.3795511, 52.083620999110657 ], [ 5.3795511, 52.083673799110656 ], [ 5.3795591, 52.083705099110659 ], [ 5.3796141, 52.083803999110643 ], [ 5.3796664, 52.083825399110644 ], [ 5.3797241, 52.083805599110647 ], [ 5.3797673, 52.083757899110651 ], [ 5.379779, 52.083717499110634 ], [ 5.3797925, 52.083653199110657 ], [ 5.379822, 52.083628499110652 ], [ 5.3798352, 52.083597899110664 ], [ 5.3798568, 52.083590499110663 ], [ 5.3798877, 52.08356989911065 ], [ 5.3798689, 52.083541899110671 ], [ 5.3798421, 52.08352539911067 ], [ 5.3798246, 52.083489999110682 ], [ 5.3798914, 52.083451699110661 ], [ 5.3800111, 52.08343139911068 ], [ 5.3800673, 52.08344299911068 ], [ 5.3801291, 52.083455399110669 ], [ 5.3801237, 52.083501499110653 ], [ 5.3801291, 52.083543599110655 ], [ 5.3801572, 52.08361029911066 ], [ 5.3802095, 52.083616099110664 ], [ 5.3802699, 52.083597999110665 ], [ 5.3802887, 52.083556799110653 ], [ 5.3802444, 52.083504799110671 ], [ 5.3802243, 52.083455399110669 ], [ 5.3802457, 52.083405899110694 ], [ 5.3802806, 52.083381999110692 ], [ 5.3803651, 52.083379599110671 ], [ 5.3804375, 52.083410099110679 ], [ 5.3805032, 52.083432299110669 ], [ 5.3805274, 52.08343969911067 ], [ 5.3805636, 52.083440599110681 ], [ 5.3806672, 52.083396199110673 ] ] } },
{ "type": "Feature", "properties": { "id": 31 }, "geometry": { "type": "LineString", "coordinates": [ [ 5.3596671, 52.08378919911064 ], [ 5.3596149, 52.083733899110676 ], [ 5.3595807, 52.08369849911066 ], [ 5.3595726, 52.083659399110665 ], [ 5.359586, 52.08361029911066 ], [ 5.359645, 52.083552199110663 ], [ 5.3596913, 52.083491199110682 ], [ 5.3596947, 52.083469399110655 ], [ 5.359688, 52.083450899110659 ], [ 5.3596531, 52.083416699110685 ], [ 5.3595646, 52.083367599110673 ], [ 5.3595183, 52.083334699110686 ], [ 5.3594908, 52.083300499110685 ], [ 5.3594794, 52.083271199110676 ], [ 5.3594761, 52.083253099110678 ], [ 5.3594526, 52.083239899110687 ], [ 5.3594412, 52.083204899110704 ], [ 5.3594499, 52.083150899110706 ], [ 5.3594479, 52.083124899110707 ], [ 5.3594365, 52.083106799110709 ], [ 5.3594286, 52.083070899110709 ], [ 5.359415, 52.083032199110704 ], [ 5.359415, 52.083008299110723 ], [ 5.3593943, 52.082991799110715 ], [ 5.3593748, 52.082962599110701 ], [ 5.3593808, 52.082925899110712 ], [ 5.3594562, 52.082839599110706 ], [ 5.359466, 52.082805599110728 ], [ 5.3594553, 52.08276809911073 ], [ 5.3594211, 52.082716099110733 ], [ 5.3593821, 52.082659099110728 ], [ 5.3593835, 52.082629199110741 ], [ 5.3593995, 52.082606399110745 ], [ 5.3594969, 52.082562699110724 ], [ 5.3596538, 52.082479599110755 ], [ 5.3597175, 52.082408699110744 ], [ 5.3597195, 52.082377799110745 ], [ 5.3596844, 52.082351799110754 ], [ 5.3595833, 52.082298299110768 ], [ 5.3595304, 52.082259199110773 ], [ 5.3594948, 52.082196499110772 ], [ 5.3595049, 52.082140499110771 ], [ 5.3595257, 52.082097199110763 ], [ 5.3595434, 52.082001699110791 ], [ 5.359519, 52.081933599110776 ], [ 5.3595002, 52.081877599110797 ], [ 5.3594539, 52.081838399110815 ], [ 5.3593426, 52.081779099110804 ], [ 5.3592829, 52.081762199110798 ], [ 5.3592601, 52.0817464991108 ], [ 5.359244, 52.081732799110803 ], [ 5.3592253, 52.081666999110823 ], [ 5.3591461, 52.081623299110817 ], [ 5.3590429, 52.081595299110816 ], [ 5.3589638, 52.081565199110827 ], [ 5.3589061, 52.081509199110819 ], [ 5.3588923, 52.081437999110825 ], [ 5.3589155, 52.081376399110844 ], [ 5.3590026, 52.081334699110819 ], [ 5.3589996, 52.081295399110843 ], [ 5.3589373, 52.081255299110829 ], [ 5.3588995, 52.081237099110851 ], [ 5.3587222, 52.081192399110847 ], [ 5.3586754, 52.081150299110831 ], [ 5.3586687, 52.081120599110839 ], [ 5.3586794, 52.081080999110839 ], [ 5.358668, 52.081022499110844 ], [ 5.3586059, 52.080983399110863 ], [ 5.358494, 52.080961899110861 ], [ 5.3584373, 52.080942299110873 ], [ 5.3584213, 52.080905599110856 ], [ 5.3584246, 52.080835799110872 ], [ 5.3583804, 52.080774399110886 ], [ 5.358312, 52.080700299110873 ], [ 5.3582503, 52.080656999110893 ], [ 5.358208, 52.080608799110898 ], [ 5.3580927, 52.080556399110897 ], [ 5.3579894, 52.080531299110895 ], [ 5.3579727, 52.080530499110893 ], [ 5.3579405, 52.080525499110905 ], [ 5.3579197, 52.080516899110897 ], [ 5.3579076, 52.080481399110894 ], [ 5.3579009, 52.080443899110911 ], [ 5.3578791, 52.080416999110895 ], [ 5.3578567, 52.080397399110907 ], [ 5.3578151, 52.080381299110904 ], [ 5.3577512, 52.080358099110917 ], [ 5.3577346, 52.080344999110913 ], [ 5.3577165, 52.08033679911091 ], [ 5.3577078, 52.080310799110897 ], [ 5.3577076, 52.080257999110913 ], [ 5.3576944, 52.080241199110922 ], [ 5.3576582, 52.080228499110923 ], [ 5.3576025, 52.08020819911092 ], [ 5.3575616, 52.080186399110929 ], [ 5.3575402, 52.080161599110923 ], [ 5.3575449, 52.080119599110922 ], [ 5.3575549, 52.08009369911094 ], [ 5.3575804, 52.080075499110933 ], [ 5.3576079, 52.080054899110941 ], [ 5.3576126, 52.080008799110942 ], [ 5.3575831, 52.07996299911094 ], [ 5.3575576, 52.079918899110965 ], [ 5.3575608, 52.079861399110953 ], [ 5.357565, 52.079820799110955 ], [ 5.3575603, 52.079794499110967 ], [ 5.3575402, 52.079772199110977 ], [ 5.357491, 52.079738099110962 ], [ 5.3574879, 52.079693099110962 ], [ 5.3575026, 52.079639099110963 ], [ 5.3575435, 52.079585099110986 ], [ 5.3575938, 52.079553799110975 ], [ 5.3576873, 52.079522799110968 ], [ 5.3577327, 52.079487899110973 ], [ 5.3577303, 52.079443299110984 ], [ 5.3576654, 52.079376799110982 ], [ 5.3575328, 52.079312699111 ], [ 5.3574061, 52.079270299110988 ], [ 5.357335, 52.079249299111005 ], [ 5.3572621, 52.079223099111005 ], [ 5.3572224, 52.079219499110991 ], [ 5.3571439, 52.079229199110998 ] ] } },
{ "type": "Feature", "properties": { "id": 32 }, "geometry": { "type": "LineString", "coordinates": [ [ 5.3473089, 52.074294299111379 ], [ 5.3472184, 52.074143899111384 ] ] } },
{ "type": "Feature", "properties": { "id": 33 }, "geometry": { "type": "LineString", "coordinates": [ [ 5.3295491, 52.080422399110915 ], [ 5.3294418, 52.08056739911089 ] ] } },
{ "type": "Feature", "properties": { "id": 34 }, "geometry": { "type": "LineString", "coordinates": [ [ 5.3517373, 52.076120799111237 ], [ 5.3516567, 52.076073099111248 ], [ 5.3515884, 52.076063199111239 ], [ 5.3515394, 52.076073099111248 ], [ 5.3514931, 52.076087899111243 ], [ 5.3514737, 52.076098999111224 ], [ 5.3514523, 52.076140399111239 ], [ 5.3514797, 52.076175299111227 ], [ 5.3514891, 52.076208299111236 ], [ 5.3514764, 52.076256099111241 ], [ 5.3514274, 52.076342999111226 ], [ 5.3513248, 52.076421399111226 ], [ 5.3511907, 52.076492999111203 ], [ 5.3511525, 52.07651609911121 ], [ 5.351125, 52.076527699111203 ], [ 5.3510747, 52.076543299111201 ], [ 5.3510445, 52.076544599111216 ], [ 5.351011, 52.076535899111207 ], [ 5.3509788, 52.07652399911121 ], [ 5.3509701, 52.076514499111212 ], [ 5.3509657, 52.076483599111214 ], [ 5.3509493, 52.07644889911122 ], [ 5.3508782, 52.076397799111227 ], [ 5.350781, 52.076294399111227 ], [ 5.3506858, 52.076210599111235 ], [ 5.3506268, 52.07616699911123 ], [ 5.3505007, 52.07612709911124 ], [ 5.3503961, 52.07614109911124 ], [ 5.3502955, 52.076167499111229 ], [ 5.350167, 52.076231399111229 ], [ 5.3501024, 52.076237899111227 ], [ 5.350087, 52.076237899111227 ], [ 5.3500628, 52.076237099111232 ], [ 5.3500213, 52.076231799111234 ], [ 5.349975, 52.076215699111245 ], [ 5.3499053, 52.076199999111239 ], [ 5.3498878, 52.076201699111223 ], [ 5.3498617, 52.076201699111223 ], [ 5.3498087, 52.076185199111222 ], [ 5.3497075, 52.076130799111233 ], [ 5.3495854, 52.076087899111243 ], [ 5.3495049, 52.076080099111252 ], [ 5.3494473, 52.076102299111255 ], [ 5.3493769, 52.076189699111218 ], [ 5.3493246, 52.07623749911123 ], [ 5.3492649, 52.076286199111244 ], [ 5.3491938, 52.076314599111242 ], [ 5.3491509, 52.07631379911124 ], [ 5.3490892, 52.076308799111231 ], [ 5.3490141, 52.076292699111214 ], [ 5.34899, 52.076278299111216 ], [ 5.3489652, 52.076275399111246 ], [ 5.3489336, 52.076281999111238 ], [ 5.3488827, 52.076281199111236 ], [ 5.3488062, 52.076272999111232 ], [ 5.3487687, 52.076269699111236 ], [ 5.3487204, 52.076241199111223 ], [ 5.3486627, 52.076171199111236 ], [ 5.3485903, 52.076067699111235 ], [ 5.3485943, 52.07600219911123 ], [ 5.3486902, 52.075933399111257 ], [ 5.3487519, 52.075871099111261 ], [ 5.3487848, 52.075822899111259 ], [ 5.3488437, 52.07575939911127 ], [ 5.3488766, 52.075691899111284 ], [ 5.3488827, 52.075632099111282 ], [ 5.3488706, 52.075567799111283 ], [ 5.348895, 52.075490999111295 ], [ 5.3489524, 52.075442899111309 ], [ 5.3490081, 52.075386499111296 ], [ 5.3490114, 52.07534939911131 ], [ 5.349004, 52.075316799111306 ], [ 5.348931, 52.075287999111296 ], [ 5.3488874, 52.075242199111315 ], [ 5.3488646, 52.075203499111304 ], [ 5.3488398, 52.075148699111303 ], [ 5.3488069, 52.075121499111326 ], [ 5.34877, 52.075104199111315 ], [ 5.3486906, 52.075089699111317 ], [ 5.3486373, 52.075089299111312 ], [ 5.3486071, 52.075089699111317 ], [ 5.3485823, 52.075089699111317 ], [ 5.3485648, 52.075085599111326 ], [ 5.3485494, 52.075078999111319 ], [ 5.3484627, 52.075015399111315 ], [ 5.3483053, 52.074947999111338 ], [ 5.3482369, 52.074895999111334 ], [ 5.3480767, 52.074818099111354 ], [ 5.3480418, 52.074807799111333 ], [ 5.3480016, 52.074802899111347 ], [ 5.3479714, 52.074801599111353 ], [ 5.3479352, 52.07480249911135 ], [ 5.3479251, 52.074802099111338 ], [ 5.3478889, 52.074791699111351 ], [ 5.3478688, 52.074782699111339 ], [ 5.3478017, 52.074715099111366 ], [ 5.3477508, 52.074682099111342 ], [ 5.3477159, 52.074652899111342 ], [ 5.3477139, 52.07462769911136 ], [ 5.3477266, 52.074605899111376 ], [ 5.3477374, 52.074595599111355 ], [ 5.3478125, 52.07457169911136 ], [ 5.3478715, 52.07453829911136 ], [ 5.3478762, 52.074525099111369 ], [ 5.3478695, 52.074501199111381 ], [ 5.3478384, 52.074468599111391 ], [ 5.347726, 52.074430699111389 ], [ 5.347677, 52.074423299111366 ], [ 5.3476287, 52.074409699111371 ], [ 5.3475597, 52.074392799111358 ], [ 5.3474812, 52.074366799111374 ], [ 5.3473987, 52.074344999111382 ], [ 5.3473089, 52.074294299111379 ] ] } },
{ "type": "Feature", "properties": { "id": 35 }, "geometry": { "type": "LineString", "coordinates": [ [ 5.3401816, 52.077222099111154 ], [ 5.3398338, 52.077396299111136 ], [ 5.3389622, 52.077794599111087 ], [ 5.3381773, 52.07816609911108 ], [ 5.3381156, 52.078194699111073 ] ] } },
{ "type": "Feature", "properties": { "id": 36 }, "geometry": { "type": "LineString", "coordinates": [ [ 5.3423246, 52.076252199111224 ], [ 5.3422563, 52.076364899111233 ], [ 5.3422469, 52.076417599111217 ], [ 5.3422375, 52.076451399111228 ], [ 5.3422227, 52.076508299111211 ], [ 5.3421369, 52.076521499111202 ], [ 5.3420323, 52.076552799111205 ], [ 5.3419646, 52.076582199111193 ], [ 5.3419787, 52.076635199111195 ], [ 5.3419881, 52.076682999111178 ], [ 5.3419749, 52.076744799111196 ], [ 5.341917, 52.07681819911118 ], [ 5.341802, 52.07688029911121 ], [ 5.3416957, 52.076910499111172 ], [ 5.3416072, 52.076879199111175 ], [ 5.3415696, 52.076853699111169 ], [ 5.3415307, 52.076840499111178 ], [ 5.3414878, 52.076841299111173 ], [ 5.3414165, 52.076872199111165 ], [ 5.341406, 52.07692119911119 ], [ 5.34141, 52.076963299111178 ], [ 5.3413725, 52.07697809911118 ], [ 5.3413296, 52.076969899111184 ], [ 5.3412974, 52.076962499111175 ], [ 5.3412196, 52.076935299111177 ], [ 5.3411458, 52.076922099111172 ], [ 5.3410989, 52.076923299111172 ], [ 5.3410332, 52.076945999111182 ], [ 5.341001, 52.076972299111176 ], [ 5.3409675, 52.077039899111178 ], [ 5.3409333, 52.077084199111162 ], [ 5.3408974, 52.077114699111164 ], [ 5.3408718, 52.077128799111158 ], [ 5.3408648, 52.077134299111172 ], [ 5.340777, 52.077151999111159 ], [ 5.3406617, 52.077171799111163 ], [ 5.340516, 52.077211799111168 ], [ 5.3403774, 52.077212199111152 ], [ 5.3401816, 52.077222099111154 ] ] } },
{ "type": "Feature", "properties": { "id": 37 }, "geometry": { "type": "LineString", "coordinates": [ [ 5.3381156, 52.078194699111073 ], [ 5.3381009, 52.078286699111082 ], [ 5.3380364, 52.078345299111064 ], [ 5.3379567, 52.078394099111058 ], [ 5.3379205, 52.078421799111069 ], [ 5.3379162, 52.078447999111063 ], [ 5.3379272, 52.078461699111052 ], [ 5.337948, 52.078483599111074 ], [ 5.3379849, 52.078538799111051 ], [ 5.3379862, 52.078582099111053 ], [ 5.3379862, 52.07860719911104 ], [ 5.3379795, 52.078618699111047 ], [ 5.3379453, 52.078625799111052 ], [ 5.3378363, 52.078637499111039 ], [ 5.3377228, 52.078666799111048 ], [ 5.3376429, 52.078691699111047 ], [ 5.3375906, 52.078722999111022 ], [ 5.3375249, 52.078762599111009 ], [ 5.3374873, 52.078767899111028 ], [ 5.3374021, 52.078762999111035 ], [ 5.3372553, 52.078734099111053 ], [ 5.3372211, 52.078735399111039 ], [ 5.3371373, 52.078777099111051 ], [ 5.3370347, 52.078822599111042 ], [ 5.3369087, 52.078835699111025 ], [ 5.336857, 52.078858199111046 ], [ 5.3368355, 52.078896099111041 ], [ 5.3367933, 52.078943499111027 ], [ 5.3367618, 52.078969399111031 ], [ 5.3367142, 52.078980999110989 ], [ 5.336688, 52.078982199111032 ], [ 5.3365445, 52.07897269911102 ], [ 5.3364339, 52.078964499111009 ] ] } },
{ "type": "Feature", "properties": { "id": 38 }, "geometry": { "type": "LineString", "coordinates": [ [ 5.3364339, 52.078964499111009 ], [ 5.3357611, 52.079305699110982 ], [ 5.3353415, 52.079476699110991 ] ] } },
{ "type": "Feature", "properties": { "id": 39 }, "geometry": { "type": "LineString", "coordinates": [ [ 5.3353415, 52.079476699110991 ], [ 5.3353281, 52.07956249911097 ], [ 5.3353384, 52.07964939911097 ], [ 5.335363, 52.079690599110961 ], [ 5.3354187, 52.079723599110949 ], [ 5.3354837, 52.079751199110952 ], [ 5.3355125, 52.079772599110946 ], [ 5.335515, 52.079809299110956 ], [ 5.3355266, 52.079864099110964 ], [ 5.3355112, 52.079904099110941 ], [ 5.3354917, 52.079921799110949 ], [ 5.3354549, 52.079972899110942 ], [ 5.3354596, 52.08001409911094 ], [ 5.3354945, 52.080043499110936 ], [ 5.3355159, 52.080069799110923 ], [ 5.3355575, 52.080109199110929 ], [ 5.3355876, 52.080150099110938 ], [ 5.3356029, 52.080194299110914 ], [ 5.3356406, 52.080214399110922 ], [ 5.3356916, 52.080229199110931 ], [ 5.3357821, 52.080211099110933 ], [ 5.3359169, 52.080152599110932 ], [ 5.3359947, 52.080133199110939 ], [ 5.3360389, 52.080131599110906 ], [ 5.3360832, 52.08014639911093 ], [ 5.3361167, 52.080183899110928 ], [ 5.3361395, 52.080228799110934 ], [ 5.3361473, 52.080285299110898 ], [ 5.3361605, 52.080348799110922 ], [ 5.3361737, 52.080399199110893 ], [ 5.3361663, 52.080451799110904 ], [ 5.3361489, 52.080479399110907 ], [ 5.336114, 52.080526799110906 ], [ 5.3360308, 52.080544199110896 ], [ 5.3359403, 52.080541199110918 ], [ 5.3358673, 52.080504099110918 ], [ 5.3357901, 52.080449299110889 ], [ 5.3357377, 52.080420799110918 ], [ 5.3356768, 52.080392799110911 ], [ 5.3356272, 52.080389899110905 ], [ 5.335587, 52.080384999110919 ], [ 5.3355554, 52.080379199110915 ], [ 5.3354985, 52.080352899110913 ], [ 5.3354457, 52.080325999110912 ], [ 5.3353918, 52.080277899110911 ], [ 5.3353677, 52.080239099110912 ], [ 5.3353351, 52.080213899110923 ], [ 5.335267, 52.080198399110941 ], [ 5.3352188, 52.080179799110944 ], [ 5.335184, 52.08015339911092 ], [ 5.3351545, 52.080129899110929 ], [ 5.3350981, 52.080092799110929 ], [ 5.3350331, 52.080043799110932 ], [ 5.3349687, 52.079993899110953 ], [ 5.3349464, 52.079932599110954 ] ] } },
{ "type": "Feature", "properties": { "id": 40 }, "geometry": { "type": "LineString", "coordinates": [ [ 5.3349464, 52.079932599110954 ], [ 5.3346763, 52.079794999110945 ], [ 5.334626, 52.079756099110966 ], [ 5.3342864, 52.079585799110973 ], [ 5.3341488, 52.079514399110984 ] ] } },
{ "type": "Feature", "properties": { "id": 41 }, "geometry": { "type": "LineString", "coordinates": [ [ 5.3341488, 52.079514399110984 ], [ 5.334156, 52.079411599110998 ], [ 5.3341184, 52.079311699111003 ], [ 5.3340916, 52.079231499111003 ], [ 5.3340615, 52.079203899111 ], [ 5.3340568, 52.079189899110993 ], [ 5.3340561, 52.079167699110997 ], [ 5.3340521, 52.079144599111011 ], [ 5.334029, 52.079122599110995 ], [ 5.3340018, 52.079077399111021 ], [ 5.3339428, 52.079035399111007 ], [ 5.3339113, 52.079016799111017 ], [ 5.3338985, 52.079008199111016 ], [ 5.333861, 52.079000399111017 ], [ 5.3338335, 52.078994599111034 ], [ 5.3337952, 52.078991699111015 ], [ 5.3337698, 52.078994999111018 ], [ 5.3337423, 52.078993299111019 ], [ 5.3336933, 52.07898629911103 ], [ 5.3336705, 52.07898059911102 ], [ 5.3336564, 52.078974799111023 ], [ 5.3336363, 52.078963699111007 ], [ 5.3336169, 52.07895959911103 ], [ 5.3335867, 52.078951699111009 ], [ 5.3335632, 52.078935199111022 ], [ 5.3335143, 52.078921199111022 ], [ 5.3334741, 52.078917899111026 ], [ 5.3334459, 52.078916299111015 ], [ 5.3334285, 52.078917899111026 ], [ 5.3333666, 52.078919899111021 ], [ 5.3333037, 52.078907199111036 ], [ 5.3332595, 52.078896899111015 ], [ 5.3332065, 52.078891599111031 ], [ 5.3331012, 52.078886999111006 ], [ 5.3330811, 52.078890299111031 ], [ 5.3330187, 52.078895699111023 ], [ 5.332947, 52.078895299111032 ] ] } },
{ "type": "Feature", "properties": { "id": 42 }, "geometry": { "type": "LineString", "coordinates": [ [ 5.332947, 52.078895299111032 ], [ 5.3328246, 52.078859299111045 ] ] } },
{ "type": "Feature", "properties": { "id": 43 }, "geometry": { "type": "LineString", "coordinates": [ [ 5.3328246, 52.078859299111045 ], [ 5.3326627, 52.07881569911104 ], [ 5.3325283, 52.078782099111045 ], [ 5.3324662, 52.078761699111034 ], [ 5.3324159, 52.078743199111038 ], [ 5.3323851, 52.078721399111025 ], [ 5.3323629, 52.078689599111037 ], [ 5.3323603, 52.078616299111047 ], [ 5.3323569, 52.078589899111023 ], [ 5.3323435, 52.07856809911106 ], [ 5.3323046, 52.07854499911106 ], [ 5.3322496, 52.078525999111058 ], [ 5.3321792, 52.078488899111058 ], [ 5.3321524, 52.078464999111041 ], [ 5.3321323, 52.078418899111071 ], [ 5.3321195, 52.078394999111083 ], [ 5.3320672, 52.07836039911107 ], [ 5.3319492, 52.078318699111065 ], [ 5.3318587, 52.078294799111063 ], [ 5.3318198, 52.078279599111092 ], [ 5.3317963, 52.078261899111077 ], [ 5.3317843, 52.078225199111081 ], [ 5.3317863, 52.078133699111099 ], [ 5.3317621, 52.078103199111098 ], [ 5.3317239, 52.0780747991111 ], [ 5.3316609, 52.078037299111081 ], [ 5.3315677, 52.077951499111073 ], [ 5.3315375, 52.077930499111105 ], [ 5.3314979, 52.077916499111105 ], [ 5.3314094, 52.077913199111102 ], [ 5.3313477, 52.077911999111095 ], [ 5.3312968, 52.077911199111092 ], [ 5.3312552, 52.077909499111108 ], [ 5.3311375, 52.077881399111114 ], [ 5.3311137, 52.077874499111118 ], [ 5.3310849, 52.077851799111095 ], [ 5.3310627, 52.077817999111112 ], [ 5.3310547, 52.077795299111102 ], [ 5.3310373, 52.077781699111121 ], [ 5.3310145, 52.077766099111116 ], [ 5.3309595, 52.077756599111126 ], [ 5.3309367, 52.077751699111104 ], [ 5.3309038, 52.077743399111114 ], [ 5.3308663, 52.077730199111109 ], [ 5.3308066, 52.077719099111121 ], [ 5.3307429, 52.077714199111107 ], [ 5.3306946, 52.07770839911111 ], [ 5.3306711, 52.07769809911111 ], [ 5.3306349, 52.077692299111121 ], [ 5.3305411, 52.07769889911112 ], [ 5.3305002, 52.077692299111121 ], [ 5.330466, 52.077679499111127 ], [ 5.3304251, 52.077668799111123 ], [ 5.3303801, 52.077671299111124 ], [ 5.3303412, 52.077681999111121 ], [ 5.3303225, 52.077705099111128 ], [ 5.3303151, 52.077740899111106 ], [ 5.3303339, 52.077763199111118 ], [ 5.330356, 52.077782599111103 ], [ 5.3304197, 52.077810199111099 ], [ 5.3304733, 52.077833299111127 ], [ 5.330533, 52.077851799111095 ], [ 5.3305967, 52.077870399111113 ], [ 5.330649, 52.077881899111091 ], [ 5.3306772, 52.077892999111086 ], [ 5.33071, 52.077917299111078 ], [ 5.3307308, 52.077930499111105 ], [ 5.3307362, 52.077949099111095 ], [ 5.3307155, 52.077998499111082 ], [ 5.3306393, 52.078066999111094 ], [ 5.3305713, 52.078133399111088 ], [ 5.3305317, 52.078192999111074 ], [ 5.3305235, 52.07824889911106 ], [ 5.330588, 52.078320399111064 ], [ 5.3306158, 52.078385799111075 ], [ 5.3306276, 52.078434499111061 ], [ 5.3306188, 52.078451799111072 ], [ 5.3305382, 52.078465999111053 ], [ 5.3303887, 52.07849209911106 ], [ 5.3303286, 52.078528999111064 ], [ 5.3303124, 52.078565599111045 ], [ 5.3303258, 52.078598599111046 ], [ 5.3303406, 52.07862779911104 ], [ 5.3303573, 52.078645899111024 ], [ 5.330418, 52.078676699111035 ], [ 5.3305223, 52.078694199111055 ], [ 5.3305659, 52.078695799111053 ], [ 5.3306188, 52.078712799111052 ], [ 5.3306642, 52.07875419911101 ], [ 5.3306725, 52.078787299111035 ], [ 5.3306451, 52.078820799111035 ], [ 5.3305382, 52.07892439911101 ], [ 5.3304875, 52.079027899111018 ], [ 5.3304385, 52.079097999111006 ], [ 5.330409, 52.079158999110994 ], [ 5.3304063, 52.079192799111013 ], [ 5.330417, 52.079219999110997 ], [ 5.3304473, 52.079259499110997 ], [ 5.330468, 52.079350199110991 ], [ 5.3305136, 52.079416999110983 ], [ 5.330537, 52.079444199110995 ], [ 5.3305833, 52.079461099110979 ], [ 5.3306195, 52.07949279911098 ], [ 5.3306217, 52.07953509911097 ], [ 5.3305792, 52.079593599110986 ], [ 5.3305773, 52.079648999110958 ], [ 5.3305766, 52.07969229911096 ], [ 5.3305748, 52.07974579911096 ], [ 5.3305176, 52.07980879911095 ], [ 5.3303929, 52.079874399110956 ], [ 5.3302976, 52.079897499110949 ], [ 5.3300898, 52.079950199110954 ], [ 5.3299349, 52.080019899110951 ], [ 5.3298122, 52.080080099110951 ], [ 5.3297169, 52.080123299110923 ], [ 5.329613, 52.080174399110923 ], [ 5.3295674, 52.080220199110926 ], [ 5.329554, 52.080281599110904 ], [ 5.3295548, 52.080341999110907 ], [ 5.3295491, 52.080422399110915 ] ] } },
{ "type": "Feature", "properties": { "id": 44 }, "geometry": { "type": "LineString", "coordinates": [ [ 5.3294418, 52.08056739911089 ], [ 5.3292784, 52.080577499110902 ], [ 5.3292033, 52.08060139911089 ], [ 5.3291698, 52.080652499110883 ], [ 5.3291818, 52.080691999110883 ], [ 5.3291872, 52.080745599110877 ], [ 5.3291825, 52.080762099110892 ], [ 5.3292, 52.080776099110878 ], [ 5.3292114, 52.080795399110876 ], [ 5.3292187, 52.080825499110887 ], [ 5.3292177, 52.080849099110871 ], [ 5.3292006, 52.080935999110864 ], [ 5.3291711, 52.080976799110864 ], [ 5.3291289, 52.081043099110865 ], [ 5.3290196, 52.081080999110839 ], [ 5.3289505, 52.081097899110851 ], [ 5.3288727, 52.081145699110856 ], [ 5.3288211, 52.081219499110851 ], [ 5.32875, 52.081322499110833 ], [ 5.3287547, 52.081354199110834 ], [ 5.3287628, 52.081388799110833 ], [ 5.3288358, 52.081423099110836 ], [ 5.3288627, 52.081443699110821 ], [ 5.3288627, 52.081482399110826 ], [ 5.3288546, 52.081512499110829 ], [ 5.3288133, 52.081546099110824 ], [ 5.3287547, 52.081624099110812 ], [ 5.3287138, 52.081669099110812 ], [ 5.3286749, 52.081687199110803 ], [ 5.3285944, 52.081691699110813 ], [ 5.3285314, 52.081685099110814 ], [ 5.328465, 52.08170079911082 ], [ 5.3284275, 52.081718499110814 ], [ 5.3284007, 52.081730499110797 ], [ 5.3283879, 52.0817592991108 ], [ 5.3283859, 52.081826099110799 ], [ 5.3283859, 52.08185329911079 ], [ 5.3283765, 52.081870199110796 ], [ 5.3283799, 52.081887499110799 ], [ 5.3283993, 52.081903499110787 ], [ 5.3284249, 52.081922599110769 ], [ 5.3284509, 52.0819611991108 ], [ 5.3284838, 52.081987199110806 ], [ 5.3285126, 52.082026299110794 ], [ 5.3285509, 52.082056799110795 ], [ 5.3285723, 52.082068799110779 ], [ 5.3286347, 52.082104199110788 ], [ 5.3286528, 52.082135899110767 ], [ 5.3286628, 52.082173399110793 ], [ 5.3286638, 52.082211699110765 ], [ 5.3286099, 52.082289599110759 ], [ 5.3285106, 52.082370799110755 ], [ 5.3284563, 52.082454899110765 ], [ 5.3284416, 52.082491199110727 ], [ 5.3284288, 52.082529899110746 ], [ 5.3284335, 52.082553799110727 ], [ 5.3284577, 52.082577299110739 ], [ 5.328518, 52.082590499110736 ], [ 5.3286012, 52.082607399110742 ], [ 5.3286461, 52.082629199110741 ], [ 5.3286642, 52.082642799110722 ], [ 5.3286858, 52.082675499110742 ], [ 5.3286682, 52.082691799110727 ], [ 5.3286488, 52.082716999110723 ], [ 5.3286253, 52.082753599110717 ], [ 5.3286139, 52.082782499110735 ], [ 5.3286132, 52.08280349911071 ], [ 5.3286239, 52.082818299110734 ], [ 5.3286843, 52.082856699110714 ], [ 5.3287232, 52.082878099110708 ], [ 5.3287406, 52.082891299110713 ], [ 5.3287688, 52.082914799110711 ], [ 5.3287668, 52.082969999110709 ], [ 5.3287527, 52.083021499110707 ], [ 5.3287339, 52.083090299110687 ], [ 5.3287366, 52.083134399110698 ], [ 5.3287722, 52.083177999110696 ], [ 5.3288278, 52.083197899110701 ], [ 5.3288781, 52.083222599110691 ], [ 5.3289036, 52.08325509911068 ], [ 5.3289297, 52.083296699110683 ], [ 5.3289351, 52.083323099110679 ], [ 5.3289498, 52.083332999110681 ], [ 5.3289572, 52.083349899110665 ], [ 5.3289584, 52.083386899110693 ], [ 5.3289673, 52.083416699110685 ], [ 5.328984, 52.083434399110679 ], [ 5.3290038, 52.083471599110666 ], [ 5.3290504, 52.083531199110674 ], [ 5.3290504, 52.083590999110669 ], [ 5.3290303, 52.083643699110674 ], [ 5.3290258, 52.083699399110657 ], [ 5.329035, 52.08373769911065 ], [ 5.3290913, 52.083773499110663 ], [ 5.3291403, 52.083800299110642 ], [ 5.3292207, 52.083847099110635 ], [ 5.3292617, 52.083882299110634 ], [ 5.3292954, 52.083938999110643 ], [ 5.3292983, 52.084022699110619 ], [ 5.3293005, 52.084054099110631 ], [ 5.3293106, 52.084064799110642 ], [ 5.329328, 52.084071799110625 ], [ 5.3293379, 52.084093899110627 ], [ 5.3294092, 52.084163699110618 ], [ 5.3294507, 52.084199199110621 ], [ 5.3294654, 52.08423439911062 ], [ 5.3294481, 52.084283999110603 ], [ 5.3294501, 52.084308399110611 ], [ 5.3294588, 52.084344999110598 ], [ 5.3294802, 52.084367299110603 ], [ 5.3295104, 52.084388299110593 ], [ 5.3295486, 52.084394899110599 ], [ 5.3296311, 52.084420799110617 ], [ 5.3296787, 52.084434899110605 ], [ 5.3297035, 52.084439799110605 ], [ 5.3297619, 52.084450899110578 ], [ 5.3298068, 52.08446529911059 ], [ 5.3298423, 52.08448349911059 ], [ 5.329892, 52.084574099110583 ], [ 5.3299134, 52.084631399110584 ], [ 5.3299429, 52.084693199110575 ], [ 5.3299771, 52.084737699110548 ], [ 5.3299677, 52.084775199110574 ], [ 5.3299402, 52.084837399110569 ], [ 5.3299262, 52.08487699911057 ], [ 5.3299342, 52.084933399110554 ], [ 5.3299966, 52.084988199110555 ], [ 5.3301205, 52.085022399110549 ], [ 5.3301967, 52.085082699110551 ], [ 5.330207, 52.085165499110524 ], [ 5.3301952, 52.085242099110552 ], [ 5.3301944, 52.085295199110533 ], [ 5.3302105, 52.085333099110521 ], [ 5.3302608, 52.085364399110517 ], [ 5.3303124, 52.085390799110534 ], [ 5.3303359, 52.085457999110524 ], [ 5.330352, 52.085509899110519 ], [ 5.3304036, 52.085575799110515 ], [ 5.3304465, 52.085619499110507 ], [ 5.3304673, 52.085673099110508 ], [ 5.3305035, 52.085740199110504 ], [ 5.3305317, 52.085753399110509 ], [ 5.3306818, 52.085803099110493 ], [ 5.33084, 52.085874199110499 ], [ 5.3309628, 52.085939699110483 ], [ 5.331042, 52.085965999110471 ], [ 5.3311244, 52.085983699110493 ], [ 5.331158, 52.08598989911048 ], [ 5.331172, 52.085999799110489 ], [ 5.3311982, 52.086038999110464 ], [ 5.331227, 52.086070699110458 ], [ 5.3312445, 52.086119699110448 ], [ 5.3312211, 52.086186699110463 ], [ 5.3311991, 52.08625429911045 ], [ 5.3311935, 52.086355399110445 ], [ 5.3311962, 52.086452199110425 ], [ 5.3312343, 52.086518099110435 ], [ 5.3312738, 52.086584799110433 ], [ 5.3313035, 52.086617499110446 ], [ 5.3313236, 52.086659099110442 ], [ 5.3313448, 52.086757299110438 ] ] } },
{ "type": "Feature", "properties": { "id": 45 }, "geometry": { "type": "LineString", "coordinates": [ [ 5.3553114, 52.078580899111046 ], [ 5.3549419, 52.078574999111048 ], [ 5.3544402, 52.078559699111068 ], [ 5.354003, 52.078549799111052 ], [ 5.353645, 52.078529899111047 ], [ 5.353378, 52.078499299111037 ], [ 5.3531917, 52.078471299111058 ], [ 5.3530274, 52.078459599111071 ], [ 5.3527877, 52.078500399111064 ] ] } },
{ "type": "Feature", "properties": { "id": 46 }, "geometry": { "type": "LineString", "coordinates": [ [ 5.3392996, 52.092527399109983 ], [ 5.3393776, 52.092793799109948 ] ] } },
{ "type": "Feature", "properties": { "id": 47 }, "geometry": { "type": "LineString", "coordinates": [ [ 5.3350536, 52.092503499109981 ], [ 5.3351504, 52.092567599109977 ], [ 5.3351866, 52.092589099109986 ], [ 5.3352167, 52.092592599109985 ], [ 5.3352651, 52.092586999109976 ], [ 5.3352919, 52.092543799109968 ], [ 5.3353684, 52.09242259910998 ], [ 5.3353938, 52.092323799110019 ], [ 5.3354501, 52.092292099110018 ], [ 5.335528, 52.092261099110011 ], [ 5.3356326, 52.092260299110009 ], [ 5.3357157, 52.092292399109986 ], [ 5.3357868, 52.092317999109994 ], [ 5.335878, 52.092328699109999 ], [ 5.3359115, 52.092328699109999 ], [ 5.3359839, 52.092315499109993 ], [ 5.3360751, 52.092280099109992 ], [ 5.336146, 52.09229329910999 ], [ 5.3362146, 52.092312199109998 ], [ 5.3362602, 52.092339399110003 ], [ 5.3362669, 52.092404499109996 ], [ 5.3363016, 52.092503399109972 ], [ 5.3363514, 52.092539599109998 ], [ 5.3364037, 52.092549499109985 ], [ 5.3364775, 52.092547899109981 ], [ 5.3365615, 52.092513399109997 ], [ 5.3366434, 52.092434199109988 ], [ 5.3367698, 52.09236079910999 ], [ 5.3368489, 52.092305599109999 ], [ 5.3368798, 52.092283399109988 ], [ 5.3369026, 52.092245499109993 ], [ 5.3369415, 52.092177899110006 ], [ 5.3369453, 52.092088699110001 ] ] } },
{ "type": "Feature", "properties": { "id": 48 }, "geometry": { "type": "LineString", "coordinates": [ [ 5.3393776, 52.092793799109948 ], [ 5.3395164, 52.092826799109964 ], [ 5.3396076, 52.092844899109963 ], [ 5.3397437, 52.092871699109949 ], [ 5.3398128, 52.092876999109961 ], [ 5.3398906, 52.092878299109969 ], [ 5.3399831, 52.092861799109947 ], [ 5.3400421, 52.092832599109961 ], [ 5.3401105, 52.092807799109949 ], [ 5.340134, 52.092759599109961 ], [ 5.3401259, 52.09270689910997 ], [ 5.3401346, 52.092694999109952 ], [ 5.3401467, 52.092687899109961 ], [ 5.3401802, 52.092685899109966 ], [ 5.3402124, 52.09269329910996 ], [ 5.3402212, 52.092699499109955 ], [ 5.3402272, 52.092703999109965 ], [ 5.3402572, 52.092708299109965 ], [ 5.3403289, 52.092705799109964 ], [ 5.3403499, 52.092672699109961 ], [ 5.34037, 52.092642199109982 ], [ 5.3403667, 52.092602299109963 ], [ 5.3403593, 52.092575099109965 ], [ 5.3403545, 52.092531599109968 ], [ 5.340376, 52.092500199109978 ], [ 5.3404176, 52.092451099109987 ], [ 5.3404605, 52.092400399109998 ], [ 5.3404894, 52.092350099109986 ], [ 5.3404793, 52.092300699109984 ], [ 5.3404753, 52.092286299109993 ], [ 5.3404753, 52.092272699110005 ], [ 5.3404572, 52.092270999109985 ], [ 5.3404485, 52.092269399110009 ], [ 5.340429, 52.092270599110002 ], [ 5.3404176, 52.092272699110005 ], [ 5.3404015, 52.092272699110005 ], [ 5.3403942, 52.092268999110019 ], [ 5.3403908, 52.092265299109982 ], [ 5.3403888, 52.092250799109998 ], [ 5.3403841, 52.092233899110006 ], [ 5.3403693, 52.092221199110014 ], [ 5.3403573, 52.092214599109994 ], [ 5.3403291, 52.092210499110017 ], [ 5.3403036, 52.092208399110014 ], [ 5.3402347, 52.092201499109997 ], [ 5.3401387, 52.092196499110003 ], [ 5.3400844, 52.092181199110023 ], [ 5.3400549, 52.092163499110001 ], [ 5.3400374, 52.092135899110012 ], [ 5.3400428, 52.092104599110009 ], [ 5.3400904, 52.09208319911 ], [ 5.3401897, 52.092065099110023 ], [ 5.3402339, 52.092046899110017 ], [ 5.3402748, 52.092007399110017 ], [ 5.3403459, 52.091934399110023 ], [ 5.3404377, 52.091911399110018 ], [ 5.3404458, 52.091884199110041 ], [ 5.3404498, 52.091861499110031 ], [ 5.3404424, 52.091833099110033 ], [ 5.3404056, 52.091804699110035 ], [ 5.3403546, 52.091768799110035 ], [ 5.3403251, 52.091759799110029 ], [ 5.3402929, 52.091755199110032 ], [ 5.3402574, 52.091753999110054 ], [ 5.340187, 52.091707399110064 ], [ 5.3401253, 52.091648899110034 ], [ 5.3401078, 52.091611799110034 ], [ 5.3401165, 52.091579699110042 ], [ 5.3401313, 52.091556599110056 ], [ 5.3401836, 52.091532699110068 ], [ 5.3402513, 52.091513799110061 ], [ 5.3403848, 52.09148209911006 ], [ 5.3405363, 52.091446199110081 ], [ 5.3406121, 52.091381999110077 ], [ 5.3406677, 52.091351899110059 ], [ 5.3407516, 52.091293799110069 ], [ 5.340826, 52.09126369911008 ], [ 5.3409386, 52.091229499110078 ], [ 5.3411358, 52.091184599110079 ], [ 5.3413698, 52.091203999110085 ], [ 5.3414704, 52.091209699110081 ], [ 5.3415545, 52.091202999110088 ], [ 5.3416588, 52.091164399110085 ], [ 5.3416856, 52.09113479911008 ], [ 5.3417151, 52.091124899110092 ], [ 5.3419257, 52.091169799110091 ], [ 5.3420799, 52.091229499110078 ], [ 5.3422556, 52.091305299110076 ], [ 5.3423343, 52.091426299110054 ] ] } },
{ "type": "Feature", "properties": { "id": 49 }, "geometry": { "type": "LineString", "coordinates": [ [ 5.3306582, 52.088087699110311 ], [ 5.3307272, 52.088111599110313 ], [ 5.3307627, 52.088115899110306 ], [ 5.3309768, 52.088125199110316 ], [ 5.331062, 52.088123999110309 ], [ 5.331103, 52.088118199110326 ], [ 5.3311421, 52.088089599110333 ], [ 5.3311823, 52.088032399110325 ], [ 5.3312315, 52.087983699110325 ], [ 5.3312897, 52.087948499110333 ], [ 5.3313408, 52.08793699911034 ], [ 5.3314143, 52.087935999110343 ], [ 5.3314613, 52.087943399110323 ], [ 5.3315119, 52.087955499110329 ], [ 5.3315841, 52.087956899110317 ], [ 5.3316769, 52.08794949911033 ], [ 5.3317498, 52.087952099110325 ], [ 5.3318026, 52.087965599110298 ], [ 5.3318451, 52.087994999110329 ], [ 5.3318838, 52.088149499110315 ], [ 5.3318925, 52.088261799110313 ], [ 5.3318908, 52.088329299110306 ], [ 5.3318626, 52.088375899110304 ], [ 5.3317984, 52.088409699110301 ], [ 5.3317219, 52.088448599110293 ], [ 5.3317001, 52.088491099110286 ], [ 5.3317062, 52.088539199110308 ], [ 5.3317729, 52.088583599110287 ], [ 5.3318761, 52.088630599110289 ], [ 5.3319834, 52.088668499110277 ], [ 5.3321202, 52.088696499110256 ], [ 5.3323203, 52.088705199110251 ], [ 5.3324285, 52.088719399110282 ], [ 5.3325127, 52.088746799110254 ], [ 5.3325823, 52.088802099110268 ], [ 5.332612, 52.08884009911025 ], [ 5.332618, 52.088882899110246 ], [ 5.3325776, 52.088942899110236 ], [ 5.3325566, 52.088997499110256 ], [ 5.3325641, 52.089030099110239 ], [ 5.3325972, 52.089050999110235 ], [ 5.3326569, 52.089066599110268 ], [ 5.3327356, 52.089100299110235 ], [ 5.332788, 52.089125399110245 ], [ 5.3328062, 52.089155699110243 ], [ 5.3327787, 52.089192599110241 ], [ 5.3327411, 52.089219799110246 ], [ 5.332721, 52.089274199110214 ], [ 5.3327358, 52.089310399110239 ], [ 5.3327747, 52.089327699110228 ], [ 5.3328377, 52.089349199110217 ], [ 5.3329061, 52.089413399110207 ], [ 5.3329343, 52.089433999110213 ], [ 5.3329917, 52.089457299110222 ], [ 5.3330281, 52.089513099110221 ], [ 5.3330389, 52.089576599110195 ], [ 5.333059, 52.08963429911018 ], [ 5.3331126, 52.089684499110199 ], [ 5.3332105, 52.089690299110195 ], [ 5.3333138, 52.089662299110188 ], [ 5.3334761, 52.089639999110204 ], [ 5.3335981, 52.089651599110184 ], [ 5.3336973, 52.089672999110192 ], [ 5.3338248, 52.089660599110218 ], [ 5.3339159, 52.08960949911021 ], [ 5.3339964, 52.089603799110208 ], [ 5.3340594, 52.08963429911018 ], [ 5.3340991, 52.089681199110203 ], [ 5.3341439, 52.08973479911019 ], [ 5.3343539, 52.089863199110184 ] ] } },
{ "type": "Feature", "properties": { "id": 50 }, "geometry": { "type": "LineString", "coordinates": [ [ 5.3485043, 52.089650599110186 ], [ 5.3490107, 52.090219299110153 ] ] } },
{ "type": "Feature", "properties": { "id": 51 }, "geometry": { "type": "LineString", "coordinates": [ [ 5.3470255, 52.09019559911016 ], [ 5.3471628, 52.090144499110174 ], [ 5.3473697, 52.090067499110177 ], [ 5.3485043, 52.089650599110186 ] ] } },
{ "type": "Feature", "properties": { "id": 52 }, "geometry": { "type": "LineString", "coordinates": [ [ 5.3458062, 52.092901799109939 ], [ 5.3458685, 52.09290549910996 ], [ 5.3459486, 52.092900299109942 ], [ 5.3460604, 52.092873699109951 ], [ 5.346187, 52.092866999109944 ], [ 5.346301, 52.092814799109952 ], [ 5.3463594, 52.092802499109951 ], [ 5.3463956, 52.092799999109957 ], [ 5.3464285, 52.092780599109958 ], [ 5.3464365, 52.092755499109977 ], [ 5.3465173, 52.092740199109976 ], [ 5.3466366, 52.09270999910995 ], [ 5.3466905, 52.092661399109964 ] ] } },
{ "type": "Feature", "properties": { "id": 53 }, "geometry": { "type": "LineString", "coordinates": [ [ 5.3499272, 52.090879199110105 ], [ 5.3499368, 52.090914799110102 ], [ 5.3499502, 52.090979399110111 ], [ 5.3499354, 52.091017799110091 ], [ 5.3499837, 52.091060599110094 ], [ 5.3500387, 52.091095199110093 ], [ 5.3501212, 52.091141799110076 ], [ 5.350154, 52.091205999110088 ], [ 5.350197, 52.091264499110068 ], [ 5.3501942, 52.091337499110068 ], [ 5.3501862, 52.091378199110061 ], [ 5.3501942, 52.091419199110071 ], [ 5.3502265, 52.091440899110069 ], [ 5.3502647, 52.091450299110065 ], [ 5.3503384, 52.09143469911006 ], [ 5.3504243, 52.091367499110071 ], [ 5.3505544, 52.09134899911006 ], [ 5.3506134, 52.091353499110078 ], [ 5.3506456, 52.091367099110073 ], [ 5.3506576, 52.091379899110066 ], [ 5.3506744, 52.091395599110065 ], [ 5.3506979, 52.091456499110066 ], [ 5.3507207, 52.091490299110063 ], [ 5.3507592, 52.091504999110072 ], [ 5.3507984, 52.091501399110058 ], [ 5.3508487, 52.09149319911004 ], [ 5.350895, 52.09148209911006 ], [ 5.3509547, 52.091459399110065 ], [ 5.3510197, 52.091455299110066 ], [ 5.35107, 52.091472999110067 ], [ 5.3510915, 52.091503899110066 ], [ 5.3510901, 52.091550499110042 ], [ 5.351074, 52.09161429911007 ], [ 5.3510465, 52.091664999110037 ], [ 5.3510486, 52.091702099110044 ], [ 5.3510807, 52.091727199110039 ], [ 5.3511297, 52.091748199110029 ], [ 5.3511887, 52.091751099110034 ], [ 5.3512276, 52.091735399110043 ], [ 5.3512437, 52.091711099110036 ], [ 5.3512725, 52.091657599110043 ], [ 5.3513483, 52.091606899110047 ], [ 5.3514603, 52.091561199110053 ], [ 5.3515428, 52.091505599110057 ], [ 5.3515743, 52.091454899110055 ], [ 5.3515897, 52.091413299110044 ], [ 5.3516118, 52.09137409911007 ], [ 5.351636, 52.091363399110051 ], [ 5.3516614, 52.091350599110058 ], [ 5.3517023, 52.091342399110069 ], [ 5.3517701, 52.091342799110066 ], [ 5.351811, 52.09134899911006 ], [ 5.3518465, 52.091361799110068 ], [ 5.3518606, 52.091376199110073 ], [ 5.3518626, 52.091398799110067 ], [ 5.3518485, 52.091434299110063 ], [ 5.3518312, 52.091454299110062 ], [ 5.3518221, 52.091510899110062 ], [ 5.3518125, 52.09159309911005 ], [ 5.3518543, 52.09165919911004 ], [ 5.3519127, 52.091697299110038 ], [ 5.3519905, 52.091693299110041 ], [ 5.3520933, 52.091675299110051 ], [ 5.3521764, 52.091650199110049 ], [ 5.3522281, 52.091642299110042 ], [ 5.3522582, 52.091642699110061 ], [ 5.3522924, 52.091650199110049 ], [ 5.3523199, 52.091663799110044 ], [ 5.3523407, 52.091681499110059 ], [ 5.3523467, 52.091697499110026 ], [ 5.3523555, 52.091751899110037 ], [ 5.3523588, 52.09177869911003 ], [ 5.352387, 52.091798899110032 ], [ 5.3524292, 52.091805499110038 ], [ 5.3524648, 52.091794399110036 ], [ 5.3524795, 52.091774599110046 ], [ 5.3524976, 52.091750699110044 ], [ 5.3525607, 52.091697299110038 ], [ 5.3526172, 52.091691799110038 ], [ 5.3526505, 52.091698399110037 ], [ 5.3526651, 52.091718199110026 ], [ 5.3526626, 52.091788599110032 ], [ 5.3526619, 52.091836399110036 ], [ 5.3527008, 52.091887499110044 ], [ 5.3527725, 52.092002399110022 ], [ 5.3527819, 52.092048999110013 ], [ 5.3527524, 52.092095499110009 ], [ 5.3527035, 52.092139199109987 ], [ 5.3526679, 52.092179199109999 ], [ 5.3526666, 52.092203899110011 ], [ 5.3526773, 52.092226499110005 ], [ 5.3527149, 52.09226729911002 ], [ 5.3527417, 52.092305999110003 ], [ 5.3527739, 52.092324599109993 ], [ 5.3528161, 52.092348499110003 ], [ 5.3528363, 52.09235509910998 ], [ 5.3528745, 52.09236079910999 ], [ 5.3529114, 52.092372399110005 ], [ 5.3529796, 52.092402699109982 ], [ 5.3530207, 52.092439899109984 ], [ 5.3530354, 52.092466699109977 ], [ 5.3530354, 52.092493099109994 ], [ 5.3530324, 52.092562599109982 ], [ 5.3530341, 52.092583299109982 ], [ 5.3530133, 52.092595699109978 ], [ 5.3529918, 52.092604299109972 ], [ 5.3529724, 52.092615899109965 ], [ 5.352959, 52.092626999109967 ], [ 5.3529435, 52.092665299109981 ], [ 5.3529442, 52.092686299109978 ], [ 5.3529482, 52.092695399109964 ], [ 5.3529623, 52.09270809910997 ], [ 5.352971, 52.092712699109974 ], [ 5.3530086, 52.092723399109957 ], [ 5.3530461, 52.092730399109954 ], [ 5.3530723, 52.092742699109955 ], [ 5.3531273, 52.092757199109961 ], [ 5.353155, 52.092777599109944 ], [ 5.3532071, 52.09281609910996 ], [ 5.3532419, 52.09283999910997 ], [ 5.3532842, 52.09286139910995 ], [ 5.3533392, 52.092878299109969 ], [ 5.3533935, 52.092886099109954 ], [ 5.3535048, 52.09286139910995 ], [ 5.3536181, 52.092823899109959 ], [ 5.3536765, 52.09280449910996 ], [ 5.3537509, 52.092811099109952 ], [ 5.353822, 52.092827199109983 ], [ 5.3538723, 52.092840799109965 ], [ 5.3539541, 52.092836699109967 ], [ 5.3539889, 52.092809899109959 ], [ 5.3540312, 52.092755499109977 ], [ 5.354058, 52.092701099109973 ], [ 5.3540808, 52.092623699109993 ], [ 5.3541076, 52.092575099109965 ], [ 5.3541398, 52.092546999109977 ], [ 5.3541613, 52.092541299109961 ], [ 5.354178, 52.092536799109972 ], [ 5.3541914, 52.092535899109961 ], [ 5.3542598, 52.092541699109979 ], [ 5.3543356, 52.09255819910998 ], [ 5.3544087, 52.092566799109974 ], [ 5.3545026, 52.092561099109972 ], [ 5.3545918, 52.09253879910996 ], [ 5.3546293, 52.092516199109987 ], [ 5.3546568, 52.092504599109972 ], [ 5.3546977, 52.092497999109966 ], [ 5.3547379, 52.092502599109991 ], [ 5.3547969, 52.092515699109967 ], [ 5.3548191, 52.092522699109963 ], [ 5.354872, 52.092545399109966 ], [ 5.3549116, 52.092574699110003 ], [ 5.354921, 52.092592799109987 ], [ 5.3549431, 52.09265699910997 ], [ 5.3549713, 52.092700299109964 ], [ 5.3550008, 52.092722999109981 ], [ 5.3550638, 52.092737399109964 ], [ 5.3551228, 52.09272209910997 ], [ 5.3551584, 52.092704399109955 ], [ 5.3552523, 52.092633599109966 ], [ 5.3553106, 52.092571799109976 ], [ 5.3553723, 52.092531399109973 ], [ 5.3554152, 52.092488099109985 ], [ 5.3554843, 52.092449799109993 ], [ 5.3555513, 52.092417299109982 ], [ 5.3556472, 52.092398299109988 ], [ 5.3557659, 52.092412299109974 ], [ 5.3558034, 52.092427999109994 ], [ 5.3558732, 52.092470799109989 ], [ 5.3559322, 52.092490599109986 ], [ 5.3560247, 52.092504199109982 ], [ 5.3561233, 52.092502999109989 ], [ 5.3562145, 52.092483999109994 ], [ 5.3562916, 52.092453499109972 ], [ 5.3564599, 52.092391699110003 ], [ 5.3566262, 52.092342699109984 ], [ 5.3566821, 52.092320499110002 ], [ 5.3567591, 52.092319299109995 ], [ 5.356811, 52.092331399110002 ], [ 5.3568751, 52.09234649911 ], [ 5.3569364, 52.092375999109976 ], [ 5.356993, 52.092391099109996 ], [ 5.3570355, 52.092391699110003 ], [ 5.3570816, 52.092383599109979 ], [ 5.3571336, 52.092367899109988 ], [ 5.3571882, 52.092344699109987 ], [ 5.3572723, 52.092334299109979 ], [ 5.3574118, 52.092282699109994 ], [ 5.3575769, 52.092250899109978 ], [ 5.3576607, 52.092220199109995 ], [ 5.3577523, 52.092200999110013 ], [ 5.3578023, 52.092202099110011 ], [ 5.3578636, 52.092214299110019 ], [ 5.3579353, 52.092239799109983 ], [ 5.3580041, 52.092273999110006 ], [ 5.3580522, 52.09228439911 ], [ 5.3580815, 52.092289699110012 ], [ 5.358123, 52.092290299110012 ], [ 5.358322, 52.092280899109994 ], [ 5.3584088, 52.09229259911001 ], [ 5.3585314, 52.092327399109998 ], [ 5.3585814, 52.092351699109997 ], [ 5.3586597, 52.09234989910999 ], [ 5.3588125, 52.092347099109986 ], [ 5.3589181, 52.092335499109979 ], [ 5.3590804, 52.092337199110005 ], [ 5.3591474, 52.092348199109999 ], [ 5.3592044, 52.092368699110004 ], [ 5.3593393, 52.092421799109978 ], [ 5.3594519, 52.09242259910998 ], [ 5.3597314, 52.09238479911 ], [ 5.3599015, 52.092386499109999 ], [ 5.3600479, 52.092422699109989 ] ] } },
{ "type": "Feature", "properties": { "id": 54 }, "geometry": { "type": "LineString", "coordinates": [ [ 5.3435843, 52.092889599109959 ], [ 5.3436591, 52.092936399109952 ], [ 5.3437784, 52.092972199109937 ], [ 5.3438576, 52.093012899109951 ], [ 5.343928, 52.093030699109939 ], [ 5.344056, 52.093065699109928 ], [ 5.3441741, 52.093101599109929 ], [ 5.344272, 52.093108599109947 ], [ 5.3443551, 52.093086299109949 ], [ 5.3443953, 52.093072699109932 ], [ 5.344453, 52.093070699109937 ], [ 5.3445274, 52.09307639910994 ], [ 5.3446206, 52.093104499109955 ], [ 5.3447273, 52.093113899109916 ], [ 5.3447782, 52.093096999109939 ], [ 5.3448077, 52.093089999109935 ], [ 5.3448889, 52.093103999109921 ], [ 5.3449881, 52.09315549910994 ], [ 5.3450263, 52.09316009910993 ], [ 5.3450853, 52.093162099109939 ], [ 5.3451828, 52.093143299109933 ], [ 5.3452738, 52.093127899109952 ], [ 5.3453526, 52.093104999109933 ], [ 5.345395, 52.093088199109928 ], [ 5.3454468, 52.093039799109967 ], [ 5.3454528, 52.093004799109934 ] ] } },
{ "type": "Feature", "properties": { "id": 55 }, "geometry": { "type": "LineString", "coordinates": [ [ 5.337199, 52.092103299110008 ], [ 5.3372157, 52.092163499110001 ], [ 5.3372587, 52.092231899110004 ], [ 5.3372774, 52.092246699109999 ], [ 5.3373224, 52.092265699109994 ], [ 5.3373619, 52.092272299109979 ], [ 5.3374746, 52.092277199110015 ], [ 5.3375322, 52.09229079911001 ], [ 5.3375738, 52.092307699109959 ], [ 5.3375886, 52.092381399109989 ], [ 5.3375778, 52.092417299109982 ], [ 5.337602, 52.092466699109977 ], [ 5.3376214, 52.092551599109981 ], [ 5.337665, 52.092596099109976 ], [ 5.3377032, 52.092622899109983 ], [ 5.3377327, 52.092663599109969 ], [ 5.3377247, 52.092700299109964 ], [ 5.3377596, 52.092737799109983 ], [ 5.337797, 52.092766499109963 ], [ 5.3378635, 52.092790499109945 ], [ 5.3379741, 52.092795499109968 ], [ 5.3380559, 52.092806599109963 ], [ 5.3381505, 52.092802499109951 ], [ 5.3382229, 52.092766999109969 ], [ 5.3382779, 52.092755099109958 ], [ 5.3383342, 52.092755099109958 ], [ 5.3383999, 52.092763299109969 ], [ 5.3384555, 52.092783199109945 ], [ 5.3384911, 52.092777299109976 ], [ 5.338531, 52.092759099109962 ], [ 5.3385448, 52.092682599109985 ], [ 5.3385649, 52.092648399109976 ], [ 5.3385877, 52.092602699109982 ], [ 5.3386842, 52.092573799109978 ], [ 5.3387332, 52.09253469910999 ], [ 5.3387419, 52.092490999109991 ], [ 5.3387278, 52.092454399109982 ], [ 5.3387057, 52.092423899109974 ], [ 5.3386789, 52.092378099109986 ], [ 5.3386796, 52.092308099110006 ], [ 5.3387124, 52.092219499110016 ], [ 5.3387137, 52.092186199110003 ], [ 5.3387325, 52.092147399110011 ], [ 5.3387473, 52.092127199110024 ], [ 5.3387627, 52.092096299110004 ], [ 5.3387835, 52.092089299110029 ], [ 5.3388197, 52.092080299110023 ], [ 5.3388512, 52.092074099109979 ], [ 5.33888, 52.09207699911002 ], [ 5.3389069, 52.092085999110012 ], [ 5.3389149, 52.092109499110009 ], [ 5.3389035, 52.092142899110016 ], [ 5.3388914, 52.092166799109997 ], [ 5.3388948, 52.092212499110005 ], [ 5.3388814, 52.092255799109999 ], [ 5.3388787, 52.092317599110004 ], [ 5.3389002, 52.092356699110006 ], [ 5.338929, 52.092396699109969 ], [ 5.3389116, 52.092458499109988 ], [ 5.3388888, 52.092502599109991 ], [ 5.3388653, 52.092533899109966 ], [ 5.3388713, 52.092556899109972 ], [ 5.3388888, 52.092579999109965 ], [ 5.3389411, 52.092624099109976 ], [ 5.3389867, 52.092652899109979 ], [ 5.3390115, 52.092682999109975 ], [ 5.3390233, 52.092704299109968 ], [ 5.3389739, 52.092746399109977 ], [ 5.3389297, 52.092803699109965 ], [ 5.3389256, 52.092834199109937 ], [ 5.3389511, 52.092852699109969 ], [ 5.3390075, 52.092867999109956 ], [ 5.339045, 52.092862599109949 ], [ 5.339104, 52.092839099109945 ], [ 5.3391496, 52.092793399109965 ], [ 5.339165, 52.092729999109963 ], [ 5.3391469, 52.092677199109971 ], [ 5.3391382, 52.092642999109991 ], [ 5.3391476, 52.092598499109982 ], [ 5.339165, 52.09255939910998 ], [ 5.3391784, 52.092521899109968 ], [ 5.3391952, 52.092493899109989 ], [ 5.3392207, 52.092480699109998 ], [ 5.3392448, 52.092473299109983 ], [ 5.3392696, 52.092479099109987 ], [ 5.3392844, 52.092490999109991 ], [ 5.3392996, 52.092527399109983 ] ] } },
{ "type": "Feature", "properties": { "id": 56 }, "geometry": { "type": "LineString", "coordinates": [ [ 5.3554485, 52.090116999110165 ], [ 5.3543373, 52.090268999110144 ], [ 5.3531059, 52.090437399110137 ], [ 5.3519373, 52.090597199110114 ], [ 5.3507493, 52.090759699110116 ], [ 5.3499272, 52.090879199110105 ] ] } },
{ "type": "Feature", "properties": { "id": 57 }, "geometry": { "type": "LineString", "coordinates": [ [ 5.3430794, 52.092307399110005 ], [ 5.3435843, 52.092889599109959 ] ] } },
{ "type": "Feature", "properties": { "id": 58 }, "geometry": { "type": "LineString", "coordinates": [ [ 5.3306582, 52.088087699110311 ], [ 5.3306538, 52.088039299110307 ], [ 5.3306538, 52.087910699110331 ], [ 5.3306587, 52.087772299110334 ] ] } },
{ "type": "Feature", "properties": { "id": 59 }, "geometry": { "type": "LineString", "coordinates": [ [ 5.3571439, 52.079229199110998 ], [ 5.3560923, 52.079427999110983 ], [ 5.3554157, 52.079527199110977 ] ] } },
{ "type": "Feature", "properties": { "id": 60 }, "geometry": { "type": "LineString", "coordinates": [ [ 5.3666803, 52.085278199110526 ], [ 5.3667609, 52.085249099110527 ], [ 5.3668454, 52.085203299110553 ], [ 5.366891, 52.085174499110536 ], [ 5.3670533, 52.085167099110542 ], [ 5.3672907, 52.085153099110549 ], [ 5.3673336, 52.085174499110536 ], [ 5.367343, 52.08519999911055 ], [ 5.3673738, 52.085244499110537 ], [ 5.367398, 52.08525689911054 ], [ 5.3674382, 52.085279999110533 ], [ 5.3675053, 52.085282399110547 ], [ 5.3675374, 52.085298899110548 ], [ 5.3675777, 52.085325299110529 ], [ 5.3676903, 52.08536159911052 ], [ 5.3678218, 52.085359099110526 ], [ 5.3679009, 52.085336799110515 ], [ 5.3680482, 52.085316499110533 ], [ 5.3682844, 52.085339699110513 ], [ 5.3683072, 52.085329399110535 ], [ 5.3683314, 52.085310499110527 ], [ 5.3683206, 52.085288999110546 ], [ 5.3683099, 52.08527339911052 ], [ 5.3682013, 52.085245399110541 ], [ 5.3681503, 52.085223899110531 ], [ 5.3679934, 52.085108599110548 ], [ 5.3679116, 52.085092899110542 ], [ 5.3677453, 52.085055799110549 ], [ 5.3676769, 52.085058299110536 ], [ 5.3676286, 52.08506899911054 ], [ 5.367571, 52.085078099110561 ], [ 5.367528, 52.085080499110546 ], [ 5.367469, 52.085068199110545 ], [ 5.3674369, 52.085059899110547 ], [ 5.3673859, 52.085031899110554 ], [ 5.3672813, 52.085004699110542 ], [ 5.3672478, 52.084994799110547 ], [ 5.3671874, 52.084985799110548 ], [ 5.3671794, 52.084973399110567 ], [ 5.3671955, 52.084936299110566 ], [ 5.367178, 52.084837399110569 ], [ 5.3671378, 52.084789599110564 ], [ 5.3670788, 52.084769899110583 ], [ 5.3670546, 52.084754999110565 ], [ 5.3670546, 52.08472989911057 ], [ 5.3671056, 52.084656999110585 ], [ 5.3671767, 52.084606699110587 ], [ 5.3673229, 52.084577799110576 ], [ 5.3673685, 52.084559699110585 ], [ 5.3673711, 52.084508599110592 ], [ 5.3673819, 52.084485499110585 ], [ 5.367516, 52.084353699110608 ], [ 5.3677007, 52.084318399110614 ], [ 5.3677601, 52.084305899110596 ], [ 5.3678808, 52.084346299110607 ], [ 5.3679478, 52.084346299110607 ], [ 5.3679894, 52.084311699110607 ], [ 5.3680994, 52.084303399110617 ], [ 5.3681812, 52.084325699110622 ], [ 5.3682885, 52.084323999110609 ], [ 5.3684279, 52.0842885991106 ], [ 5.3686117, 52.084273699110611 ], [ 5.368719, 52.084336399110605 ], [ 5.368849, 52.084360299110585 ], [ 5.3689282, 52.084342099110593 ], [ 5.3689992, 52.0842885991106 ], [ 5.3689966, 52.084206199110625 ], [ 5.3689536, 52.084129499110624 ], [ 5.3690401, 52.084076799110626 ], [ 5.3691129, 52.084008399110623 ], [ 5.3692028, 52.083923899110637 ], [ 5.3692896, 52.083885199110632 ], [ 5.3693664, 52.083862999110643 ], [ 5.3695196, 52.083794399110651 ], [ 5.3696202, 52.08380969911066 ], [ 5.3696772, 52.083822099110655 ], [ 5.3697153, 52.083833799110643 ], [ 5.3697318, 52.083845999110636 ], [ 5.3697402, 52.08387979911064 ], [ 5.3696602, 52.083910299110634 ], [ 5.3696731, 52.083975299110627 ], [ 5.369716, 52.083993799110637 ], [ 5.369779, 52.083992799110639 ], [ 5.3699235, 52.083998199110638 ], [ 5.3700508, 52.083880399110626 ], [ 5.3701765, 52.083791199110657 ], [ 5.3702748, 52.08378489911064 ], [ 5.3703569, 52.083809299110655 ], [ 5.3704313, 52.083842599110646 ], [ 5.3705107, 52.083925199110638 ], [ 5.3705601, 52.08397619911063 ], [ 5.3706144, 52.083981899110618 ], [ 5.3706888, 52.083980599110625 ], [ 5.3707618, 52.083954199110643 ], [ 5.3707904, 52.083923499110639 ], [ 5.3708219, 52.083875999110631 ], [ 5.3708505, 52.08378979911064 ], [ 5.370926, 52.083761599110645 ], [ 5.3710283, 52.083782899110645 ], [ 5.3710759, 52.083824999110639 ], [ 5.3710751, 52.083836399110645 ], [ 5.371027, 52.083878299110637 ], [ 5.3709592, 52.083895299110658 ], [ 5.3709349, 52.083965699110635 ], [ 5.3709435, 52.083998199110638 ], [ 5.3709849, 52.084031599110631 ] ] } },
{ "type": "Feature", "properties": { "id": 61 }, "geometry": { "type": "LineString", "coordinates": [ [ 5.3304347, 52.086614999110445 ], [ 5.3307317, 52.086630099110437 ] ] } },
{ "type": "Feature", "properties": { "id": 62 }, "geometry": { "type": "LineString", "coordinates": [ [ 5.3369453, 52.092088699110001 ], [ 5.337199, 52.092103299110008 ] ] } },
{ "type": "Feature", "properties": { "id": 63 }, "geometry": { "type": "LineString", "coordinates": [ [ 5.3313448, 52.086757299110438 ], [ 5.3312445, 52.086778999110408 ], [ 5.3311211, 52.086795899110406 ], [ 5.3309823, 52.086779399110426 ], [ 5.3309376, 52.086752499110425 ], [ 5.3308488, 52.086695699110422 ], [ 5.3307317, 52.086630099110437 ] ] } },
{ "type": "Feature", "properties": { "id": 64 }, "geometry": { "type": "LineString", "coordinates": [ [ 5.3554157, 52.079527199110977 ], [ 5.3554185, 52.07942649911098 ], [ 5.3554326, 52.079361799110991 ], [ 5.3554407, 52.079270299110988 ], [ 5.3554527, 52.079221699110988 ], [ 5.3554836, 52.079156999110985 ], [ 5.3554749, 52.079104599111005 ], [ 5.3554648, 52.079063799110997 ], [ 5.3554641, 52.079034599111033 ], [ 5.3554608, 52.078999499110999 ], [ 5.3554789, 52.078964099111012 ], [ 5.3554769, 52.078933999111015 ], [ 5.3554514, 52.078874699111005 ], [ 5.3554253, 52.078837599111026 ], [ 5.355379, 52.078797999111018 ], [ 5.3553361, 52.078716399111052 ], [ 5.3553367, 52.078698299111046 ], [ 5.3553515, 52.078680599111046 ], [ 5.3553649, 52.078658699111052 ], [ 5.3553566, 52.07862589911106 ], [ 5.3553114, 52.078580899111046 ] ] } },
{ "type": "Feature", "properties": { "id": 65 }, "geometry": { "type": "LineString", "coordinates": [ [ 5.3625711, 52.092201699109999 ], [ 5.3624547, 52.092172999110005 ], [ 5.3622211, 52.092111199110015 ], [ 5.3621634, 52.092099599110028 ] ] } },
{ "type": "Feature", "properties": { "id": 66 }, "geometry": { "type": "LineString", "coordinates": [ [ 5.3478158, 52.091503499110068 ], [ 5.3478172, 52.091442499110073 ], [ 5.3478084, 52.091408699110062 ], [ 5.3477977, 52.091392299110076 ], [ 5.347783, 52.091377799110063 ], [ 5.3477528, 52.091342999110061 ], [ 5.3477394, 52.091325099110058 ], [ 5.3477119, 52.09131599911008 ], [ 5.3476985, 52.091310299110063 ], [ 5.3476784, 52.091296299110077 ], [ 5.3476764, 52.091281399110073 ], [ 5.3476683, 52.09126039911007 ], [ 5.3476629, 52.091231599110095 ], [ 5.3476636, 52.091200299110071 ], [ 5.3476408, 52.091163999110087 ], [ 5.3476147, 52.091137599110105 ], [ 5.3475945, 52.091120299110102 ], [ 5.3475228, 52.0910902991101 ], [ 5.3474785, 52.091068799110097 ], [ 5.3474551, 52.0910556991101 ], [ 5.3474323, 52.091038399110097 ], [ 5.3474043, 52.091014299110078 ], [ 5.3473724, 52.090963699110091 ], [ 5.3473424, 52.090907299110093 ], [ 5.3472827, 52.090833199110094 ], [ 5.3472465, 52.090783299110115 ], [ 5.3471936, 52.090719099110117 ], [ 5.3471131, 52.090648599110139 ], [ 5.3470313, 52.090620199110106 ], [ 5.3469927, 52.090566499110132 ], [ 5.3469267, 52.090494099110131 ], [ 5.3469099, 52.090438499110128 ], [ 5.3469522, 52.09036889911016 ], [ 5.3470038, 52.090311999110149 ], [ 5.3470255, 52.09019559911016 ] ] } },
{ "type": "Feature", "properties": { "id": 67 }, "geometry": { "type": "LineString", "coordinates": [ [ 5.3466905, 52.092661399109964 ], [ 5.3468943, 52.092634399109997 ] ] } },
{ "type": "Feature", "properties": { "id": 68 }, "geometry": { "type": "LineString", "coordinates": [ [ 5.3454528, 52.093004799109934 ], [ 5.3455192, 52.092965599109945 ], [ 5.3458062, 52.092901799109939 ] ] } },
{ "type": "Feature", "properties": { "id": 69 }, "geometry": { "type": "LineString", "coordinates": [ [ 5.3604758, 52.092369199110003 ], [ 5.3602875, 52.092391899110005 ], [ 5.3601977, 52.09240339910999 ] ] } }
]
}
