{
"type": "FeatureCollection",
"name": "dth_ruiterroutes",
"crs": { "type": "name", "properties": { "name": "urn:ogc:def:crs:OGC:1.3:CRS84" } },
"features": [
{ "type": "Feature", "properties": { "@id": "relation/2412132", "name": "   49-T   " }, "geometry": { "type": "LineString", "coordinates": [ [ 5.3248067, 52.078845799111043 ], [ 5.3249661, 52.078860499111023 ], [ 5.3251914, 52.078834099111035 ], [ 5.3253574, 52.078774099111008 ], [ 5.3267256, 52.078273599111071 ] ] } },
{ "type": "Feature", "properties": { "@id": "relation/2412088", "name": "   18-22   " }, "geometry": { "type": "LineString", "coordinates": [ [ 5.364859, 52.104562199109075 ], [ 5.3651042, 52.104589199109071 ], [ 5.3654673, 52.104629099109054 ], [ 5.366988, 52.104868899109071 ], [ 5.367462, 52.104953699109046 ], [ 5.3694585, 52.105273599109019 ], [ 5.3696384, 52.105301899109016 ], [ 5.3718096, 52.105625899108979 ], [ 5.372578, 52.105750899108969 ], [ 5.3730921, 52.105831399108979 ], [ 5.3735978, 52.105909799108993 ], [ 5.3736639, 52.105920199108994 ], [ 5.3737316, 52.105930799108975 ], [ 5.3742056, 52.106004099108965 ], [ 5.3747668, 52.106106599108927 ], [ 5.3748034, 52.106133599108951 ] ] } },
{ "type": "Feature", "properties": { "@id": "relation/2412121", "name": "   T-41   " }, "geometry": { "type": "LineString", "coordinates": [ [ 5.3307497, 52.087923199110321 ], [ 5.3306739, 52.087836799110327 ], [ 5.3306587, 52.087772299110334 ] ] } },
{ "type": "Feature", "properties": { "@id": "relation/8639580", "name": "   30-31   " }, "geometry": { "type": "LineString", "coordinates": [ [ 5.371886, 52.091169699110097 ], [ 5.3712102, 52.091234999110078 ], [ 5.3698873, 52.091373799110059 ], [ 5.3678034, 52.091580099110047 ] ] } },
{ "type": "Feature", "properties": { "@id": "relation/2412084", "name": "   15-24   " }, "geometry": { "type": "LineString", "coordinates": [ [ 5.3834414, 52.103066799109186 ], [ 5.3834591, 52.103003599109201 ], [ 5.3834224, 52.102980399109192 ], [ 5.3833827, 52.102952599109194 ], [ 5.3834082, 52.102861599109197 ], [ 5.3834053, 52.102805799109206 ], [ 5.383018, 52.101233199109309 ], [ 5.3829815, 52.101094599109331 ], [ 5.3828339, 52.100584199109363 ], [ 5.3821413, 52.100661999109356 ], [ 5.3822517, 52.100528499109387 ], [ 5.3820642, 52.099740199109426 ], [ 5.3819252, 52.09931139910946 ], [ 5.3817692, 52.099055199109515 ], [ 5.3816982, 52.098715399109501 ], [ 5.3797838, 52.09893389910949 ], [ 5.3797434, 52.098938499109494 ], [ 5.3791899, 52.098954099109491 ], [ 5.3777242, 52.0989918991095 ] ] } },
{ "type": "Feature", "properties": { "@id": "relation/8513962", "name": "   64-69   " }, "geometry": { "type": "LineString", "coordinates": [ [ 5.3304052, 52.051605899113177 ], [ 5.3298522, 52.052140999113121 ], [ 5.3287643, 52.053179399113063 ] ] } },
{ "type": "Feature", "properties": { "@id": "relation/2412117", "name": "   39-43   " }, "geometry": { "type": "LineString", "coordinates": [ [ 5.3485151, 52.093085399109931 ], [ 5.3475657, 52.092194399109992 ], [ 5.3464406, 52.091139499110092 ], [ 5.3458304, 52.09064929911014 ], [ 5.3457156, 52.09068489911013 ], [ 5.345593, 52.090606099110119 ], [ 5.3454686, 52.090511599110123 ], [ 5.3452767, 52.090341599110133 ], [ 5.3450294, 52.090148399110134 ], [ 5.3448216, 52.08998839911019 ], [ 5.3446827, 52.089894299110171 ], [ 5.3441108, 52.089861499110192 ], [ 5.3436897, 52.08961929911019 ], [ 5.3437099, 52.089530699110206 ], [ 5.3436586, 52.089445799110216 ], [ 5.3436125, 52.089360899110225 ], [ 5.3436265, 52.08921689911022 ], [ 5.3436752, 52.089024499110245 ], [ 5.3438583, 52.08878979911028 ], [ 5.3441228, 52.088633699110282 ], [ 5.344288, 52.088491999110289 ], [ 5.3446902, 52.088485299110289 ], [ 5.3449437, 52.088301799110297 ], [ 5.3451338, 52.088222699110304 ], [ 5.3452002, 52.088138199110325 ], [ 5.3451846, 52.088044599110326 ], [ 5.3453182, 52.087837599110337 ], [ 5.3453849, 52.087440799110368 ] ] } },
{ "type": "Feature", "properties": { "@id": "relation/2412089", "name": "   19-20   " }, "geometry": { "type": "LineString", "coordinates": [ [ 5.3689399, 52.108288499108795 ], [ 5.3688633, 52.108775399108744 ], [ 5.3686495, 52.10979969910867 ], [ 5.3686444, 52.109834299108684 ], [ 5.3691574, 52.109784199108688 ], [ 5.3692114, 52.110345899108637 ], [ 5.369166, 52.110814399108612 ], [ 5.3692377, 52.110897499108596 ], [ 5.3693545, 52.11095829910861 ], [ 5.3697105, 52.110991699108595 ], [ 5.3697937, 52.111084999108584 ], [ 5.370018, 52.111893799108522 ], [ 5.3702152, 52.112706199108473 ], [ 5.3703525, 52.112856299108451 ], [ 5.3703234, 52.113410999108403 ], [ 5.3704688, 52.113579099108392 ], [ 5.3704422, 52.114468799108337 ], [ 5.3704486, 52.114714099108305 ], [ 5.3704591, 52.115115999108291 ], [ 5.3706118, 52.115617399108253 ], [ 5.3698557, 52.115589099108263 ], [ 5.3698413, 52.11598189910822 ], [ 5.3698064, 52.116497999108176 ], [ 5.3697686, 52.116746599108183 ], [ 5.3696245, 52.117135499108151 ], [ 5.3694918, 52.11749859910811 ], [ 5.3694519, 52.117660999108111 ], [ 5.3694427, 52.117700399108116 ] ] } },
{ "type": "Feature", "properties": { "@id": "relation/2412074", "name": "   9-10   " }, "geometry": { "type": "LineString", "coordinates": [ [ 5.3856315, 52.119309099107994 ], [ 5.3857373, 52.119065599108019 ], [ 5.385994, 52.118128199108064 ], [ 5.3862137, 52.117225199108134 ] ] } },
{ "type": "Feature", "properties": { "@id": "relation/2412124", "name": "   44-45   " }, "geometry": { "type": "LineString", "coordinates": [ [ 5.3539277, 52.085616099110517 ], [ 5.3534181, 52.084575999110591 ], [ 5.3533089, 52.084278999110623 ], [ 5.3532545, 52.084206799110618 ], [ 5.3532431, 52.08414439911062 ], [ 5.3532116, 52.083949699110647 ] ] } },
{ "type": "Feature", "properties": { "@id": "relation/2412075", "name": "   9-11   " }, "geometry": { "type": "LineString", "coordinates": [ [ 5.3856315, 52.119309099107994 ], [ 5.3864791, 52.119383699107971 ], [ 5.3868356, 52.118322199108057 ], [ 5.3878046, 52.118509999108042 ], [ 5.3878198, 52.118469399108051 ], [ 5.3878882, 52.118295699108039 ], [ 5.3882976, 52.118341599108049 ], [ 5.3897196, 52.118480299108043 ] ] } },
{ "type": "Feature", "properties": { "@id": "relation/2412077", "name": "   10-12   " }, "geometry": { "type": "LineString", "coordinates": [ [ 5.3862137, 52.117225199108134 ], [ 5.3860849, 52.117070399108144 ], [ 5.3859481, 52.116839799108149 ], [ 5.3858596, 52.116573799108181 ], [ 5.3858221, 52.11648489910818 ], [ 5.3857644, 52.116354699108193 ], [ 5.3857582, 52.116202599108213 ], [ 5.3857891, 52.116046099108218 ], [ 5.3857598, 52.116010599108229 ], [ 5.3857349, 52.11600099910823 ], [ 5.3856702, 52.115955099108234 ], [ 5.3838621, 52.115428799108265 ], [ 5.384273, 52.115131199108298 ] ] } },
{ "type": "Feature", "properties": { "@id": "relation/2412068", "name": "   5-6   " }, "geometry": { "type": "LineString", "coordinates": [ [ 5.3908702, 52.130209899107172 ], [ 5.3908546, 52.129926399107227 ], [ 5.3911191, 52.12907159910727 ], [ 5.3912008, 52.128834099107294 ], [ 5.3915089, 52.127888399107356 ], [ 5.3915614, 52.12772559910735 ], [ 5.3917458, 52.127210199107409 ], [ 5.3917675, 52.127130099107418 ], [ 5.3918907, 52.126889999107448 ], [ 5.3920724, 52.126777099107436 ], [ 5.3916723, 52.126661699107451 ], [ 5.3914967, 52.126625999107446 ], [ 5.3905742, 52.126372899107452 ], [ 5.3907467, 52.126063599107482 ], [ 5.3907168, 52.126055899107499 ], [ 5.3896303, 52.125792699107514 ], [ 5.3895853, 52.125781799107507 ], [ 5.3893123, 52.125715699107509 ], [ 5.3892588, 52.125702699107507 ], [ 5.3889794, 52.125634999107518 ], [ 5.3881384, 52.125431299107532 ], [ 5.3868892, 52.12505039910755 ], [ 5.385779, 52.124749499107594 ], [ 5.3853633, 52.124633899107593 ], [ 5.3847268, 52.124443699107594 ], [ 5.3843, 52.124316199107618 ], [ 5.3819405, 52.123648899107671 ], [ 5.3817745, 52.123592099107675 ], [ 5.3813501, 52.123469299107683 ], [ 5.3810572, 52.12337459910767 ], [ 5.380873, 52.12333709910768 ], [ 5.3807345, 52.123308799107697 ], [ 5.3795633, 52.122997699107721 ], [ 5.3791256, 52.122923499107721 ], [ 5.3787246, 52.122807699107739 ] ] } },
{ "type": "Feature", "properties": { "@id": "relation/8513612", "name": "   56-59   " }, "geometry": { "type": "LineString", "coordinates": [ [ 5.3157146, 52.06226099911234 ], [ 5.3168899, 52.061091699112424 ], [ 5.3169283, 52.06103629911243 ], [ 5.3169723, 52.060972599112425 ], [ 5.3171548, 52.060794599112434 ], [ 5.3173456, 52.06060859911247 ], [ 5.3178097, 52.060135099112486 ], [ 5.3179365, 52.060013899112505 ], [ 5.3186311, 52.059290799112553 ] ] } },
{ "type": "Feature", "properties": { "@id": "relation/8513963", "name": "   64-65   " }, "geometry": { "type": "LineString", "coordinates": [ [ 5.3217456, 52.04836989911341 ], [ 5.3231391, 52.049232799113341 ], [ 5.3240857, 52.049808499113318 ], [ 5.3248642, 52.050293799113277 ], [ 5.3249315, 52.050327099113275 ], [ 5.3251615, 52.050494399113248 ], [ 5.3258572, 52.051005999113229 ], [ 5.3269102, 52.051791799113161 ], [ 5.3276291, 52.0523276991131 ], [ 5.3281846, 52.052735099113093 ], [ 5.3285972, 52.053061999113069 ], [ 5.3287643, 52.053179399113063 ] ] } },
{ "type": "Feature", "properties": { "@id": "relation/2412086", "name": "   17-18   " }, "geometry": { "type": "LineString", "coordinates": [ [ 5.3748034, 52.106133599108951 ], [ 5.3760642, 52.10571899910898 ], [ 5.3764909, 52.105614399108994 ] ] } },
{ "type": "Feature", "properties": { "@id": "relation/2412066", "name": "   4-6   " }, "geometry": { "type": "LineString", "coordinates": [ [ 5.3761394, 52.121852399107802 ], [ 5.3768238, 52.122102699107785 ], [ 5.3777826, 52.122464599107744 ], [ 5.3787246, 52.122807699107739 ] ] } },
{ "type": "Feature", "properties": { "@id": "relation/2412078", "name": "   12-13   " }, "geometry": { "type": "LineString", "coordinates": [ [ 5.384273, 52.115131199108298 ], [ 5.3848593, 52.114711599108304 ], [ 5.3852284, 52.114447399108343 ], [ 5.3854998, 52.11428319910835 ], [ 5.3858889, 52.114147099108365 ], [ 5.3862085, 52.114057999108368 ], [ 5.3863449, 52.114058199108378 ], [ 5.3864685, 52.114022399108379 ], [ 5.3869559, 52.113881399108386 ], [ 5.3873241, 52.113774899108392 ], [ 5.3874008, 52.113761099108395 ], [ 5.3876125, 52.113702299108375 ], [ 5.3887207, 52.113404799108423 ], [ 5.3890216, 52.113288099108416 ], [ 5.390516, 52.112848899108457 ], [ 5.3924852, 52.112269199108511 ], [ 5.3930256, 52.112093299108516 ] ] } },
{ "type": "Feature", "properties": { "@id": "relation/8513958", "name": "   75-76   " }, "geometry": { "type": "LineString", "coordinates": [ [ 5.3368698, 52.055517999112865 ], [ 5.3366274, 52.055459099112873 ], [ 5.3357263, 52.054880599112906 ], [ 5.3339306, 52.053716799113012 ] ] } },
{ "type": "Feature", "properties": { "@id": "relation/2412141", "name": "   34-T   " }, "geometry": { "type": "LineString", "coordinates": [ [ 5.3808607, 52.085659199110495 ], [ 5.3825923, 52.085548199110512 ], [ 5.3842412, 52.0854601991105 ], [ 5.3847684, 52.085414699110515 ], [ 5.3848536, 52.085348199110513 ], [ 5.3851059, 52.085262899110532 ], [ 5.3853162, 52.085262599110528 ], [ 5.3855244, 52.085215599110526 ], [ 5.3863013, 52.085216499110544 ], [ 5.3871121, 52.085145899110557 ], [ 5.3874638, 52.085123999110543 ], [ 5.3875398, 52.085139099110535 ], [ 5.3875737, 52.085250999110535 ], [ 5.3878412, 52.085513699110514 ], [ 5.3885002, 52.086270499110455 ], [ 5.3885809, 52.086338699110463 ], [ 5.3886794, 52.086375099110448 ], [ 5.3887995, 52.08638739911045 ], [ 5.3891131, 52.086360799110444 ], [ 5.3893794, 52.086358199110443 ], [ 5.3894926, 52.086361399110437 ], [ 5.3895993, 52.086377999110454 ], [ 5.3897274, 52.086475199110446 ] ] } },
{ "type": "Feature", "properties": { "@id": "relation/2412070", "name": "   6-9   " }, "geometry": { "type": "LineString", "coordinates": [ [ 5.3787246, 52.122807699107739 ], [ 5.3794223, 52.122018699107791 ], [ 5.3794402, 52.121992999107796 ], [ 5.3800317, 52.121365299107843 ], [ 5.3803578, 52.121050899107864 ], [ 5.3806556, 52.12072939910788 ], [ 5.3807313, 52.120596299107895 ], [ 5.3810441, 52.120298799107921 ], [ 5.3813892, 52.120000999107951 ], [ 5.3815939, 52.120028799107928 ], [ 5.3821075, 52.12007429910792 ], [ 5.382465, 52.12006579910792 ], [ 5.3827989, 52.12013059910791 ], [ 5.3832441, 52.120174699107935 ], [ 5.3838176, 52.120195499107929 ], [ 5.3839878, 52.120202199107915 ], [ 5.384193, 52.120219499107925 ], [ 5.3842797, 52.120219499107925 ], [ 5.3843505, 52.120214399107915 ], [ 5.3843846, 52.120213899107917 ], [ 5.3844911, 52.120126699107928 ], [ 5.3845509, 52.12008029910794 ], [ 5.3852532, 52.11944039910798 ], [ 5.3855926, 52.11948029910797 ], [ 5.3856056, 52.119424399107984 ], [ 5.3856315, 52.119309099107994 ] ] } },
{ "type": "Feature", "properties": { "@id": "relation/2412138", "name": "   2-T   " }, "geometry": { "type": "LineString", "coordinates": [ [ 5.3757782, 52.12253569910775 ], [ 5.3753841, 52.123350599107695 ], [ 5.3745672, 52.125271399107547 ], [ 5.3732077, 52.128180199107341 ], [ 5.3725783, 52.129470999107241 ], [ 5.3725339, 52.129562099107247 ] ] } },
{ "type": "Feature", "properties": { "@id": "relation/2412061", "name": "   1-7   " }, "geometry": { "type": "LineString", "coordinates": [ [ 5.3685381, 52.121407099107834 ], [ 5.3696172, 52.121563299107819 ], [ 5.3698315, 52.120743299107865 ], [ 5.3699965, 52.120111899107918 ], [ 5.3700822, 52.119814399107945 ], [ 5.3699955, 52.119717099107937 ], [ 5.369859, 52.119680799107954 ], [ 5.3699097, 52.119575899107957 ], [ 5.3701702, 52.118777399108012 ], [ 5.3701708, 52.118708599108025 ] ] } },
{ "type": "Feature", "properties": { "@id": "relation/2412101", "name": "   27-28   " }, "geometry": { "type": "LineString", "coordinates": [ [ 5.3686084, 52.093246299109929 ], [ 5.368287, 52.093229099109919 ], [ 5.3682648, 52.093240399109909 ], [ 5.368213, 52.09320729910992 ], [ 5.3680828, 52.09312399910992 ], [ 5.3680699, 52.093115699109937 ], [ 5.3679642, 52.093179199109919 ], [ 5.3678326, 52.093123899109948 ], [ 5.3677708, 52.093100699109932 ], [ 5.3674126, 52.093041199109926 ], [ 5.3667536, 52.092466399109966 ], [ 5.3665517, 52.092356899109987 ], [ 5.3663829, 52.092287899109991 ], [ 5.3662367, 52.092170899109995 ], [ 5.3659634, 52.092013599110032 ], [ 5.3657635, 52.091921999110014 ] ] } },
{ "type": "Feature", "properties": { "@id": "relation/8513610", "name": "   56-60   " }, "geometry": { "type": "LineString", "coordinates": [ [ 5.3157146, 52.06226099911234 ], [ 5.3171149, 52.062650499112294 ], [ 5.3174781, 52.062670599112295 ], [ 5.3175907, 52.0627263991123 ], [ 5.3186258, 52.063532399112241 ], [ 5.3189163, 52.063858399112185 ], [ 5.3190325, 52.063943199112209 ], [ 5.3193815, 52.064144999112187 ], [ 5.320856, 52.063419399112227 ], [ 5.3209359, 52.063321099112258 ], [ 5.320939, 52.063183699112251 ], [ 5.3208432, 52.063128299112265 ], [ 5.3224977, 52.061401999112398 ], [ 5.3226008, 52.061291899112412 ] ] } },
{ "type": "Feature", "properties": { "@id": "relation/8513605", "name": "   72-73   " }, "geometry": { "type": "LineString", "coordinates": [ [ 5.3437321, 52.056287699112794 ], [ 5.3434559, 52.056433499112792 ], [ 5.3431348, 52.056596699112788 ], [ 5.3427668, 52.056777799112758 ], [ 5.3424644, 52.056926499112748 ], [ 5.3422558, 52.056998699112732 ], [ 5.3418607, 52.057191899112738 ], [ 5.3416357, 52.057295599112727 ], [ 5.3414156, 52.057400199112706 ] ] } },
{ "type": "Feature", "properties": { "@id": "relation/8513611", "name": "   59-60   " }, "geometry": { "type": "LineString", "coordinates": [ [ 5.3186311, 52.059290799112553 ], [ 5.3199294, 52.060057199112507 ], [ 5.3212906, 52.060890599112426 ], [ 5.32138, 52.060872199112438 ], [ 5.3215052, 52.060828999112424 ], [ 5.3220271, 52.060996599112428 ], [ 5.3226008, 52.061291899112412 ] ] } },
{ "type": "Feature", "properties": { "@id": "relation/2412142", "name": "   35-T   " }, "geometry": { "type": "LineString", "coordinates": [ [ 5.3763861, 52.084237399110599 ], [ 5.3769144, 52.08431799911061 ], [ 5.3782413, 52.084030999110652 ], [ 5.3785549, 52.083986599110645 ], [ 5.3794409, 52.083920699110642 ], [ 5.3797898, 52.083859199110655 ], [ 5.3801132, 52.083774399110666 ], [ 5.3805091, 52.083612199110661 ], [ 5.3807876, 52.083499099110675 ], [ 5.3810036, 52.083396399110683 ], [ 5.381127, 52.083397699110677 ], [ 5.3812431, 52.083428099110677 ], [ 5.3812814, 52.083281299110702 ], [ 5.3812862, 52.083242499110696 ], [ 5.3813, 52.083129999110689 ] ] } },
{ "type": "Feature", "properties": { "@id": "relation/2412090", "name": "   19-21   " }, "geometry": { "type": "LineString", "coordinates": [ [ 5.3689399, 52.108288499108795 ], [ 5.3669925, 52.109011999108752 ], [ 5.3659336, 52.109418699108716 ], [ 5.3640521, 52.11016789910866 ], [ 5.3632311, 52.11021169910866 ] ] } },
{ "type": "Feature", "properties": { "@id": "relation/2412079", "name": "   12-16   " }, "geometry": { "type": "LineString", "coordinates": [ [ 5.3802681, 52.108047299108804 ], [ 5.3801017, 52.108252899108798 ], [ 5.3800403, 52.108440099108769 ], [ 5.3800985, 52.108626099108768 ], [ 5.3801093, 52.108842399108745 ], [ 5.3800889, 52.108862699108755 ], [ 5.3800706, 52.108893599108761 ], [ 5.3800231, 52.108944199108755 ], [ 5.3798265, 52.109200799108713 ], [ 5.3795298, 52.109637099108696 ], [ 5.3794494, 52.109989299108669 ], [ 5.3795132, 52.110366499108629 ], [ 5.3796895, 52.110617599108608 ], [ 5.3799798, 52.110867699108596 ], [ 5.3799992, 52.110881899108605 ], [ 5.3805734, 52.111210699108582 ], [ 5.3807648, 52.111377299108568 ], [ 5.3808697, 52.111597599108563 ], [ 5.3809222, 52.11170769910855 ], [ 5.3809489, 52.112148099108509 ], [ 5.3811064, 52.112491799108483 ], [ 5.381494, 52.11289939910845 ], [ 5.381798, 52.113152599108432 ], [ 5.381826, 52.113186599108431 ], [ 5.38264, 52.113923099108369 ], [ 5.3826867, 52.11396349910838 ], [ 5.3832748, 52.114472099108362 ], [ 5.3833043, 52.114491499108325 ], [ 5.3833882, 52.114546899108319 ], [ 5.384273, 52.115131199108298 ] ] } },
{ "type": "Feature", "properties": { "@id": "relation/8513609", "name": "   60-61   " }, "geometry": { "type": "LineString", "coordinates": [ [ 5.3226008, 52.061291899112412 ], [ 5.322691, 52.061195499112415 ], [ 5.3229829, 52.06095719911243 ], [ 5.3232195, 52.060896499112438 ], [ 5.324234, 52.060962599112443 ], [ 5.3250205, 52.060997599112433 ], [ 5.3255295, 52.060956599112437 ], [ 5.3255805, 52.060765099112444 ], [ 5.3258932, 52.060307999112474 ], [ 5.3262164, 52.05922779911257 ], [ 5.3268436, 52.058483199112629 ], [ 5.3272334, 52.05833759911264 ], [ 5.3278067, 52.057996199112658 ], [ 5.3281583, 52.058267599112646 ], [ 5.3288708, 52.058452399112625 ], [ 5.329199, 52.058392499112628 ] ] } },
{ "type": "Feature", "properties": { "@id": "relation/8513602", "name": "   67-68   " }, "geometry": { "type": "LineString", "coordinates": [ [ 5.3270912, 52.046127299113614 ], [ 5.3293367, 52.047512799113505 ], [ 5.3302113, 52.048074199113465 ], [ 5.3304072, 52.04819999911345 ], [ 5.3320004, 52.049208499113362 ], [ 5.3333866, 52.0499613991133 ] ] } },
{ "type": "Feature", "properties": { "@id": "relation/8513965", "name": "   66-67   " }, "geometry": { "type": "LineString", "coordinates": [ [ 5.3242942, 52.047353199113516 ], [ 5.3251485, 52.047131499113533 ], [ 5.3256711, 52.046900999113554 ], [ 5.3261072, 52.046608399113587 ], [ 5.3270912, 52.046127299113614 ] ] } },
{ "type": "Feature", "properties": { "@id": "relation/2412122", "name": "   42-43   " }, "geometry": { "type": "LineString", "coordinates": [ [ 5.3376063, 52.088973399110252 ], [ 5.3377475, 52.088874099110249 ], [ 5.337845, 52.088788399110264 ], [ 5.3380582, 52.088529399110293 ], [ 5.3383495, 52.088378299110303 ], [ 5.3385415, 52.088336599110299 ], [ 5.3388061, 52.088288399110311 ], [ 5.3393905, 52.088160799110305 ], [ 5.3391307, 52.087791699110333 ], [ 5.3391021, 52.087738499110351 ], [ 5.3391489, 52.087629299110354 ], [ 5.3392202, 52.087535799110363 ], [ 5.3393314, 52.087518599110361 ], [ 5.3394488, 52.087535499110345 ], [ 5.339646, 52.087541599110374 ], [ 5.3401211, 52.087507799110348 ], [ 5.3405492, 52.087390299110375 ], [ 5.3417963, 52.087208899110387 ], [ 5.3422718, 52.087127999110379 ], [ 5.3427339, 52.087060999110399 ], [ 5.3439545, 52.086827099110408 ], [ 5.3446439, 52.086708999110421 ], [ 5.3448623, 52.086977999110402 ], [ 5.3450315, 52.087179899110382 ], [ 5.3453149, 52.08739659911037 ], [ 5.3453849, 52.087440799110368 ] ] } },
{ "type": "Feature", "properties": { "@id": "relation/2412085", "name": "   16-17   " }, "geometry": { "type": "LineString", "coordinates": [ [ 5.3802681, 52.108047299108804 ], [ 5.3788656, 52.107583899108853 ], [ 5.3771584, 52.107058999108858 ], [ 5.3767626, 52.106948599108911 ], [ 5.376649, 52.106916499108891 ], [ 5.3764236, 52.106830199108906 ], [ 5.3763515, 52.106763399108921 ], [ 5.3762218, 52.106657299108903 ], [ 5.3762057, 52.106569499108936 ], [ 5.3762368, 52.10645769910893 ], [ 5.3762677, 52.106355699108938 ], [ 5.3762669, 52.106178699108959 ], [ 5.3762861, 52.106042099108961 ], [ 5.3763227, 52.10595889910897 ], [ 5.3764453, 52.10573759910897 ], [ 5.3764909, 52.105614399108994 ] ] } },
{ "type": "Feature", "properties": { "@id": "relation/2412143", "name": "   47-T   " }, "geometry": { "type": "LineString", "coordinates": [ [ 5.3339481, 52.084965799110549 ], [ 5.3312445, 52.086119699110448 ], [ 5.3306303, 52.086383499110447 ] ] } },
{ "type": "Feature", "properties": { "@id": "relation/2412127", "name": "   46-47   " }, "geometry": { "type": "LineString", "coordinates": [ [ 5.3405089, 52.084335799110598 ], [ 5.3402672, 52.085103499110552 ], [ 5.3400507, 52.085832999110487 ], [ 5.3399675, 52.085833899110504 ], [ 5.3391356, 52.085795299110494 ], [ 5.338465, 52.085764199110507 ], [ 5.3380249, 52.085742999110501 ], [ 5.3377614, 52.085735699110501 ], [ 5.3369842, 52.085841899110505 ], [ 5.3356538, 52.086026399110473 ], [ 5.3354929, 52.086046199110484 ], [ 5.3353963, 52.086046199110484 ], [ 5.3352461, 52.085980299110496 ], [ 5.3351174, 52.085967099110491 ], [ 5.3348599, 52.085973699110482 ], [ 5.3339481, 52.084965799110549 ] ] } },
{ "type": "Feature", "properties": { "@id": "relation/2412100", "name": "   26-31   " }, "geometry": { "type": "LineString", "coordinates": [ [ 5.3718797, 52.092610499109966 ], [ 5.3717999, 52.092320399109987 ], [ 5.3718214, 52.091878199110006 ], [ 5.3718286, 52.091794099110047 ], [ 5.371886, 52.091169699110097 ] ] } },
{ "type": "Feature", "properties": { "@id": "relation/2412123", "name": "   43-44   " }, "geometry": { "type": "LineString", "coordinates": [ [ 5.3453849, 52.087440799110368 ], [ 5.3457287, 52.087384999110377 ], [ 5.3461384, 52.087318499110374 ], [ 5.3460394, 52.087017799110399 ], [ 5.3457393, 52.086198899110478 ], [ 5.3464372, 52.086115699110472 ], [ 5.3471081, 52.086050999110476 ], [ 5.3486021, 52.086038799110469 ], [ 5.3486806, 52.086038099110482 ], [ 5.3510805, 52.085963299110468 ], [ 5.3522272, 52.085927599110491 ], [ 5.3536997, 52.085873199110495 ], [ 5.3540377, 52.085850099110495 ], [ 5.3539277, 52.085616099110517 ] ] } },
{ "type": "Feature", "properties": { "@id": "relation/2412116", "name": "   39-40   " }, "geometry": { "type": "LineString", "coordinates": [ [ 5.3485151, 52.093085399109931 ], [ 5.3481759, 52.093131199109941 ], [ 5.3476373, 52.093203899109938 ], [ 5.3475829, 52.093211199109923 ], [ 5.3458804, 52.093411499109905 ], [ 5.3436825, 52.093289099109917 ], [ 5.343628, 52.093279199109922 ], [ 5.3435191, 52.093279199109922 ], [ 5.3429944, 52.09324949910993 ], [ 5.3424899, 52.093208599109936 ], [ 5.3421357, 52.093177999109933 ], [ 5.3418704, 52.093162499109944 ], [ 5.3397882, 52.093040599109941 ], [ 5.3397308, 52.093037199109929 ], [ 5.3394448, 52.093020199109944 ], [ 5.3392293, 52.093007299109935 ], [ 5.3382998, 52.092951999109957 ], [ 5.3381805, 52.092944899109945 ] ] } },
{ "type": "Feature", "properties": { "@id": "relation/2412096", "name": "   25-26   " }, "geometry": { "type": "LineString", "coordinates": [ [ 5.3769526, 52.096084099109703 ], [ 5.3780247, 52.095958899109718 ], [ 5.3794035, 52.095802899109714 ], [ 5.3790525, 52.094179699109858 ], [ 5.3788534, 52.093437099109913 ], [ 5.3787573, 52.093023499109918 ], [ 5.3786471, 52.092968099109939 ], [ 5.3785801, 52.092944999109953 ], [ 5.3784151, 52.092944199109958 ], [ 5.3782596, 52.09292769910995 ], [ 5.3781402, 52.092907899109946 ], [ 5.3780329, 52.092877499109967 ], [ 5.3779726, 52.092871699109949 ], [ 5.3778827, 52.09285439910996 ], [ 5.3777647, 52.092859699109951 ], [ 5.3776936, 52.092860999109952 ], [ 5.3776467, 52.092859299109961 ], [ 5.3775783, 52.092830899109956 ], [ 5.3771827, 52.092641799109984 ], [ 5.3770982, 52.09261709910998 ], [ 5.3769949, 52.092602699109982 ], [ 5.3768923, 52.092551199109955 ], [ 5.3768507, 52.092496799110009 ], [ 5.3768266, 52.092412699109978 ], [ 5.3768058, 52.092381599110006 ], [ 5.3766169, 52.092388999109986 ], [ 5.376422, 52.092402399109986 ], [ 5.375998, 52.092458699109983 ], [ 5.3757016, 52.092566799109974 ], [ 5.3756286, 52.092603699109965 ], [ 5.3755458, 52.092627999109965 ], [ 5.3753303, 52.092613499109966 ], [ 5.3746903, 52.092483299109972 ], [ 5.374467, 52.09241609910999 ], [ 5.3741641, 52.092381299109988 ], [ 5.3737523, 52.092378099109986 ], [ 5.3728755, 52.092447999109993 ], [ 5.3723181, 52.092497499109975 ], [ 5.3718797, 52.092610499109966 ] ] } },
{ "type": "Feature", "properties": { "@id": "relation/8513606", "name": "   73-74   " }, "geometry": { "type": "LineString", "coordinates": [ [ 5.3400547, 52.056540399112784 ], [ 5.3406365, 52.056908999112757 ], [ 5.3414156, 52.057400199112706 ] ] } },
{ "type": "Feature", "properties": { "@id": "relation/2412097", "name": "   25-27   " }, "geometry": { "type": "LineString", "coordinates": [ [ 5.3769526, 52.096084099109703 ], [ 5.3759771, 52.096199399109693 ], [ 5.3730767, 52.096497699109676 ], [ 5.3729642, 52.096515999109684 ], [ 5.3728148, 52.096488599109676 ], [ 5.3726818, 52.096388399109685 ], [ 5.3724828, 52.096171699109711 ], [ 5.3723516, 52.096087099109695 ], [ 5.3722785, 52.096009599109721 ], [ 5.3722083, 52.095897599109719 ], [ 5.3719299, 52.095635899109737 ], [ 5.3710575, 52.094816699109813 ], [ 5.3705408, 52.094463299109847 ], [ 5.3703697, 52.094353699109838 ], [ 5.3691067, 52.093577799109894 ], [ 5.3687655, 52.093361199109907 ], [ 5.3686084, 52.093246299109929 ] ] } },
{ "type": "Feature", "properties": { "@id": "relation/2412072", "name": "   7-20   " }, "geometry": { "type": "LineString", "coordinates": [ [ 5.3701708, 52.118708599108025 ], [ 5.3702648, 52.118434799108059 ], [ 5.3703393, 52.118250999108049 ], [ 5.3703628, 52.118137999108079 ], [ 5.3704976, 52.117951599108075 ], [ 5.3705626, 52.117875199108084 ], [ 5.3705791, 52.117822099108082 ], [ 5.3694427, 52.117700399108116 ] ] } },
{ "type": "Feature", "properties": { "@id": "relation/8513614", "name": "   56-57   " }, "geometry": { "type": "LineString", "coordinates": [ [ 5.3157146, 52.06226099911234 ], [ 5.3154101, 52.062153199112345 ], [ 5.3152046, 52.06202749911234 ], [ 5.3149093, 52.061867099112362 ], [ 5.3146691, 52.061616599112376 ], [ 5.314586, 52.061274399112385 ], [ 5.3146724, 52.060985699112443 ], [ 5.3146081, 52.060753999112436 ], [ 5.3144749, 52.060478199112467 ], [ 5.3144446, 52.060433999112462 ], [ 5.3145063, 52.060279599112491 ], [ 5.3142232, 52.060138899112488 ], [ 5.3139148, 52.059949699112508 ], [ 5.3137901, 52.059865399112525 ], [ 5.313337, 52.059651499112526 ] ] } },
{ "type": "Feature", "properties": { "@id": "relation/8513613", "name": "   57-59   " }, "geometry": { "type": "LineString", "coordinates": [ [ 5.313337, 52.059651499112526 ], [ 5.312061, 52.058633399112608 ], [ 5.3118801, 52.058488999112626 ], [ 5.311907, 52.058387699112636 ], [ 5.3119651, 52.058289899112644 ], [ 5.3121381, 52.058108599112671 ], [ 5.3125471, 52.058114999112654 ], [ 5.3129552, 52.058139499112656 ], [ 5.313786, 52.05816659911266 ], [ 5.3141909, 52.058123499112646 ], [ 5.3144297, 52.058074799112667 ], [ 5.3145287, 52.058073599112667 ], [ 5.3146679, 52.058103499112654 ], [ 5.3146259, 52.057741099112675 ], [ 5.3144814, 52.057248399112709 ], [ 5.3143763, 52.056977699112743 ], [ 5.3145403, 52.056761699112762 ], [ 5.3155014, 52.057370299112719 ], [ 5.3162223, 52.057843499112671 ], [ 5.3186311, 52.059290799112553 ] ] } },
{ "type": "Feature", "properties": { "@id": "relation/2412091", "name": "   21-22   " }, "geometry": { "type": "LineString", "coordinates": [ [ 5.3632311, 52.11021169910866 ], [ 5.3636248, 52.108866999108756 ], [ 5.3640064, 52.107585399108842 ], [ 5.3641326, 52.107136399108903 ], [ 5.3643275, 52.106443299108932 ], [ 5.364859, 52.104562199109075 ] ] } },
{ "type": "Feature", "properties": { "@id": "relation/21424192", "name": "   34-T   " }, "geometry": { "type": "LineString", "coordinates": [ [ 5.3209501, 52.073390899111459 ], [ 5.3210152, 52.073378499111456 ], [ 5.3213947, 52.07308539911147 ], [ 5.3219964, 52.072639099111498 ], [ 5.3220492, 52.072599899111523 ], [ 5.3223487, 52.072221499111535 ], [ 5.3228006, 52.071679999111595 ] ] } },
{ "type": "Feature", "properties": { "@id": "relation/8513961", "name": "   63-64   " }, "geometry": { "type": "LineString", "coordinates": [ [ 5.3295422, 52.056036899112819 ], [ 5.329388, 52.055959799112834 ], [ 5.3284591, 52.055495199112862 ], [ 5.3282939, 52.055409799112873 ], [ 5.3297203, 52.053886299112996 ], [ 5.329674, 52.053868699113004 ], [ 5.3287643, 52.053179399113063 ] ] } },
{ "type": "Feature", "properties": { "@id": "relation/2412130", "name": "   48-49   " }, "geometry": { "type": "LineString", "coordinates": [ [ 5.3267256, 52.078273599111071 ], [ 5.3292702, 52.080244299110923 ], [ 5.3295491, 52.080422399110915 ] ] } },
{ "type": "Feature", "properties": { "@id": "relation/2412137", "name": "   1-T   " }, "geometry": { "type": "LineString", "coordinates": [ [ 5.3685381, 52.121407099107834 ], [ 5.3682148, 52.122226599107769 ], [ 5.3679358, 52.122900799107725 ], [ 5.367789, 52.123344299107693 ], [ 5.3676601, 52.123749699107663 ], [ 5.3675992, 52.123961599107638 ], [ 5.3674316, 52.124544999107592 ], [ 5.367198, 52.125482099107536 ], [ 5.3671425, 52.125673799107503 ], [ 5.3670739, 52.125910499107505 ], [ 5.3670664, 52.125936499107496 ], [ 5.3675483, 52.126073799107502 ], [ 5.3689542, 52.126467199107459 ], [ 5.3708139, 52.127014299107415 ], [ 5.3711425, 52.127161999107408 ], [ 5.3718798, 52.127435199107381 ], [ 5.3721857, 52.12757589910737 ], [ 5.372454, 52.127720699107371 ], [ 5.3728782, 52.127976699107364 ], [ 5.3732077, 52.128180199107341 ], [ 5.3725783, 52.129470999107241 ], [ 5.3725339, 52.129562099107247 ] ] } },
{ "type": "Feature", "properties": { "@id": "relation/2412094", "name": "   23-29   " }, "geometry": { "type": "LineString", "coordinates": [ [ 5.3643874, 52.092074499110012 ], [ 5.3644649, 52.092374599109988 ], [ 5.3641856, 52.092415999109981 ], [ 5.3641444, 52.092507499109971 ], [ 5.3641136, 52.092571799109976 ], [ 5.3641699, 52.092720099109961 ], [ 5.3642075, 52.092801699109977 ], [ 5.3643161, 52.093050499109928 ], [ 5.3643818, 52.093205399109941 ], [ 5.3644019, 52.09330759910992 ], [ 5.3644314, 52.093571199109888 ], [ 5.3645146, 52.093790399109899 ], [ 5.364587, 52.09399799910986 ], [ 5.3646815, 52.09408869910984 ], [ 5.3646858, 52.094100699109866 ], [ 5.364963, 52.095004599109785 ], [ 5.3650243, 52.095323899109765 ], [ 5.3650833, 52.095315499109759 ], [ 5.3651604, 52.095895599109731 ], [ 5.3652636, 52.09687609910965 ], [ 5.3647708, 52.097281399109626 ], [ 5.3645531, 52.0974803991096 ], [ 5.3643269, 52.097621199109582 ], [ 5.3641496, 52.097738299109587 ], [ 5.3640887, 52.097782199109581 ], [ 5.364059, 52.097957699109564 ], [ 5.3639577, 52.098056499109553 ], [ 5.3638029, 52.098189999109536 ], [ 5.3636879, 52.09827609910954 ], [ 5.3637301, 52.098788399109502 ], [ 5.363787, 52.099676099109438 ], [ 5.3638209, 52.100205399109385 ], [ 5.3638607, 52.101224899109312 ], [ 5.3640306, 52.101198199109312 ], [ 5.36476, 52.101083699109317 ] ] } },
{ "type": "Feature", "properties": { "@id": "relation/2412083", "name": "   15-17   " }, "geometry": { "type": "LineString", "coordinates": [ [ 5.3764909, 52.105614399108994 ], [ 5.37657, 52.105593299108996 ], [ 5.3774281, 52.105353799109011 ], [ 5.3780755, 52.104972799109042 ], [ 5.3782377, 52.104877199109048 ], [ 5.3788524, 52.104515599109085 ], [ 5.3790425, 52.104386599109077 ], [ 5.3793205, 52.104252399109093 ], [ 5.3798085, 52.104137399109085 ], [ 5.3803673, 52.104046899109107 ], [ 5.3805003, 52.10402089910913 ], [ 5.3807873, 52.10394399910912 ], [ 5.3812129, 52.103706499109123 ], [ 5.3814635, 52.10374359910913 ], [ 5.3819382, 52.103687599109143 ], [ 5.3824611, 52.103510299109161 ], [ 5.3827094, 52.103426099109136 ], [ 5.3828019, 52.103376699109177 ], [ 5.3828555, 52.103345399109173 ], [ 5.3829038, 52.103307499109171 ], [ 5.3831541, 52.103180799109182 ], [ 5.3832894, 52.103109999109172 ], [ 5.3834414, 52.103066799109186 ] ] } },
{ "type": "Feature", "properties": { "@id": "relation/2412119", "name": "   40-42   " }, "geometry": { "type": "LineString", "coordinates": [ [ 5.3376063, 52.088973399110252 ], [ 5.3373919, 52.090380699110142 ], [ 5.3372846, 52.090957499110104 ], [ 5.3374777, 52.091722099110044 ], [ 5.3375099, 52.091870399110043 ], [ 5.3374938, 52.091982499110038 ], [ 5.3374348, 52.092114299110015 ], [ 5.33788, 52.092153899110009 ], [ 5.3379873, 52.092193399110002 ], [ 5.338041, 52.09224949910999 ], [ 5.3381505, 52.092802499109951 ], [ 5.3381805, 52.092944899109945 ] ] } },
{ "type": "Feature", "properties": { "@id": "relation/2412082", "name": "   15-16   " }, "geometry": { "type": "LineString", "coordinates": [ [ 5.3834414, 52.103066799109186 ], [ 5.3834837, 52.103115399109178 ], [ 5.3836343, 52.103699499109126 ], [ 5.3836509, 52.103764099109128 ], [ 5.3836578, 52.103862899109146 ], [ 5.3837954, 52.10583429910897 ], [ 5.3837916, 52.105954999108967 ], [ 5.3837501, 52.106088599108951 ], [ 5.3835029, 52.106366599108952 ], [ 5.3831338, 52.106536799108937 ], [ 5.3826832, 52.106613599108933 ], [ 5.3818536, 52.106705099108922 ], [ 5.3816006, 52.1067317991089 ], [ 5.3815103, 52.106860999108918 ], [ 5.3814092, 52.107005599108902 ], [ 5.3812009, 52.107444599108867 ], [ 5.3810603, 52.107562199108841 ], [ 5.3809487, 52.107607399108851 ], [ 5.3808608, 52.10764299910884 ], [ 5.3808326, 52.107654399108839 ], [ 5.3806436, 52.107703499108837 ], [ 5.3802681, 52.108047299108804 ] ] } },
{ "type": "Feature", "properties": { "@id": "relation/8513601", "name": "   68-69   " }, "geometry": { "type": "LineString", "coordinates": [ [ 5.3333866, 52.0499613991133 ], [ 5.3331682, 52.050010899113325 ], [ 5.3326564, 52.050046399113306 ], [ 5.3321878, 52.050110699113276 ], [ 5.3318634, 52.05022599911328 ], [ 5.3317336, 52.050334599113292 ], [ 5.3304052, 52.051605899113177 ] ] } },
{ "type": "Feature", "properties": { "@id": "relation/2412112", "name": "   36-37   " }, "geometry": { "type": "LineString", "coordinates": [ [ 5.3698003, 52.084289699110606 ], [ 5.3695198, 52.084301999110622 ], [ 5.3691963, 52.084186299110598 ], [ 5.3689966, 52.084206199110625 ], [ 5.3687716, 52.084224899110609 ], [ 5.3683627, 52.084162999110632 ], [ 5.3680217, 52.084078799110628 ], [ 5.3677273, 52.084042999110636 ], [ 5.3673602, 52.08409289911063 ], [ 5.3672665, 52.084311699110607 ], [ 5.3671136, 52.084483899110595 ], [ 5.3668039, 52.084704699110588 ], [ 5.3667073, 52.08487859911056 ], [ 5.366706, 52.08496189911056 ], [ 5.3663017, 52.085004199110564 ], [ 5.3622044, 52.085170999110552 ] ] } },
{ "type": "Feature", "properties": { "@id": "relation/2412099", "name": "   26-27   " }, "geometry": { "type": "LineString", "coordinates": [ [ 5.3686084, 52.093246299109929 ], [ 5.3688037, 52.093242099109922 ], [ 5.3693891, 52.093227299109927 ], [ 5.3695538, 52.093206899109937 ], [ 5.369665, 52.093177499109927 ], [ 5.3701904, 52.092999699109946 ], [ 5.3707442, 52.092870699109966 ], [ 5.371347, 52.092743799109932 ], [ 5.3718797, 52.092610499109966 ] ] } },
{ "type": "Feature", "properties": { "@id": "relation/2412093", "name": "   23-24   " }, "geometry": { "type": "LineString", "coordinates": [ [ 5.3777242, 52.0989918991095 ], [ 5.37622, 52.099210999109481 ], [ 5.3761151, 52.099225599109481 ], [ 5.3760406, 52.099209399109476 ], [ 5.3759642, 52.09919269910948 ], [ 5.3758536, 52.099217199109461 ], [ 5.3756199, 52.099257799109473 ], [ 5.3752757, 52.099301199109455 ], [ 5.3745073, 52.099371899109464 ], [ 5.3740966, 52.099400399109463 ], [ 5.3734425, 52.099398599109456 ], [ 5.3732097, 52.099383899109462 ], [ 5.3729125, 52.09936509910947 ], [ 5.3727005, 52.099435799109472 ], [ 5.3731033, 52.100192899109395 ], [ 5.3718381, 52.100328499109388 ], [ 5.3717786, 52.100334799109383 ], [ 5.3713498, 52.100380799109381 ], [ 5.3699178, 52.100553799109363 ], [ 5.3690027, 52.100667299109368 ], [ 5.3688352, 52.100682599109362 ], [ 5.3681837, 52.100742099109368 ], [ 5.3680352, 52.100755599109348 ], [ 5.3668116, 52.100867299109332 ], [ 5.3664951, 52.100896199109343 ], [ 5.3661537, 52.100933099109341 ], [ 5.365816, 52.100969599109348 ], [ 5.36476, 52.101083699109317 ] ] } },
{ "type": "Feature", "properties": { "@id": "relation/2412110", "name": "   34-35   " }, "geometry": { "type": "LineString", "coordinates": [ [ 5.3808607, 52.085659199110495 ], [ 5.3801146, 52.085672499110501 ], [ 5.3797487, 52.085658699110517 ], [ 5.3793982, 52.085587199110499 ], [ 5.378977, 52.085425899110511 ], [ 5.3782216, 52.085279999110533 ], [ 5.3780797, 52.085118999110556 ], [ 5.3780272, 52.085006299110553 ], [ 5.378005, 52.084768699110583 ], [ 5.3775741, 52.084782799110585 ], [ 5.3773354, 52.084834899110561 ], [ 5.3769556, 52.084845099110566 ], [ 5.3768792, 52.084788799110569 ], [ 5.3767333, 52.084716899110575 ], [ 5.3766685, 52.084603499110578 ], [ 5.3766582, 52.084509099110591 ], [ 5.3767095, 52.084423499110599 ], [ 5.3769144, 52.08431799911061 ] ] } },
{ "type": "Feature", "properties": { "@id": "relation/2412107", "name": "   32-33   " }, "geometry": { "type": "LineString", "coordinates": [ [ 5.3712662, 52.088836299110255 ], [ 5.3721626, 52.088715099110274 ], [ 5.3723753, 52.088233099110305 ], [ 5.3724747, 52.088239299110313 ], [ 5.3730764, 52.088123699110305 ], [ 5.3731418, 52.088116799110317 ], [ 5.3735113, 52.088050299110336 ], [ 5.3737613, 52.087983199110333 ], [ 5.3741532, 52.087897099110343 ], [ 5.3743301, 52.087896999110342 ], [ 5.3750016, 52.088195699110315 ], [ 5.3753289, 52.088339199110294 ], [ 5.3758477, 52.088513799110281 ], [ 5.3760903, 52.088748999110273 ], [ 5.3763052, 52.088972599110249 ], [ 5.3764802, 52.089160099110231 ], [ 5.3766871, 52.089111799110249 ], [ 5.3782521, 52.088959599110261 ], [ 5.378937, 52.088832699110256 ], [ 5.3792959, 52.088714099110263 ], [ 5.3793581, 52.088693599110258 ], [ 5.3801384, 52.088404899110287 ], [ 5.3803312, 52.0883335991103 ], [ 5.3804345, 52.088269499110297 ] ] } },
{ "type": "Feature", "properties": { "@id": "relation/8513604", "name": "   70-72   " }, "geometry": { "type": "LineString", "coordinates": [ [ 5.3368941, 52.05213449911313 ], [ 5.3370344, 52.052218799113142 ], [ 5.3371356, 52.052279699113114 ], [ 5.3383827, 52.053029899113056 ], [ 5.3392009, 52.053541899113029 ], [ 5.3397023, 52.053819699112992 ], [ 5.3408193, 52.054482999112963 ], [ 5.3416564, 52.054979999112909 ], [ 5.3434519, 52.056112899112804 ], [ 5.3437321, 52.056287699112794 ] ] } },
{ "type": "Feature", "properties": { "@id": "relation/2412120", "name": "   41-42   " }, "geometry": { "type": "LineString", "coordinates": [ [ 5.3307497, 52.087923199110321 ], [ 5.3318013, 52.087685499110357 ], [ 5.3332957, 52.087659699110368 ], [ 5.3335588, 52.087673199110348 ], [ 5.3337307, 52.087669099110343 ], [ 5.3337814, 52.087668899110362 ], [ 5.3338084, 52.087831299110327 ], [ 5.3338771, 52.088056599110338 ], [ 5.3339136, 52.088176199110329 ], [ 5.3340313, 52.088616599110281 ], [ 5.3349275, 52.088727099110258 ], [ 5.3350711, 52.088770799110264 ], [ 5.3355115, 52.088932199110261 ], [ 5.3363075, 52.089229399110231 ], [ 5.3367826, 52.089394099110208 ], [ 5.3369422, 52.089377499110206 ], [ 5.3371577, 52.089238799110227 ], [ 5.3376063, 52.088973399110252 ] ] } },
{ "type": "Feature", "properties": { "@id": "relation/2412103", "name": "   28-30   " }, "geometry": { "type": "LineString", "coordinates": [ [ 5.3678034, 52.091580099110047 ], [ 5.3673492, 52.091648199110061 ], [ 5.3671936, 52.091653999110044 ], [ 5.367129, 52.091659699110053 ], [ 5.3670493, 52.091673099110054 ], [ 5.3669243, 52.091693899110034 ], [ 5.3667465, 52.091718599110045 ], [ 5.3666022, 52.091733299110047 ], [ 5.3664593, 52.091740899110036 ], [ 5.3662456, 52.091741999110049 ], [ 5.3661033, 52.091754999110044 ], [ 5.365982, 52.091804599110063 ], [ 5.3658712, 52.091875899110015 ], [ 5.3658349, 52.091893899110048 ], [ 5.3657635, 52.091921999110014 ] ] } },
{ "type": "Feature", "properties": { "@id": "relation/2412071", "name": "   7-8   " }, "geometry": { "type": "LineString", "coordinates": [ [ 5.3701708, 52.118708599108025 ], [ 5.3726239, 52.118955199108015 ], [ 5.3733741, 52.119016299108011 ], [ 5.3743588, 52.119113599107997 ], [ 5.375038, 52.119196999107999 ], [ 5.3752228, 52.11920169910799 ], [ 5.3768816, 52.119357199107974 ], [ 5.3773194, 52.119398299107964 ] ] } },
{ "type": "Feature", "properties": { "@id": "relation/2412067", "name": "   4-8   " }, "geometry": { "type": "LineString", "coordinates": [ [ 5.3761394, 52.121852399107802 ], [ 5.3765522, 52.121031499107843 ], [ 5.3766566, 52.120809199107882 ], [ 5.3767718, 52.120563799107906 ], [ 5.3773194, 52.119398299107964 ] ] } },
{ "type": "Feature", "properties": { "@id": "relation/8513608", "name": "   61-62   " }, "geometry": { "type": "LineString", "coordinates": [ [ 5.3319084, 52.057231599112718 ], [ 5.331704, 52.057341299112721 ], [ 5.3313046, 52.057461099112707 ], [ 5.3311571, 52.057505399112721 ], [ 5.3303256, 52.057869399112676 ], [ 5.329199, 52.058392499112628 ] ] } },
{ "type": "Feature", "properties": { "@id": "relation/2412126", "name": "   45-52   " }, "geometry": { "type": "LineString", "coordinates": [ [ 5.3532116, 52.083949699110647 ], [ 5.3532116, 52.083844199110651 ], [ 5.353174, 52.083748599110642 ], [ 5.3532545, 52.083709099110649 ], [ 5.3535602, 52.083709099110649 ], [ 5.3539787, 52.083689299110674 ], [ 5.3551803, 52.083573899110654 ], [ 5.3561655, 52.083471599110666 ], [ 5.3563668, 52.083417699110683 ], [ 5.356493, 52.083343999110681 ], [ 5.3566514, 52.083308199110689 ], [ 5.3567777, 52.083337599110692 ], [ 5.3568998, 52.083408799110671 ], [ 5.3572342, 52.083487199110678 ], [ 5.3576666, 52.083551299110681 ], [ 5.3578882, 52.083566299110679 ], [ 5.3584702, 52.083479299110678 ], [ 5.3584084, 52.083222399110696 ], [ 5.3583401, 52.082951999110705 ], [ 5.3580404, 52.082849899110705 ], [ 5.3579382, 52.08278619911075 ], [ 5.3562173, 52.081409499110833 ], [ 5.3560709, 52.081274199110823 ], [ 5.3564187, 52.081204899110844 ], [ 5.356645, 52.081169199110846 ], [ 5.3567685, 52.081111899110844 ], [ 5.3568703, 52.081037299110868 ], [ 5.3569756, 52.080940199110884 ], [ 5.3570939, 52.08080399911087 ], [ 5.3572969, 52.080640899110882 ], [ 5.3573905, 52.080601699110893 ], [ 5.3571022, 52.079829999110956 ], [ 5.3570923, 52.079691999110956 ], [ 5.3571197, 52.079585199110959 ], [ 5.3571011, 52.079373399110992 ], [ 5.3571439, 52.079229199110998 ], [ 5.3571698, 52.079179399111005 ] ] } },
{ "type": "Feature", "properties": { "@id": "relation/8513960", "name": "   62-63   " }, "geometry": { "type": "LineString", "coordinates": [ [ 5.3319084, 52.057231599112718 ], [ 5.33097, 52.056790499112751 ], [ 5.330902, 52.056758499112775 ], [ 5.3300431, 52.056305599112797 ], [ 5.3295422, 52.056036899112819 ] ] } },
{ "type": "Feature", "properties": { "@id": "relation/2412098", "name": "   25-T   " }, "geometry": { "type": "LineString", "coordinates": [ [ 5.3769526, 52.096084099109703 ], [ 5.3780247, 52.095958899109718 ], [ 5.3794035, 52.095802899109714 ], [ 5.3799757, 52.095734499109732 ], [ 5.3819536, 52.095497999109753 ], [ 5.3823201, 52.094778199109811 ], [ 5.382496, 52.094554399109832 ], [ 5.3837816, 52.094456599109826 ], [ 5.3858755, 52.094312599109855 ], [ 5.3868879, 52.093568599109915 ], [ 5.3870996, 52.093558699109899 ], [ 5.3887507, 52.0934724991099 ] ] } },
{ "type": "Feature", "properties": { "@id": "relation/2412073", "name": "   8-9   " }, "geometry": { "type": "LineString", "coordinates": [ [ 5.3773194, 52.119398299107964 ], [ 5.3775989, 52.118802399108006 ], [ 5.3777441, 52.118599599108038 ], [ 5.3778435, 52.118577499108042 ], [ 5.3778721, 52.118556899108029 ], [ 5.3778959, 52.118530499108047 ], [ 5.3779828, 52.118510699108022 ], [ 5.3781739, 52.118501099108038 ], [ 5.3782022, 52.118499699108035 ], [ 5.3802557, 52.118688599108047 ], [ 5.3823764, 52.118949699108015 ], [ 5.3828972, 52.119000899108002 ], [ 5.3834825, 52.119052499108015 ], [ 5.385379, 52.119287599107999 ], [ 5.3856315, 52.119309099107994 ] ] } },
{ "type": "Feature", "properties": { "@id": "relation/2412064", "name": "   3-5   " }, "geometry": { "type": "LineString", "coordinates": [ [ 5.3774683, 52.124193999107632 ], [ 5.3775828, 52.124369799107619 ], [ 5.3786163, 52.125543199107518 ], [ 5.3787527, 52.125648999107518 ], [ 5.3790572, 52.125872099107518 ], [ 5.3793235, 52.1260699991075 ], [ 5.3795832, 52.126235899107456 ], [ 5.3798905, 52.126388299107475 ], [ 5.3803884, 52.126584299107456 ], [ 5.3807184, 52.126717299107447 ], [ 5.381973, 52.127126899107424 ], [ 5.3823765, 52.127259199107428 ], [ 5.3826765, 52.127358299107399 ], [ 5.3833484, 52.127630699107378 ], [ 5.3856869, 52.128528799107308 ], [ 5.3860646, 52.128704699107288 ], [ 5.3864172, 52.128856499107293 ], [ 5.3870451, 52.12920689910726 ], [ 5.3873279, 52.129430599107259 ], [ 5.3876753, 52.129662199107237 ], [ 5.3880093, 52.12985469910722 ], [ 5.3881199, 52.129916599107219 ], [ 5.3881285, 52.129940699107202 ], [ 5.3881394, 52.129971099107209 ], [ 5.3883281, 52.130142999107207 ], [ 5.3884258, 52.130337499107185 ], [ 5.3886016, 52.13033529910718 ], [ 5.3888312, 52.130331199107189 ], [ 5.389509, 52.13029819910718 ], [ 5.3902734, 52.13025319910718 ], [ 5.3903014, 52.130251199107185 ], [ 5.3908702, 52.130209899107172 ] ] } },
{ "type": "Feature", "properties": { "@id": "relation/2412087", "name": "   18-19   " }, "geometry": { "type": "LineString", "coordinates": [ [ 5.3716617, 52.107306999108864 ], [ 5.3701876, 52.107838399108829 ], [ 5.3689399, 52.108288499108795 ] ] } },
{ "type": "Feature", "properties": { "@id": "relation/2412087", "name": "   18-19   " }, "geometry": { "type": "LineString", "coordinates": [ [ 5.3748034, 52.106133599108951 ], [ 5.373592, 52.106579099108927 ], [ 5.3720389, 52.107139299108887 ], [ 5.3720185, 52.107229499108882 ], [ 5.3720318, 52.107292199108898 ], [ 5.371837, 52.107346999108863 ], [ 5.3716617, 52.107306999108864 ], [ 5.3716164, 52.10723479910888 ], [ 5.3716842, 52.107158799108902 ], [ 5.3718577, 52.107085999108882 ], [ 5.3720389, 52.107139299108887 ] ] } },
{ "type": "Feature", "properties": { "@id": "relation/2412065", "name": "   3-6   " }, "geometry": { "type": "LineString", "coordinates": [ [ 5.3787246, 52.122807699107739 ], [ 5.3774683, 52.124193999107632 ] ] } },
{ "type": "Feature", "properties": { "@id": "relation/2412134", "name": "   50-51   " }, "geometry": { "type": "LineString", "coordinates": [ [ 5.3382073, 52.076142999111248 ], [ 5.3389549, 52.075780199111264 ], [ 5.3420786, 52.074264399111364 ], [ 5.3423464, 52.074123199111405 ], [ 5.3432611, 52.07364949911144 ], [ 5.3437053, 52.073432799111451 ], [ 5.3438719, 52.073414499111465 ], [ 5.3440739, 52.073456199111448 ], [ 5.3442666, 52.073554299111443 ], [ 5.3443391, 52.073539099111429 ], [ 5.3444346, 52.07351809911146 ], [ 5.3445711, 52.073486399111431 ], [ 5.3446106, 52.073382599111447 ], [ 5.344624, 52.073316599111465 ], [ 5.3446221, 52.07321929911145 ], [ 5.3445667, 52.07308599911147 ], [ 5.3446428, 52.072998299111475 ], [ 5.344806, 52.072902599111472 ], [ 5.345646, 52.072569999111522 ], [ 5.3460893, 52.072347599111538 ], [ 5.3467707, 52.072019499111555 ], [ 5.3466732, 52.071483799111611 ], [ 5.3466802, 52.070928499111645 ], [ 5.3466548, 52.070847399111649 ], [ 5.3466409, 52.070841899111649 ], [ 5.3465934, 52.070822999111641 ], [ 5.3464486, 52.070755099111672 ], [ 5.3462186, 52.070639899111661 ], [ 5.3459302, 52.070452699111684 ], [ 5.345662, 52.070248299111711 ], [ 5.3453988, 52.070037199111717 ], [ 5.3452535, 52.069785099111726 ], [ 5.3452061, 52.069449799111759 ], [ 5.3452311, 52.069294499111784 ], [ 5.3455177, 52.069215599111779 ], [ 5.3458433, 52.06912609911177 ], [ 5.346085, 52.069061999111781 ], [ 5.3463527, 52.068993199111809 ], [ 5.3466099, 52.068995499111786 ], [ 5.3469643, 52.069017599111788 ], [ 5.3472668, 52.069104699111797 ], [ 5.3474752, 52.069227199111772 ], [ 5.3476251, 52.069366799111776 ], [ 5.3477639, 52.06943349911176 ], [ 5.3479518, 52.069475499111782 ], [ 5.3483286, 52.069513099111752 ], [ 5.3487937, 52.06944139911176 ], [ 5.3491, 52.069350799111781 ], [ 5.3494278, 52.069258999111788 ], [ 5.3497328, 52.069196899111788 ], [ 5.350003, 52.069203399111785 ], [ 5.3502765, 52.069234199111769 ], [ 5.3506052, 52.069283999111782 ], [ 5.3509926, 52.069289699111764 ], [ 5.351228, 52.069241899111795 ], [ 5.3514196, 52.069097299111796 ], [ 5.3515052, 52.068917599111799 ], [ 5.3515201, 52.06871239911181 ], [ 5.3516447, 52.06863789911182 ], [ 5.3520021, 52.068540499111826 ], [ 5.3523288, 52.068496299111835 ], [ 5.3526042, 52.068458699111837 ], [ 5.3527035, 52.068466099111845 ], [ 5.3527907, 52.06849829911183 ], [ 5.3528982, 52.068562399111833 ], [ 5.3529114, 52.068641699111822 ], [ 5.3528711, 52.068935199111806 ], [ 5.3528638, 52.06897809911181 ], [ 5.352792, 52.069068299111791 ] ] } },
{ "type": "Feature", "properties": { "@id": "relation/2412135", "name": "   51-52   " }, "geometry": { "type": "LineString", "coordinates": [ [ 5.352792, 52.069068299111791 ], [ 5.3529772, 52.069181299111797 ], [ 5.3533148, 52.069390799111758 ], [ 5.3534882, 52.069502299111754 ], [ 5.3537695, 52.069672999111731 ], [ 5.3540103, 52.069831199111739 ], [ 5.3542704, 52.069992699111722 ], [ 5.3540817, 52.070361799111694 ], [ 5.3550132, 52.070303299111693 ], [ 5.3550186, 52.070360399111692 ], [ 5.3550647, 52.070576499111674 ], [ 5.3550893, 52.070752599111664 ], [ 5.3551664, 52.071067399111634 ], [ 5.355254, 52.071510899111615 ], [ 5.3553497, 52.071662699111577 ], [ 5.3553736, 52.071850499111562 ], [ 5.3553024, 52.072024699111545 ], [ 5.3554942, 52.072267599111548 ], [ 5.355653, 52.072909399111495 ], [ 5.3555478, 52.073163499111466 ], [ 5.3554861, 52.073823099111415 ], [ 5.3560211, 52.073777799111426 ], [ 5.3563246, 52.074429799111357 ], [ 5.3564371, 52.074715399111348 ], [ 5.3564477, 52.074811399111368 ], [ 5.3562401, 52.074903599111337 ], [ 5.3561049, 52.074955099111321 ], [ 5.35601, 52.075082999111331 ], [ 5.3559849, 52.075173499111308 ], [ 5.3559459, 52.075353899111306 ], [ 5.3543696, 52.075537999111283 ], [ 5.35433, 52.07562299911126 ], [ 5.3544469, 52.076035799111239 ], [ 5.3549388, 52.075977499111247 ], [ 5.3554405, 52.077088299111153 ], [ 5.3556993, 52.077661399111136 ], [ 5.3561193, 52.078595799111049 ], [ 5.3570955, 52.07861699911107 ], [ 5.3572898, 52.078640099111041 ], [ 5.3573744, 52.078689599111037 ], [ 5.3571698, 52.079179399111005 ] ] } },
{ "type": "Feature", "properties": { "@id": "relation/2412106", "name": "   31-32   " }, "geometry": { "type": "LineString", "coordinates": [ [ 5.371886, 52.091169699110097 ], [ 5.3717018, 52.090429399110128 ], [ 5.3715802, 52.089813999110163 ], [ 5.3712662, 52.088836299110255 ] ] } },
{ "type": "Feature", "properties": { "@id": "relation/8513603", "name": "   68-70   " }, "geometry": { "type": "LineString", "coordinates": [ [ 5.3368941, 52.05213449911313 ], [ 5.3353921, 52.051117199113207 ], [ 5.3334673, 52.049981999113307 ], [ 5.3333866, 52.0499613991133 ] ] } },
{ "type": "Feature", "properties": { "@id": "relation/2412095", "name": "   24-25   " }, "geometry": { "type": "LineString", "coordinates": [ [ 5.3777242, 52.0989918991095 ], [ 5.3776186, 52.098562499109534 ], [ 5.3774764, 52.098182999109561 ], [ 5.3770907, 52.09672319910964 ], [ 5.3769526, 52.096084099109703 ] ] } },
{ "type": "Feature", "properties": { "@id": "relation/8513966", "name": "   66-69   " }, "geometry": { "type": "LineString", "coordinates": [ [ 5.3242942, 52.047353199113516 ], [ 5.3252404, 52.04806489911347 ], [ 5.3258207, 52.048463899113436 ], [ 5.3262724, 52.048786499113412 ], [ 5.3271594, 52.049411899113359 ], [ 5.3281049, 52.050087499113296 ], [ 5.328946, 52.050683099113236 ], [ 5.3299476, 52.051391499113194 ], [ 5.3302231, 52.051553999113175 ], [ 5.3304052, 52.051605899113177 ] ] } },
{ "type": "Feature", "properties": { "@id": "relation/2412129", "name": "   47-48   " }, "geometry": { "type": "LineString", "coordinates": [ [ 5.3339481, 52.084965799110549 ], [ 5.333562, 52.084538999110578 ], [ 5.3330467, 52.083969499110623 ], [ 5.3303645, 52.081042099110853 ], [ 5.3301821, 52.080956399110875 ], [ 5.3299997, 52.080903699110863 ], [ 5.3296457, 52.080831199110854 ], [ 5.3295384, 52.080778399110883 ], [ 5.3294525, 52.080679499110886 ], [ 5.3294418, 52.08056739911089 ], [ 5.3295491, 52.080422399110915 ] ] } },
{ "type": "Feature", "properties": { "@id": "relation/2412118", "name": "   40-41   " }, "geometry": { "type": "LineString", "coordinates": [ [ 5.3381805, 52.092944899109945 ], [ 5.3382287, 52.093086599109945 ], [ 5.3386901, 52.094450999109831 ], [ 5.3388999, 52.09515639910979 ], [ 5.3379115, 52.09538369910976 ], [ 5.3377907, 52.095385299109758 ], [ 5.3377021, 52.095381299109754 ], [ 5.337637, 52.095371999109759 ], [ 5.3375889, 52.095362199109772 ], [ 5.3374851, 52.095325599109763 ], [ 5.3374063, 52.095287199109777 ], [ 5.3360542, 52.094683099109822 ], [ 5.3357147, 52.094734599109806 ], [ 5.3353268, 52.094771499109811 ], [ 5.3352482, 52.09465699910983 ], [ 5.3346679, 52.093902299109892 ], [ 5.3346087, 52.093801599109881 ], [ 5.3345451, 52.093679599109912 ], [ 5.3344121, 52.093407799109919 ], [ 5.3343493, 52.093244799109925 ], [ 5.3342699, 52.093007299109935 ], [ 5.3339197, 52.092263599109998 ], [ 5.3336, 52.091838399110031 ], [ 5.3335773, 52.091811899110041 ], [ 5.3335415, 52.091782599110033 ], [ 5.3331789, 52.091139199110074 ], [ 5.3326698, 52.09057999911014 ], [ 5.3322252, 52.09007909911017 ], [ 5.3317543, 52.089586299110202 ], [ 5.3314323, 52.089229699110241 ], [ 5.3311326, 52.088904099110252 ], [ 5.3309193, 52.088566199110296 ], [ 5.3308514, 52.088405599110303 ], [ 5.3307627, 52.088115899110306 ], [ 5.3307519, 52.088074699110322 ], [ 5.3307497, 52.087923199110321 ] ] } },
{ "type": "Feature", "properties": { "@id": "relation/2412111", "name": "   35-36   " }, "geometry": { "type": "LineString", "coordinates": [ [ 5.3763861, 52.084237399110599 ], [ 5.3758689, 52.084261799110607 ], [ 5.3757684, 52.08425659911061 ], [ 5.3748837, 52.084229399110619 ], [ 5.3741758, 52.084136999110619 ], [ 5.3739992, 52.084094799110623 ], [ 5.3738949, 52.084049999110611 ], [ 5.3736383, 52.083964099110652 ], [ 5.3735955, 52.083949799110634 ], [ 5.37306, 52.083918799110634 ], [ 5.3729138, 52.083951399110624 ], [ 5.3728282, 52.084001799110638 ], [ 5.3724848, 52.08414829911063 ], [ 5.3723139, 52.084315399110608 ], [ 5.3722086, 52.084455599110605 ], [ 5.3721843, 52.084484899110578 ], [ 5.3721084, 52.084490899110591 ], [ 5.3717456, 52.084523299110579 ], [ 5.3716306, 52.084516299110589 ], [ 5.3714258, 52.084464999110594 ], [ 5.3710065, 52.084320599110612 ], [ 5.3708708, 52.084298699110612 ], [ 5.3705955, 52.084254399110606 ], [ 5.3701349, 52.084256199110619 ], [ 5.3699667, 52.084238099110614 ], [ 5.3698003, 52.084289699110606 ] ] } },
{ "type": "Feature", "properties": { "@id": "relation/2412062", "name": "   2-3   " }, "geometry": { "type": "LineString", "coordinates": [ [ 5.3774683, 52.124193999107632 ], [ 5.3762975, 52.12287239910772 ], [ 5.3760374, 52.122628699107743 ], [ 5.3759059, 52.122561199107757 ], [ 5.3757782, 52.12253569910775 ] ] } },
{ "type": "Feature", "properties": { "@id": "relation/8513954", "name": "   74-75   " }, "geometry": { "type": "LineString", "coordinates": [ [ 5.3368698, 52.055517999112865 ], [ 5.3376513, 52.055012399112897 ], [ 5.3400547, 52.056540399112784 ] ] } },
{ "type": "Feature", "properties": { "@id": "relation/2412092", "name": "   22-23   " }, "geometry": { "type": "LineString", "coordinates": [ [ 5.36476, 52.101083699109317 ], [ 5.3651374, 52.102507599109238 ], [ 5.3653785, 52.102484899109228 ], [ 5.3652836, 52.103525199109157 ], [ 5.3650499, 52.103756999109152 ], [ 5.364859, 52.104562199109075 ] ] } },
{ "type": "Feature", "properties": { "@id": "relation/2412133", "name": "   34-49   " }, "geometry": { "type": "LineString", "coordinates": [ [ 5.3228006, 52.071679999111595 ], [ 5.3241661, 52.072544899111506 ], [ 5.3260322, 52.073915399111407 ], [ 5.3261182, 52.0739816991114 ], [ 5.3273264, 52.074739199111349 ], [ 5.3277449, 52.075035999111321 ], [ 5.3271038, 52.075326099111294 ], [ 5.3287178, 52.076581099111202 ], [ 5.3287448, 52.076603699111203 ], [ 5.329077, 52.076940899111193 ], [ 5.329356, 52.077178299111161 ], [ 5.3285751, 52.077503399111137 ], [ 5.3267256, 52.078273599111071 ] ] } },
{ "type": "Feature", "properties": { "@id": "relation/5824360", "name": "   55-T   " }, "geometry": { "type": "LineString", "coordinates": [ [ 5.3135499, 52.064396299112147 ], [ 5.3136805, 52.064563399112131 ], [ 5.3149029, 52.064547799112155 ], [ 5.3150508, 52.064565099112144 ], [ 5.3152324, 52.064673299112137 ], [ 5.3152118, 52.064724899112136 ], [ 5.3151604, 52.064801999112127 ], [ 5.3151348, 52.064853799112115 ], [ 5.3150688, 52.064888099112117 ], [ 5.3150447, 52.064900699112144 ], [ 5.3149816, 52.064935799112114 ] ] } },
{ "type": "Feature", "properties": { "@id": "relation/2412128", "name": "   46-50   " }, "geometry": { "type": "LineString", "coordinates": [ [ 5.3405089, 52.084335799110598 ], [ 5.340849, 52.083062299110701 ], [ 5.3408656, 52.082983999110724 ], [ 5.3408667, 52.08291959911071 ], [ 5.3408466, 52.082842099110714 ], [ 5.3408159, 52.082744999110737 ], [ 5.3408331, 52.082651799110728 ], [ 5.3408874, 52.082565099110738 ], [ 5.3408942, 52.08248199911074 ], [ 5.3408816, 52.082428099110757 ], [ 5.3409015, 52.082359599110752 ], [ 5.3409693, 52.082231799110772 ], [ 5.3409943, 52.082186199110765 ], [ 5.3410131, 52.08211909911077 ], [ 5.3410015, 52.082036899110797 ], [ 5.340952, 52.081966099110794 ], [ 5.3407286, 52.081932199110803 ], [ 5.3405891, 52.081886099110797 ], [ 5.3392051, 52.081121299110848 ], [ 5.3403638, 52.080593799110886 ], [ 5.3408736, 52.080350099110916 ], [ 5.3412328, 52.080178399110935 ], [ 5.3417263, 52.079980599110932 ], [ 5.3425417, 52.07963769911094 ], [ 5.3433212, 52.079289099110994 ], [ 5.3433678, 52.079268499111009 ], [ 5.344358, 52.07882519911103 ], [ 5.3438496, 52.078754999111048 ], [ 5.3428021, 52.078620699111042 ], [ 5.3418426, 52.078488599111047 ], [ 5.3398338, 52.077396299111136 ], [ 5.3382073, 52.076142999111248 ] ] } },
{ "type": "Feature", "properties": { "@id": "relation/2412115", "name": "   38-44   " }, "geometry": { "type": "LineString", "coordinates": [ [ 5.3539277, 52.085616099110517 ], [ 5.3542683, 52.085556699110505 ], [ 5.3545097, 52.085538599110492 ], [ 5.354963, 52.085433099110531 ], [ 5.355874, 52.085388299110541 ], [ 5.3566099, 52.086694799110433 ], [ 5.3575597, 52.086570599110445 ], [ 5.3586479, 52.088434699110294 ], [ 5.3587857, 52.088906499110259 ], [ 5.3583645, 52.089053799110246 ], [ 5.3580761, 52.089154599110245 ], [ 5.3581025, 52.089196999110236 ], [ 5.3595816, 52.091572499110043 ], [ 5.3597807, 52.091786299110048 ], [ 5.3600198, 52.091895599110018 ], [ 5.3602329, 52.091966699110024 ], [ 5.3603352, 52.092183299110005 ], [ 5.3601977, 52.09240339910999 ] ] } },
{ "type": "Feature", "properties": { "@id": "relation/8513955", "name": "   70-76   " }, "geometry": { "type": "LineString", "coordinates": [ [ 5.3368941, 52.05213449911313 ], [ 5.335672, 52.052786399113081 ], [ 5.3355525, 52.052850199113088 ], [ 5.3347704, 52.053284599113034 ], [ 5.3339306, 52.053716799113012 ] ] } },
{ "type": "Feature", "properties": { "@id": "relation/2412080", "name": "   13-14   " }, "geometry": { "type": "LineString", "coordinates": [ [ 5.3930256, 52.112093299108516 ], [ 5.3930197, 52.111706699108538 ], [ 5.3929291, 52.111135999108576 ], [ 5.3926868, 52.110244199108649 ], [ 5.3926607, 52.110124899108662 ], [ 5.3927774, 52.110023499108671 ], [ 5.3927384, 52.109913199108675 ], [ 5.39277, 52.109905299108668 ], [ 5.3932915, 52.109808799108691 ], [ 5.3933691, 52.109571899108701 ], [ 5.3933962, 52.109119599108723 ], [ 5.3934427, 52.108508899108777 ], [ 5.3936156, 52.107312599108873 ], [ 5.3936086, 52.10718389910889 ], [ 5.3935904, 52.107129999108885 ], [ 5.3935541, 52.107072599108882 ], [ 5.3934965, 52.107011499108893 ], [ 5.3934192, 52.106944899108889 ], [ 5.3933687, 52.106914199108893 ], [ 5.3933329, 52.106890399108892 ], [ 5.3933337, 52.106856199108904 ] ] } },
{ "type": "Feature", "properties": { "@id": "relation/8641897", "name": "   33-34   " }, "geometry": { "type": "LineString", "coordinates": [ [ 5.3160974, 52.067257999111945 ], [ 5.316217, 52.067224699111932 ], [ 5.3163108, 52.067241099111932 ], [ 5.3166588, 52.067463099111926 ], [ 5.3170536, 52.067785699111894 ], [ 5.3174691, 52.06809979911187 ], [ 5.3178396, 52.068455299111839 ], [ 5.3182832, 52.06886259911181 ], [ 5.3187219, 52.069212899111783 ], [ 5.3188506, 52.069331599111763 ], [ 5.3191201, 52.069631699111746 ], [ 5.3192621, 52.069696199111739 ], [ 5.3195717, 52.069737499111739 ], [ 5.3198377, 52.069793199111736 ], [ 5.3200952, 52.069832799111715 ], [ 5.3202454, 52.069991099111725 ], [ 5.3204047, 52.070228199111696 ], [ 5.3205219, 52.070384599111698 ], [ 5.3215133, 52.070782099111661 ], [ 5.322117, 52.071194499111613 ], [ 5.3228006, 52.071679999111595 ] ] } },
{ "type": "Feature", "properties": { "@id": "relation/8513956", "name": "   69-76   " }, "geometry": { "type": "LineString", "coordinates": [ [ 5.3304052, 52.051605899113177 ], [ 5.3308973, 52.051743899113156 ], [ 5.3314379, 52.051985899113141 ], [ 5.3315769, 52.052006799113151 ], [ 5.3339306, 52.053716799113012 ] ] } },
{ "type": "Feature", "properties": { "@id": "relation/2412076", "name": "   10-11   " }, "geometry": { "type": "LineString", "coordinates": [ [ 5.3862137, 52.117225199108134 ], [ 5.3872616, 52.117372399108127 ], [ 5.3873779, 52.117327799108132 ], [ 5.3878795, 52.117906499108088 ], [ 5.3878824, 52.118258599108067 ], [ 5.3878882, 52.118295699108039 ], [ 5.3882976, 52.118341599108049 ], [ 5.3897196, 52.118480299108043 ] ] } },
{ "type": "Feature", "properties": { "@id": "relation/2412104", "name": "   29-38   " }, "geometry": { "type": "LineString", "coordinates": [ [ 5.3643874, 52.092074499110012 ], [ 5.3641267, 52.092051499110013 ], [ 5.3639727, 52.092050099110025 ], [ 5.363535, 52.092082499110028 ], [ 5.3633834, 52.09210919911002 ], [ 5.3632007, 52.09214479911001 ], [ 5.3629873, 52.092204499109997 ], [ 5.3627671, 52.092252799109993 ], [ 5.3627392, 52.092249099110006 ], [ 5.3625711, 52.092201699109999 ], [ 5.3624547, 52.092172999110005 ], [ 5.3622211, 52.092111199110015 ], [ 5.3621634, 52.092099599110028 ], [ 5.3621053, 52.09210579911003 ], [ 5.3619601, 52.092118699110003 ], [ 5.3618634, 52.092127299110011 ], [ 5.3618355, 52.092130099110015 ], [ 5.3617845, 52.092142299110016 ], [ 5.3617001, 52.092162499110017 ], [ 5.3616424, 52.092187399110031 ], [ 5.3616206, 52.092196899110007 ], [ 5.3615832, 52.092213299109986 ], [ 5.3615627, 52.092222299110006 ], [ 5.3615394, 52.092230699110011 ], [ 5.3615106, 52.09223879911 ], [ 5.3614822, 52.092244799110013 ], [ 5.3613083, 52.092269099110005 ], [ 5.3607442, 52.092336599109998 ], [ 5.3605802, 52.092391499109986 ], [ 5.3604758, 52.092369199110003 ], [ 5.3602875, 52.092391899110005 ], [ 5.3601977, 52.09240339910999 ] ] } },
{ "type": "Feature", "properties": { "@id": "relation/2412139", "name": "   11-T   " }, "geometry": { "type": "LineString", "coordinates": [ [ 5.3897196, 52.118480299108043 ], [ 5.3897382, 52.118419299108034 ], [ 5.3899176, 52.117991599108088 ], [ 5.3902892, 52.118012299108067 ], [ 5.3908808, 52.117990899108079 ], [ 5.3914342, 52.118123399108065 ], [ 5.3919005, 52.11815119910807 ], [ 5.3934153, 52.118722799108021 ], [ 5.3935667, 52.118852699108004 ], [ 5.3937133, 52.118947699108006 ], [ 5.3938117, 52.119011399108018 ], [ 5.3939142, 52.119059199107994 ], [ 5.3941792, 52.119034599107998 ], [ 5.3944424, 52.118963299107996 ], [ 5.3955299, 52.119437999107973 ] ] } },
{ "type": "Feature", "properties": { "@id": "relation/8513959", "name": "   62-75   " }, "geometry": { "type": "LineString", "coordinates": [ [ 5.3319084, 52.057231599112718 ], [ 5.3320127, 52.057175699112733 ], [ 5.3322623, 52.056973699112753 ], [ 5.332282, 52.056739499112759 ], [ 5.3323411, 52.056493099112792 ], [ 5.3325054, 52.056125499112824 ], [ 5.3324974, 52.055977599112829 ], [ 5.3324787, 52.055872399112857 ], [ 5.3326056, 52.055763399112848 ], [ 5.3327349, 52.055588999112857 ], [ 5.3328111, 52.055481199112862 ], [ 5.3335772, 52.055682099112865 ], [ 5.3338061, 52.055729799112832 ], [ 5.3341511, 52.055721399112855 ], [ 5.334513, 52.055594299112855 ], [ 5.33601, 52.056042299112818 ], [ 5.3360752, 52.056032299112815 ], [ 5.3361222, 52.056001899112829 ], [ 5.3368698, 52.055517999112865 ] ] } },
{ "type": "Feature", "properties": { "@id": "relation/8513607", "name": "   61-73   " }, "geometry": { "type": "LineString", "coordinates": [ [ 5.329199, 52.058392499112628 ], [ 5.3292477, 52.058405699112619 ], [ 5.3325064, 52.059288499112562 ], [ 5.335813, 52.060209199112499 ], [ 5.3358826, 52.060223099112513 ], [ 5.3359402, 52.060227699112481 ], [ 5.3360161, 52.060192999112495 ], [ 5.337822, 52.05928069911257 ], [ 5.3385277, 52.058905699112586 ], [ 5.3397047, 52.058281699112648 ], [ 5.3408154, 52.057719899112698 ], [ 5.3414156, 52.057400199112706 ] ] } },
{ "type": "Feature", "properties": { "@id": "relation/2412105", "name": "   30-37   " }, "geometry": { "type": "LineString", "coordinates": [ [ 5.3678034, 52.091580099110047 ], [ 5.3676843, 52.091403799110061 ], [ 5.3673209, 52.091012399110085 ], [ 5.3664763, 52.09019189911016 ], [ 5.3662309, 52.090455799110138 ], [ 5.3656798, 52.090749699110127 ], [ 5.3650379, 52.090911099110102 ], [ 5.3639955, 52.089962299110177 ], [ 5.3633646, 52.08933889911021 ], [ 5.362971, 52.088970099110256 ], [ 5.3629276, 52.088941399110261 ], [ 5.3636707, 52.089045899110239 ], [ 5.3641433, 52.089103299110242 ], [ 5.3641187, 52.088831099110259 ], [ 5.3639471, 52.088556499110297 ], [ 5.363493, 52.088209199110317 ], [ 5.3628823, 52.087669499110341 ], [ 5.3627816, 52.087614499110366 ], [ 5.3627401, 52.087529899110365 ], [ 5.3624411, 52.086052599110481 ], [ 5.3623213, 52.085629399110516 ], [ 5.3622044, 52.085170999110552 ] ] } },
{ "type": "Feature", "properties": { "@id": "relation/2412063", "name": "   2-4   " }, "geometry": { "type": "LineString", "coordinates": [ [ 5.3757782, 52.12253569910775 ], [ 5.3759152, 52.122238699107776 ], [ 5.3760246, 52.122001299107794 ], [ 5.3761394, 52.121852399107802 ] ] } },
{ "type": "Feature", "properties": { "@id": "relation/2412108", "name": "   32-36   " }, "geometry": { "type": "LineString", "coordinates": [ [ 5.3712662, 52.088836299110255 ], [ 5.3709841, 52.088205899110328 ], [ 5.3709072, 52.088004699110307 ], [ 5.3707721, 52.087474299110369 ], [ 5.3705355, 52.086554899110432 ], [ 5.3705176, 52.086464399110454 ], [ 5.3702396, 52.085747699110499 ], [ 5.3701232, 52.085610599110503 ], [ 5.3701162, 52.085383099110523 ], [ 5.3700936, 52.085118799110546 ], [ 5.3699351, 52.084906699110562 ], [ 5.3697841, 52.084566599110573 ], [ 5.3698407, 52.084397799110583 ], [ 5.3698003, 52.084289699110606 ] ] } },
{ "type": "Feature", "properties": { "@id": "relation/2412113", "name": "   37-52   " }, "geometry": { "type": "LineString", "coordinates": [ [ 5.3622044, 52.085170999110552 ], [ 5.36211, 52.084703799110564 ], [ 5.3621214, 52.084524699110595 ], [ 5.3620436, 52.084241299110609 ], [ 5.3619473, 52.083890799110634 ], [ 5.361933, 52.08371909911066 ], [ 5.3618512, 52.083574899110701 ], [ 5.361835, 52.083514099110673 ], [ 5.3617716, 52.083281999110689 ], [ 5.3615142, 52.082796299110711 ], [ 5.3612352, 52.082503999110742 ], [ 5.3609384, 52.082040399110767 ], [ 5.3609206, 52.081774399110813 ], [ 5.3611065, 52.081591999110827 ], [ 5.3613282, 52.081499699110829 ], [ 5.3613387, 52.080828299110884 ], [ 5.3613035, 52.0806508991109 ], [ 5.3612415, 52.080010099110922 ], [ 5.3612415, 52.079579399110976 ], [ 5.3613522, 52.079090299111016 ], [ 5.361228, 52.078985299111025 ], [ 5.3608127, 52.078800899111044 ], [ 5.3605221, 52.078772699111056 ], [ 5.3603899, 52.078799099111038 ], [ 5.3603096, 52.078824299111041 ], [ 5.3602848, 52.078843899111021 ], [ 5.3602018, 52.078909199111017 ], [ 5.3599459, 52.078813399111041 ], [ 5.3596651, 52.078777699111029 ], [ 5.358648, 52.078955799111029 ], [ 5.3571698, 52.079179399111005 ] ] } },
{ "type": "Feature", "properties": { "@id": "relation/2412081", "name": "   14-15   " }, "geometry": { "type": "LineString", "coordinates": [ [ 5.3933337, 52.106856199108904 ], [ 5.3931301, 52.106864099108911 ], [ 5.3927731, 52.106874799108894 ], [ 5.3926778, 52.106874199108894 ], [ 5.3926032, 52.106864899108906 ], [ 5.3925307, 52.106845799108903 ], [ 5.3924477, 52.106812199108916 ], [ 5.3923496, 52.106772499108914 ], [ 5.3922557, 52.106747899108903 ], [ 5.3921548, 52.106724199108911 ], [ 5.3920803, 52.106714599108912 ], [ 5.3920128, 52.106708299108917 ], [ 5.3918341, 52.106710599108915 ], [ 5.3917143, 52.106715499108923 ], [ 5.3916026, 52.106723099108919 ], [ 5.3915371, 52.106714099108906 ], [ 5.3915228, 52.10666599910892 ], [ 5.3915085, 52.106579699108913 ], [ 5.3914974, 52.10647329910892 ], [ 5.3914766, 52.106296599108958 ], [ 5.3914643, 52.106236999108937 ], [ 5.3914408, 52.106147199108953 ], [ 5.3913917, 52.106028399108972 ], [ 5.391354, 52.105957099108977 ], [ 5.3912889, 52.105865599108981 ], [ 5.3912144, 52.105778099108988 ], [ 5.3910748, 52.105648899108985 ], [ 5.3909455, 52.105548699109008 ], [ 5.3906768, 52.105349599109026 ], [ 5.3906145, 52.105357199109001 ], [ 5.3903712, 52.10519389910904 ], [ 5.3899062, 52.104804399109042 ], [ 5.3894487, 52.104150599109111 ], [ 5.389388, 52.104013199109112 ], [ 5.3886734, 52.102990999109203 ], [ 5.3884079, 52.102618399109211 ], [ 5.386646, 52.102781499109213 ], [ 5.3853716, 52.102876999109199 ], [ 5.3834414, 52.103066799109186 ] ] } },
{ "type": "Feature", "properties": { "@id": "relation/2412125", "name": "   45-46   " }, "geometry": { "type": "LineString", "coordinates": [ [ 5.3532116, 52.083949699110647 ], [ 5.3530077, 52.084005799110628 ], [ 5.3527449, 52.084051899110612 ], [ 5.3523801, 52.084094799110623 ], [ 5.352187, 52.084104699110611 ], [ 5.3520046, 52.084081599110618 ], [ 5.3516612, 52.083989299110634 ], [ 5.3515164, 52.083972799110626 ], [ 5.3512428, 52.083972799110626 ], [ 5.3510443, 52.083943099110634 ], [ 5.3508566, 52.083900299110645 ], [ 5.3505937, 52.083817899110635 ], [ 5.3500519, 52.083570599110672 ], [ 5.3499339, 52.083455199110688 ], [ 5.3498749, 52.083336599110687 ], [ 5.3499071, 52.083234399110687 ], [ 5.3499234, 52.083102699110711 ], [ 5.3498949, 52.083019299110703 ], [ 5.3497249, 52.083015299110727 ], [ 5.3493549, 52.083009899110721 ], [ 5.3488733, 52.083034299110714 ], [ 5.3484411, 52.0830421991107 ], [ 5.3486143, 52.082888199110712 ], [ 5.3487353, 52.082710999110752 ], [ 5.3488198, 52.082574399110733 ], [ 5.3489128, 52.082362099110767 ], [ 5.3489316, 52.082128199110777 ], [ 5.3479468, 52.082374399110762 ], [ 5.3474799, 52.082486599110752 ], [ 5.3469406, 52.082627799110739 ], [ 5.346565, 52.082716799110727 ], [ 5.3463987, 52.082769599110733 ], [ 5.345814, 52.082964099110718 ], [ 5.3454385, 52.083148699110708 ], [ 5.3453741, 52.083211299110694 ], [ 5.345299, 52.083310199110691 ], [ 5.3452937, 52.083389299110671 ], [ 5.3452829, 52.08346839911065 ], [ 5.3451757, 52.083534399110661 ], [ 5.3449772, 52.083593699110679 ], [ 5.3446124, 52.083659599110646 ], [ 5.3443871, 52.083718999110658 ], [ 5.3439762, 52.083776599110649 ], [ 5.3437285, 52.083955899110641 ], [ 5.3433741, 52.084187599110614 ], [ 5.3422442, 52.084794999110571 ], [ 5.3420982, 52.084776599110576 ], [ 5.3420205, 52.084748199110578 ], [ 5.341991, 52.084721999110585 ], [ 5.3419424, 52.084670899110577 ], [ 5.3418526, 52.084590099110606 ], [ 5.3416379, 52.08448229911059 ], [ 5.3414234, 52.084398299110617 ], [ 5.3412164, 52.084327899110598 ], [ 5.3410278, 52.084292599110604 ], [ 5.3408522, 52.084292599110604 ], [ 5.3406895, 52.084310799110597 ], [ 5.3405089, 52.084335799110598 ] ] } },
{ "type": "Feature", "properties": { "@id": "relation/2412069", "name": "   5-T   " }, "geometry": { "type": "LineString", "coordinates": [ [ 5.3908702, 52.130209899107172 ], [ 5.3926931, 52.130136499107195 ], [ 5.3942563, 52.130067599107214 ], [ 5.3953848, 52.130036999107219 ], [ 5.3968041, 52.129976899107206 ], [ 5.3976887, 52.129916699107213 ], [ 5.3977659, 52.129919999107216 ], [ 5.3978146, 52.129926499107206 ], [ 5.3978309, 52.129942199107212 ] ] } },
{ "type": "Feature", "properties": { "@id": "relation/2412140", "name": "   14-T   " }, "geometry": { "type": "LineString", "coordinates": [ [ 5.3933337, 52.106856199108904 ], [ 5.3933338, 52.106842899108912 ], [ 5.3933939, 52.106011499108959 ], [ 5.3933912, 52.105953799108967 ], [ 5.3935723, 52.105926199108985 ], [ 5.393756, 52.105862799108962 ], [ 5.393897, 52.105793299108996 ], [ 5.3940544, 52.105731999108983 ], [ 5.3949114, 52.105736899108983 ], [ 5.3950015, 52.105734999108996 ], [ 5.3950559, 52.105730299108984 ], [ 5.3950899, 52.105725099108987 ], [ 5.3951217, 52.105712899108994 ], [ 5.3951533, 52.105693399108986 ], [ 5.3951793, 52.105669799108995 ], [ 5.3951979, 52.105642699108991 ], [ 5.3952076, 52.105602899108987 ], [ 5.3952401, 52.105449099109016 ], [ 5.3954372, 52.104808899109052 ], [ 5.3954731, 52.104657899109078 ], [ 5.3954839, 52.10463589910907 ], [ 5.395503, 52.104615399109072 ], [ 5.3955485, 52.104591599109078 ], [ 5.3956353, 52.104585499109078 ], [ 5.3957888, 52.104582199109075 ], [ 5.3962126, 52.104579499109086 ], [ 5.3968634, 52.104575999109066 ], [ 5.3974708, 52.104568499109078 ], [ 5.3981879, 52.10455079910907 ], [ 5.399356, 52.104526799109067 ], [ 5.3995733, 52.104504099109086 ], [ 5.3997784, 52.104471399109087 ], [ 5.4003496, 52.104355199109087 ], [ 5.4005835, 52.104315899109103 ], [ 5.4007595, 52.104301599109085 ], [ 5.4008853, 52.104303999109085 ], [ 5.4011626, 52.104323399109106 ], [ 5.4018776, 52.10438539910907 ], [ 5.4021198, 52.104421899109084 ] ] } },
{ "type": "Feature", "properties": { "@id": "relation/8513957", "name": "   63-76   " }, "geometry": { "type": "LineString", "coordinates": [ [ 5.3295422, 52.056036899112819 ], [ 5.3315839, 52.055022499112894 ], [ 5.3339306, 52.053716799113012 ] ] } },
{ "type": "Feature", "properties": { "@id": "relation/2412131", "name": "   48-50   " }, "geometry": { "type": "LineString", "coordinates": [ [ 5.3295491, 52.080422399110915 ], [ 5.3312443, 52.079631099110955 ], [ 5.3320597, 52.079248699110998 ], [ 5.3328246, 52.078859299111045 ], [ 5.3338943, 52.078318999111076 ], [ 5.3354934, 52.077510399111112 ], [ 5.336437, 52.07703319911117 ], [ 5.3382073, 52.076142999111248 ] ] } },
{ "type": "Feature", "properties": { "@id": "relation/2412114", "name": "   38-39   " }, "geometry": { "type": "LineString", "coordinates": [ [ 5.3601977, 52.09240339910999 ], [ 5.3597267, 52.092180799110004 ], [ 5.3594379, 52.092059899110012 ], [ 5.3590875, 52.091901299110027 ], [ 5.3584922, 52.091670099110054 ], [ 5.3581053, 52.091724599110037 ], [ 5.3573797, 52.091834199110032 ], [ 5.3565965, 52.091972599110029 ], [ 5.3555212, 52.092128199110022 ], [ 5.3554202, 52.09214279911 ], [ 5.3544246, 52.092278299109992 ], [ 5.3533656, 52.092422399109971 ], [ 5.3530354, 52.092466699109977 ], [ 5.3511366, 52.092736199109957 ], [ 5.3509902, 52.09276239910993 ], [ 5.3493355, 52.092974699109938 ], [ 5.3485151, 52.093085399109931 ] ] } },
{ "type": "Feature", "properties": { "@id": "relation/2412102", "name": "   28-29   " }, "geometry": { "type": "LineString", "coordinates": [ [ 5.3657635, 52.091921999110014 ], [ 5.3654114, 52.091970399110032 ], [ 5.3650291, 52.091979399110009 ], [ 5.3646624, 52.092013299110008 ], [ 5.3643874, 52.092074499110012 ] ] } },
{ "type": "Feature", "properties": { "@id": "relation/8513964", "name": "   65-66   " }, "geometry": { "type": "LineString", "coordinates": [ [ 5.3217456, 52.04836989911341 ], [ 5.3222289, 52.048089099113454 ], [ 5.3232418, 52.047654699113494 ], [ 5.3239019, 52.047465599113508 ], [ 5.3242942, 52.047353199113516 ] ] } },
{ "type": "Feature", "properties": { "@id": "relation/2412109", "name": "   33-34   " }, "geometry": { "type": "LineString", "coordinates": [ [ 5.3808607, 52.085659199110495 ], [ 5.380855, 52.08580319911048 ], [ 5.38083, 52.086047799110482 ], [ 5.3808451, 52.086469899110433 ], [ 5.3808678, 52.086796999110419 ], [ 5.3807763, 52.086947799110405 ], [ 5.3804637, 52.08811559911031 ], [ 5.3804345, 52.088269499110297 ] ] } },
{ "type": "Feature", "properties": { "@id": "relation/2412060", "name": "   1-2   " }, "geometry": { "type": "LineString", "coordinates": [ [ 5.3685381, 52.121407099107834 ], [ 5.3696172, 52.121563299107819 ], [ 5.3703819, 52.121709799107819 ], [ 5.3717144, 52.121941699107779 ], [ 5.3733951, 52.122239399107762 ], [ 5.3737918, 52.122244699107767 ], [ 5.3741759, 52.122288099107777 ], [ 5.3753454, 52.122485399107752 ], [ 5.3755342, 52.122517199107747 ], [ 5.3757782, 52.12253569910775 ] ] } }
]
}
