{
"type": "FeatureCollection",
"name": "dth_ruiterknooppunten",
"crs": { "type": "name", "properties": { "name": "urn:ogc:def:crs:OGC:1.3:CRS84" } },
"features": [
{ "type": "Feature", "properties": { "@id": "node/1727242423", "name": "64" }, "geometry": { "type": "Point", "coordinates": [ 5.3287643, 52.053179399113063 ] } },
{ "type": "Feature", "properties": { "@id": "node/1218664540", "name": "7" }, "geometry": { "type": "Point", "coordinates": [ 5.3701708, 52.118708599108025 ] } },
{ "type": "Feature", "properties": { "@id": "node/1727242340", "name": "68" }, "geometry": { "type": "Point", "coordinates": [ 5.3333866, 52.0499613991133 ] } },
{ "type": "Feature", "properties": { "@id": "node/1001327516", "name": "21" }, "geometry": { "type": "Point", "coordinates": [ 5.3632311, 52.11021169910866 ] } },
{ "type": "Feature", "properties": { "@id": "node/824279312", "name": "34" }, "geometry": { "type": "Point", "coordinates": [ 5.3228006, 52.071679999111595 ] } },
{ "type": "Feature", "properties": { "@id": "node/1019785505", "name": "T" }, "geometry": { "type": "Point", "coordinates": [ 5.3955299, 52.119437999107973 ] } },
{ "type": "Feature", "properties": { "@id": "node/1001327053", "name": "10" }, "geometry": { "type": "Point", "coordinates": [ 5.3862137, 52.117225199108134 ] } },
{ "type": "Feature", "properties": { "@id": "node/1001327072", "name": "15" }, "geometry": { "type": "Point", "coordinates": [ 5.3834414, 52.103066799109186 ] } },
{ "type": "Feature", "properties": { "@id": "node/1200550039", "name": "42" }, "geometry": { "type": "Point", "coordinates": [ 5.3376063, 52.088973399110252 ] } },
{ "type": "Feature", "properties": { "@id": "node/1001327172", "name": "9" }, "geometry": { "type": "Point", "coordinates": [ 5.3856315, 52.119309099107994 ] } },
{ "type": "Feature", "properties": { "@id": "node/1163246782", "name": "T" }, "geometry": { "type": "Point", "coordinates": [ 5.3887507, 52.0934724991099 ] } },
{ "type": "Feature", "properties": { "@id": "node/1018817826", "name": "38" }, "geometry": { "type": "Point", "coordinates": [ 5.3601977, 52.09240339910999 ] } },
{ "type": "Feature", "properties": { "@id": "node/1163267743", "name": "36" }, "geometry": { "type": "Point", "coordinates": [ 5.3698003, 52.084289699110606 ] } },
{ "type": "Feature", "properties": { "@id": "node/273794944", "name": "2" }, "geometry": { "type": "Point", "coordinates": [ 5.3757782, 52.12253569910775 ] } },
{ "type": "Feature", "properties": { "@id": "node/996455737", "name": "25" }, "geometry": { "type": "Point", "coordinates": [ 5.3769526, 52.096084099109703 ] } },
{ "type": "Feature", "properties": { "@id": "node/996455733", "name": "26" }, "geometry": { "type": "Point", "coordinates": [ 5.3718797, 52.092610499109966 ] } },
{ "type": "Feature", "properties": { "@id": "node/45101734", "name": "33" }, "geometry": { "type": "Point", "coordinates": [ 5.3160974, 52.067257999111945 ] } },
{ "type": "Feature", "properties": { "@id": "node/824279352", "name": "49" }, "geometry": { "type": "Point", "coordinates": [ 5.3267256, 52.078273599111071 ] } },
{ "type": "Feature", "properties": { "@id": "node/1180949676", "name": "5" }, "geometry": { "type": "Point", "coordinates": [ 5.3908702, 52.130209899107172 ] } },
{ "type": "Feature", "properties": { "@id": "node/942693092", "name": "48" }, "geometry": { "type": "Point", "coordinates": [ 5.3295491, 52.080422399110915 ] } },
{ "type": "Feature", "properties": { "@id": "node/1727242508", "name": "59" }, "geometry": { "type": "Point", "coordinates": [ 5.3186311, 52.059290799112553 ] } },
{ "type": "Feature", "properties": { "@id": "node/1180949645", "name": "3" }, "geometry": { "type": "Point", "coordinates": [ 5.3774683, 52.124193999107632 ] } },
{ "type": "Feature", "properties": { "@id": "node/1011896215", "name": "56" }, "geometry": { "type": "Point", "coordinates": [ 5.3157146, 52.06226099911234 ] } },
{ "type": "Feature", "properties": { "@id": "node/1218664550", "name": "8" }, "geometry": { "type": "Point", "coordinates": [ 5.3773194, 52.119398299107964 ] } },
{ "type": "Feature", "properties": { "@id": "node/966801494", "name": "62" }, "geometry": { "type": "Point", "coordinates": [ 5.3319084, 52.057231599112718 ] } },
{ "type": "Feature", "properties": { "@id": "node/996455780", "name": "23" }, "geometry": { "type": "Point", "coordinates": [ 5.36476, 52.101083699109317 ] } },
{ "type": "Feature", "properties": { "@id": "node/297647094", "name": "14" }, "geometry": { "type": "Point", "coordinates": [ 5.3933337, 52.106856199108904 ] } },
{ "type": "Feature", "properties": { "@id": "node/273799007", "name": "T" }, "geometry": { "type": "Point", "coordinates": [ 5.3725339, 52.129562099107247 ] } },
{ "type": "Feature", "properties": { "@id": "node/996455701", "name": "22" }, "geometry": { "type": "Point", "coordinates": [ 5.364859, 52.104562199109075 ] } },
{ "type": "Feature", "properties": { "@id": "node/1001327389", "name": "12" }, "geometry": { "type": "Point", "coordinates": [ 5.384273, 52.115131199108298 ] } },
{ "type": "Feature", "properties": { "@id": "node/996455837", "name": "31" }, "geometry": { "type": "Point", "coordinates": [ 5.371886, 52.091169699110097 ] } },
{ "type": "Feature", "properties": { "@id": "node/1011896208", "name": "63" }, "geometry": { "type": "Point", "coordinates": [ 5.3295422, 52.056036899112819 ] } },
{ "type": "Feature", "properties": { "@id": "node/855705659", "name": "74" }, "geometry": { "type": "Point", "coordinates": [ 5.3400547, 52.056540399112784 ] } },
{ "type": "Feature", "properties": { "@id": "node/824284137", "name": "50" }, "geometry": { "type": "Point", "coordinates": [ 5.3382073, 52.076142999111248 ] } },
{ "type": "Feature", "properties": { "@id": "node/1200227027", "name": "T" }, "geometry": { "type": "Point", "coordinates": [ 5.3978309, 52.129942199107212 ] } },
{ "type": "Feature", "properties": { "@id": "node/966801620", "name": "55" }, "geometry": { "type": "Point", "coordinates": [ 5.3135499, 52.064396299112147 ] } },
{ "type": "Feature", "properties": { "@id": "node/971549926", "name": "72" }, "geometry": { "type": "Point", "coordinates": [ 5.3437321, 52.056287699112794 ] } },
{ "type": "Feature", "properties": { "@id": "node/942701165", "name": "45" }, "geometry": { "type": "Point", "coordinates": [ 5.3532116, 52.083949699110647 ] } },
{ "type": "Feature", "properties": { "@id": "node/1315428924", "name": "28" }, "geometry": { "type": "Point", "coordinates": [ 5.3657635, 52.091921999110014 ] } },
{ "type": "Feature", "properties": { "@id": "node/996455755", "name": "24" }, "geometry": { "type": "Point", "coordinates": [ 5.3777242, 52.0989918991095 ] } },
{ "type": "Feature", "properties": { "@id": "node/1727242399", "name": "70" }, "geometry": { "type": "Point", "coordinates": [ 5.3368941, 52.05213449911313 ] } },
{ "type": "Feature", "properties": { "@id": "node/996455717", "name": "29" }, "geometry": { "type": "Point", "coordinates": [ 5.3643874, 52.092074499110012 ] } },
{ "type": "Feature", "properties": { "@id": "node/1001327148", "name": "19" }, "geometry": { "type": "Point", "coordinates": [ 5.3689399, 52.108288499108795 ] } },
{ "type": "Feature", "properties": { "@id": "node/1200550060", "name": "43" }, "geometry": { "type": "Point", "coordinates": [ 5.3453849, 52.087440799110368 ] } },
{ "type": "Feature", "properties": { "@id": "node/1001327327", "name": "6" }, "geometry": { "type": "Point", "coordinates": [ 5.3787246, 52.122807699107739 ] } },
{ "type": "Feature", "properties": { "@id": "node/1163267958", "name": "37" }, "geometry": { "type": "Point", "coordinates": [ 5.3622044, 52.085170999110552 ] } },
{ "type": "Feature", "properties": { "@id": "node/1180949671", "name": "4" }, "geometry": { "type": "Point", "coordinates": [ 5.3761394, 52.121852399107802 ] } },
{ "type": "Feature", "properties": { "@id": "node/996455760", "name": "32" }, "geometry": { "type": "Point", "coordinates": [ 5.3712662, 52.088836299110255 ] } },
{ "type": "Feature", "properties": { "@id": "node/942676620", "name": "46" }, "geometry": { "type": "Point", "coordinates": [ 5.3405089, 52.084335799110598 ] } },
{ "type": "Feature", "properties": { "@id": "node/1163267956", "name": "35" }, "geometry": { "type": "Point", "coordinates": [ 5.3763861, 52.084237399110599 ] } },
{ "type": "Feature", "properties": { "@id": "node/45183946", "name": "T" }, "geometry": { "type": "Point", "coordinates": [ 5.3897274, 52.086475199110446 ] } },
{ "type": "Feature", "properties": { "@id": "node/1727242454", "name": "75" }, "geometry": { "type": "Point", "coordinates": [ 5.3368698, 52.055517999112865 ] } },
{ "type": "Feature", "properties": { "@id": "node/472409627", "name": "32" }, "geometry": { "type": "Point", "coordinates": [ 5.3209501, 52.073390899111459 ] } },
{ "type": "Feature", "properties": { "@id": "node/855705868", "name": "73" }, "geometry": { "type": "Point", "coordinates": [ 5.3414156, 52.057400199112706 ] } },
{ "type": "Feature", "properties": { "@id": "node/1727242430", "name": "76" }, "geometry": { "type": "Point", "coordinates": [ 5.3339306, 52.053716799113012 ] } },
{ "type": "Feature", "properties": { "@id": "node/110305742", "name": "T" }, "geometry": { "type": "Point", "coordinates": [ 5.3306587, 52.087772299110334 ] } },
{ "type": "Feature", "properties": { "@id": "node/1679654900", "name": "47" }, "geometry": { "type": "Point", "coordinates": [ 5.3339481, 52.084965799110549 ] } },
{ "type": "Feature", "properties": { "@id": "node/1018639011", "name": "34" }, "geometry": { "type": "Point", "coordinates": [ 5.3808607, 52.085659199110495 ] } },
{ "type": "Feature", "properties": { "@id": "node/1163267894", "name": "30" }, "geometry": { "type": "Point", "coordinates": [ 5.3678034, 52.091580099110047 ] } },
{ "type": "Feature", "properties": { "@id": "node/1200550040", "name": "41" }, "geometry": { "type": "Point", "coordinates": [ 5.3307497, 52.087923199110321 ] } },
{ "type": "Feature", "properties": { "@id": "node/1001327550", "name": "13" }, "geometry": { "type": "Point", "coordinates": [ 5.3930256, 52.112093299108516 ] } },
{ "type": "Feature", "properties": { "@id": "node/1011896156", "name": "60" }, "geometry": { "type": "Point", "coordinates": [ 5.3226008, 52.061291899112412 ] } },
{ "type": "Feature", "properties": { "@id": "node/942752224", "name": "40" }, "geometry": { "type": "Point", "coordinates": [ 5.3381805, 52.092944899109945 ] } },
{ "type": "Feature", "properties": { "@id": "node/1200550065", "name": "39" }, "geometry": { "type": "Point", "coordinates": [ 5.3485151, 52.093085399109931 ] } },
{ "type": "Feature", "properties": { "@id": "node/1163267942", "name": "33" }, "geometry": { "type": "Point", "coordinates": [ 5.3804345, 52.088269499110297 ] } },
{ "type": "Feature", "properties": { "@id": "node/4693427293", "name": "57" }, "geometry": { "type": "Point", "coordinates": [ 5.313337, 52.059651499112526 ] } },
{ "type": "Feature", "properties": { "@id": "node/1202007090", "name": "27" }, "geometry": { "type": "Point", "coordinates": [ 5.3686084, 52.093246299109929 ] } },
{ "type": "Feature", "properties": { "@id": "node/1181035533", "name": "1" }, "geometry": { "type": "Point", "coordinates": [ 5.3685381, 52.121407099107834 ] } },
{ "type": "Feature", "properties": { "@id": "node/505393658", "name": "52" }, "geometry": { "type": "Point", "coordinates": [ 5.3571698, 52.079179399111005 ] } },
{ "type": "Feature", "properties": { "@id": "node/1727242386", "name": "69" }, "geometry": { "type": "Point", "coordinates": [ 5.3304052, 52.051605899113177 ] } },
{ "type": "Feature", "properties": { "@id": "node/14204305792", "name": "T" }, "geometry": { "type": "Point", "coordinates": [ 5.3149816, 52.064935799112114 ] } },
{ "type": "Feature", "properties": { "@id": "node/1727242303", "name": "66" }, "geometry": { "type": "Point", "coordinates": [ 5.3242942, 52.047353199113516 ] } },
{ "type": "Feature", "properties": { "@id": "node/45018167", "name": "65" }, "geometry": { "type": "Point", "coordinates": [ 5.3217456, 52.04836989911341 ] } },
{ "type": "Feature", "properties": { "@id": "node/45150468", "name": "T" }, "geometry": { "type": "Point", "coordinates": [ 5.3248067, 52.078845799111043 ] } },
{ "type": "Feature", "properties": { "@id": "node/1019694392", "name": "17" }, "geometry": { "type": "Point", "coordinates": [ 5.3764909, 52.105614399108994 ] } },
{ "type": "Feature", "properties": { "@id": "node/45167950", "name": "T" }, "geometry": { "type": "Point", "coordinates": [ 5.3813, 52.083129999110689 ] } },
{ "type": "Feature", "properties": { "@id": "node/1019785408", "name": "11" }, "geometry": { "type": "Point", "coordinates": [ 5.3897196, 52.118480299108043 ] } },
{ "type": "Feature", "properties": { "@id": "node/824272201", "name": "51" }, "geometry": { "type": "Point", "coordinates": [ 5.352792, 52.069068299111791 ] } },
{ "type": "Feature", "properties": { "@id": "node/1001327002", "name": "16" }, "geometry": { "type": "Point", "coordinates": [ 5.3802681, 52.108047299108804 ] } },
{ "type": "Feature", "properties": { "@id": "node/45261318", "name": "T" }, "geometry": { "type": "Point", "coordinates": [ 5.4021198, 52.104421899109084 ] } },
{ "type": "Feature", "properties": { "@id": "node/966801683", "name": "61" }, "geometry": { "type": "Point", "coordinates": [ 5.329199, 52.058392499112628 ] } },
{ "type": "Feature", "properties": { "@id": "node/1679654909", "name": "T" }, "geometry": { "type": "Point", "coordinates": [ 5.3306303, 52.086383499110447 ] } },
{ "type": "Feature", "properties": { "@id": "node/45319812", "name": "20" }, "geometry": { "type": "Point", "coordinates": [ 5.3694427, 52.117700399108116 ] } },
{ "type": "Feature", "properties": { "@id": "node/996455825", "name": "18" }, "geometry": { "type": "Point", "coordinates": [ 5.3748034, 52.106133599108951 ] } },
{ "type": "Feature", "properties": { "@id": "node/1727242285", "name": "67" }, "geometry": { "type": "Point", "coordinates": [ 5.3270912, 52.046127299113614 ] } },
{ "type": "Feature", "properties": { "@id": "node/942724840", "name": "44" }, "geometry": { "type": "Point", "coordinates": [ 5.3539277, 52.085616099110517 ] } }
]
}
