{
"type": "FeatureCollection",
"name": "sql_statement",
"crs": { "type": "name", "properties": { "name": "urn:ogc:def:crs:OGC:1.3:CRS84" } },
"features": [
{ "type": "Feature", "properties": { "id": 1 }, "geometry": { "type": "LineString", "coordinates": [ [ 5.3634497, 52.091921999110014 ], [ 5.3632942, 52.091871399110033 ], [ 5.3632312, 52.091815399110061 ], [ 5.3631547, 52.091759299110031 ], [ 5.3630742, 52.091667899110035 ], [ 5.3630578, 52.091627999110052 ], [ 5.3630286, 52.091556599110056 ], [ 5.3630172, 52.091475899110065 ], [ 5.3629991, 52.091448299110056 ], [ 5.3629918, 52.091437599110073 ], [ 5.3629596, 52.091414499110051 ], [ 5.3629106, 52.091407499110062 ], [ 5.3628771, 52.091400099110075 ], [ 5.3628402, 52.091379099110078 ], [ 5.3628275, 52.091360499110081 ], [ 5.362796, 52.091287599110075 ], [ 5.3627591, 52.091240199110082 ], [ 5.3625244, 52.091105899110097 ], [ 5.3625016, 52.091088199110111 ], [ 5.3624828, 52.091012799110089 ], [ 5.3624614, 52.090972399110093 ], [ 5.3624084, 52.090931699110108 ], [ 5.3623822, 52.090888399110092 ], [ 5.3623554, 52.090822499110089 ], [ 5.3624037, 52.090728499110106 ], [ 5.3624171, 52.090623099110125 ], [ 5.3623769, 52.090586799110135 ], [ 5.3623393, 52.09054229911014 ], [ 5.3623205, 52.090479699110141 ], [ 5.3625378, 52.090440099110147 ], [ 5.3627349, 52.090284399110146 ], [ 5.3628114, 52.090223399110151 ], [ 5.3628275, 52.090166599110148 ], [ 5.3628355, 52.090111399110171 ], [ 5.3628121, 52.090082899110165 ], [ 5.3628181, 52.090024799110196 ], [ 5.3627846, 52.089988599110164 ], [ 5.3627846, 52.089937499110164 ], [ 5.3627209, 52.089891799110184 ], [ 5.3627336, 52.089803999110181 ], [ 5.3627457, 52.089763199110202 ], [ 5.3627229, 52.0897240991102 ], [ 5.3626612, 52.0897034991102 ], [ 5.3626344, 52.089660599110218 ], [ 5.3625458, 52.089596399110214 ], [ 5.3624547, 52.089525499110216 ], [ 5.3623795, 52.089423299110209 ], [ 5.3623179, 52.089395299110222 ], [ 5.3622374, 52.089337599110245 ], [ 5.3621757, 52.089306299110213 ], [ 5.3620805, 52.089217299110224 ], [ 5.3620496, 52.089194199110239 ], [ 5.362051, 52.089164599110234 ], [ 5.362, 52.089148899110235 ], [ 5.3619799, 52.089129099110224 ], [ 5.3619799, 52.089087899110247 ], [ 5.3621046, 52.08903359911023 ], [ 5.3621529, 52.08901459911025 ], [ 5.3622964, 52.089017899110253 ], [ 5.3623849, 52.089008799110232 ], [ 5.3624359, 52.088984899110237 ], [ 5.3624884, 52.088895199110269 ], [ 5.3629276, 52.088941399110261 ], [ 5.3628744, 52.088906999110257 ], [ 5.3627926, 52.088809799110258 ], [ 5.3628121, 52.08873689911028 ], [ 5.3628664, 52.088703099110269 ], [ 5.3629301, 52.088684999110271 ], [ 5.3630394, 52.088682499110277 ], [ 5.3631547, 52.088733599110263 ], [ 5.3632969, 52.088817699110265 ], [ 5.3633572, 52.088817699110265 ], [ 5.3635356, 52.08886549911027 ], [ 5.3636456, 52.089003099110258 ], [ 5.3636707, 52.089045899110239 ], [ 5.3637025, 52.089104399110248 ], [ 5.3637582, 52.08914479911023 ], [ 5.3637891, 52.089173599110232 ], [ 5.363832, 52.089183499110234 ], [ 5.3638521, 52.089211499110228 ], [ 5.3639151, 52.089223099110228 ], [ 5.3639419, 52.089262599110228 ], [ 5.364024, 52.089294199110213 ], [ 5.3641042, 52.089306299110213 ], [ 5.3642142, 52.089314499110209 ], [ 5.3643845, 52.089321099110222 ], [ 5.3644569, 52.08932149911022 ], [ 5.3645065, 52.08933599911024 ], [ 5.364583, 52.089350799110214 ], [ 5.3646192, 52.089344999110217 ], [ 5.3647399, 52.089302199110229 ], [ 5.364866, 52.089263499110217 ], [ 5.3649585, 52.089255999110229 ], [ 5.3651112, 52.089205899110233 ], [ 5.3653256, 52.089213099110239 ], [ 5.3656271, 52.089218199110235 ], [ 5.3663783, 52.089174699110238 ], [ 5.3664593, 52.08916999911024 ], [ 5.3669415, 52.089176099110233 ], [ 5.3670801, 52.089187599110232 ], [ 5.3674435, 52.089258999110235 ], [ 5.3676461, 52.089288999110209 ], [ 5.3678157, 52.089306199110233 ], [ 5.3682656, 52.089309299110212 ], [ 5.3683059, 52.089288199110214 ], [ 5.36833, 52.089268399110253 ], [ 5.3683247, 52.089243699110234 ], [ 5.3683099, 52.089223899110237 ], [ 5.3681168, 52.08923299911023 ], [ 5.3679854, 52.08921899911023 ], [ 5.3678834, 52.089189299110238 ], [ 5.3678687, 52.08916209911024 ], [ 5.3678727, 52.089100299110235 ], [ 5.3678915, 52.08904009911025 ], [ 5.3678667, 52.089006799110244 ], [ 5.367811, 52.088972599110249 ], [ 5.367744, 52.088962699110262 ], [ 5.3676675, 52.088961899110259 ], [ 5.3676394, 52.088968499110244 ], [ 5.3674932, 52.08902529911024 ], [ 5.3674529, 52.089054999110232 ], [ 5.3673953, 52.089074799110236 ], [ 5.3673363, 52.089082199110258 ], [ 5.367288, 52.089101899110233 ], [ 5.3672035, 52.089125799110242 ], [ 5.3671297, 52.089131599110225 ], [ 5.3670479, 52.089134899110228 ], [ 5.3669567, 52.089112699110238 ], [ 5.3669071, 52.08908549911024 ], [ 5.366891, 52.089053299110233 ], [ 5.3668857, 52.089007999110244 ], [ 5.3669232, 52.088956099110241 ], [ 5.3670117, 52.088925599110269 ], [ 5.3670654, 52.088890199110239 ], [ 5.3671029, 52.088838299110265 ], [ 5.3671123, 52.088806099110258 ], [ 5.3670989, 52.088777299110255 ], [ 5.3670332, 52.088760799110268 ], [ 5.3669554, 52.088759199110257 ], [ 5.3668025, 52.08872119911026 ], [ 5.3667006, 52.088679999110262 ], [ 5.3666697, 52.088658599110289 ], [ 5.3666362, 52.088628999110284 ], [ 5.3666389, 52.088576199110285 ], [ 5.366659, 52.088539999110282 ], [ 5.3667046, 52.088519399110304 ], [ 5.3668052, 52.088513599110286 ], [ 5.3668562, 52.08848389911028 ], [ 5.3668857, 52.088378499110298 ], [ 5.3668964, 52.08831089911029 ], [ 5.3668898, 52.08826139911033 ], [ 5.3668119, 52.088201299110317 ], [ 5.3667811, 52.088141999110313 ], [ 5.366777, 52.08807439911034 ], [ 5.3668293, 52.088011799110333 ], [ 5.3669238, 52.087924499110329 ], [ 5.3669715, 52.08790049911034 ], [ 5.366997, 52.087871699110337 ], [ 5.3669983, 52.087832899110339 ], [ 5.3668964, 52.087780199110341 ], [ 5.3668226, 52.087722499110335 ], [ 5.3668132, 52.087574999110359 ], [ 5.3667837, 52.087473699110369 ], [ 5.3667343, 52.087404899110375 ], [ 5.366639, 52.087298799110357 ], [ 5.3665744, 52.087276499110374 ], [ 5.3665963, 52.086891499110415 ], [ 5.3665991, 52.086516499110445 ], [ 5.3666803, 52.085278199110526 ], [ 5.3667609, 52.085249099110527 ], [ 5.3668454, 52.085203299110553 ], [ 5.366891, 52.085174499110536 ], [ 5.3670533, 52.085167099110542 ], [ 5.3672907, 52.085153099110549 ], [ 5.3673336, 52.085174499110536 ], [ 5.367343, 52.08519999911055 ], [ 5.3673738, 52.085244499110537 ], [ 5.367398, 52.08525689911054 ], [ 5.3674382, 52.085279999110533 ], [ 5.3675053, 52.085282399110547 ], [ 5.3675374, 52.085298899110548 ], [ 5.3675777, 52.085325299110529 ], [ 5.3676903, 52.08536159911052 ], [ 5.3678218, 52.085359099110526 ], [ 5.3679009, 52.085336799110515 ], [ 5.3680482, 52.085316499110533 ], [ 5.3682844, 52.085339699110513 ], [ 5.3683072, 52.085329399110535 ], [ 5.3683314, 52.085310499110527 ], [ 5.3683206, 52.085288999110546 ], [ 5.3683099, 52.08527339911052 ], [ 5.3682013, 52.085245399110541 ], [ 5.3681503, 52.085223899110531 ], [ 5.3679934, 52.085108599110548 ], [ 5.3679116, 52.085092899110542 ], [ 5.3677453, 52.085055799110549 ], [ 5.3676769, 52.085058299110536 ], [ 5.3676286, 52.08506899911054 ], [ 5.367571, 52.085078099110561 ], [ 5.367528, 52.085080499110546 ], [ 5.367469, 52.085068199110545 ], [ 5.3674369, 52.085059899110547 ], [ 5.3673859, 52.085031899110554 ], [ 5.3672813, 52.085004699110542 ], [ 5.3672478, 52.084994799110547 ], [ 5.3671874, 52.084985799110548 ], [ 5.3671794, 52.084973399110567 ], [ 5.3671955, 52.084936299110566 ], [ 5.367178, 52.084837399110569 ], [ 5.3671378, 52.084789599110564 ], [ 5.3670788, 52.084769899110583 ], [ 5.3670546, 52.084754999110565 ], [ 5.3670546, 52.08472989911057 ], [ 5.3671056, 52.084656999110585 ], [ 5.3671767, 52.084606699110587 ], [ 5.3673229, 52.084577799110576 ], [ 5.3673685, 52.084559699110585 ], [ 5.3673711, 52.084508599110592 ], [ 5.3673819, 52.084485499110585 ], [ 5.367516, 52.084353699110608 ], [ 5.3677007, 52.084318399110614 ], [ 5.3677601, 52.084305899110596 ], [ 5.3678808, 52.084346299110607 ], [ 5.3679478, 52.084346299110607 ], [ 5.3679894, 52.084311699110607 ], [ 5.3680994, 52.084303399110617 ], [ 5.3681812, 52.084325699110622 ], [ 5.3682885, 52.084323999110609 ], [ 5.3684279, 52.0842885991106 ], [ 5.3686117, 52.084273699110611 ], [ 5.368719, 52.084336399110605 ], [ 5.368849, 52.084360299110585 ], [ 5.3689282, 52.084342099110593 ], [ 5.3689992, 52.0842885991106 ], [ 5.3689966, 52.084206199110625 ], [ 5.3689536, 52.084129499110624 ], [ 5.3690401, 52.084076799110626 ], [ 5.3691129, 52.084008399110623 ], [ 5.3692028, 52.083923899110637 ], [ 5.3692896, 52.083885199110632 ], [ 5.3693664, 52.083862999110643 ], [ 5.3695196, 52.083794399110651 ], [ 5.3696202, 52.08380969911066 ], [ 5.3696772, 52.083822099110655 ], [ 5.3697153, 52.083833799110643 ], [ 5.3697318, 52.083845999110636 ], [ 5.3697402, 52.08387979911064 ], [ 5.3696602, 52.083910299110634 ], [ 5.3696731, 52.083975299110627 ], [ 5.369716, 52.083993799110637 ], [ 5.369779, 52.083992799110639 ], [ 5.3699235, 52.083998199110638 ], [ 5.3700508, 52.083880399110626 ], [ 5.3701765, 52.083791199110657 ], [ 5.3702748, 52.08378489911064 ], [ 5.3703569, 52.083809299110655 ], [ 5.3704313, 52.083842599110646 ], [ 5.3705107, 52.083925199110638 ], [ 5.3705601, 52.08397619911063 ], [ 5.3706144, 52.083981899110618 ], [ 5.3706888, 52.083980599110625 ], [ 5.3707618, 52.083954199110643 ], [ 5.3707904, 52.083923499110639 ], [ 5.3708219, 52.083875999110631 ], [ 5.3708505, 52.08378979911064 ], [ 5.370926, 52.083761599110645 ], [ 5.3710283, 52.083782899110645 ], [ 5.3710759, 52.083824999110639 ], [ 5.3710751, 52.083836399110645 ], [ 5.371027, 52.083878299110637 ], [ 5.3709592, 52.083895299110658 ], [ 5.3709349, 52.083965699110635 ], [ 5.3709435, 52.083998199110638 ], [ 5.3709849, 52.084031599110631 ], [ 5.3709733, 52.084057799110617 ], [ 5.3709452, 52.084088299110604 ], [ 5.3708754, 52.084192199110618 ], [ 5.3708708, 52.084298699110612 ], [ 5.3708594, 52.084332299110606 ], [ 5.3707615, 52.084435299110616 ], [ 5.3707118, 52.084534199110585 ], [ 5.370736, 52.084628099110596 ], [ 5.3707588, 52.084655299110601 ], [ 5.3708138, 52.084693199110575 ], [ 5.3708647, 52.084708899110566 ], [ 5.3709412, 52.084708899110566 ], [ 5.3709854, 52.084671799110581 ], [ 5.3710283, 52.084637199110574 ], [ 5.3711356, 52.084639599110588 ], [ 5.3711946, 52.084654499110592 ], [ 5.3712295, 52.084674299110574 ], [ 5.3712443, 52.084701499110587 ], [ 5.3712308, 52.084758299110575 ], [ 5.371263, 52.084792099110572 ], [ 5.3713582, 52.084795399110561 ], [ 5.3714226, 52.084821999110559 ], [ 5.371649, 52.084830299110564 ], [ 5.3717096, 52.084822599110574 ], [ 5.371778, 52.084847299110564 ], [ 5.3718276, 52.084884399110557 ], [ 5.3719175, 52.084896799110567 ], [ 5.3720154, 52.084905799110579 ], [ 5.3720731, 52.084931399110566 ], [ 5.3720985, 52.084960199110554 ], [ 5.3720918, 52.084999799110555 ], [ 5.3719564, 52.085039299110548 ], [ 5.3718346, 52.085058499110566 ], [ 5.3716761, 52.085082199110552 ], [ 5.3716104, 52.085093699110558 ], [ 5.3715608, 52.08510609911054 ], [ 5.3715648, 52.085138199110553 ], [ 5.371609, 52.085152199110553 ], [ 5.3717887, 52.085167099110542 ], [ 5.3718692, 52.085204999110537 ], [ 5.3718974, 52.085294799110521 ], [ 5.3718889, 52.085408999110534 ], [ 5.3719148, 52.085464599110502 ], [ 5.3720435, 52.085552699110515 ], [ 5.3720355, 52.085612899110494 ], [ 5.371947, 52.085667299110497 ], [ 5.3718821, 52.085703199110505 ], [ 5.3719054, 52.085769499110498 ], [ 5.372069, 52.085821399110486 ], [ 5.3722903, 52.085864199110475 ], [ 5.3722964, 52.085934899110484 ], [ 5.3722085, 52.085986199110486 ], [ 5.3721213, 52.086019999110484 ], [ 5.3719684, 52.086035699110461 ], [ 5.3718813, 52.086071899110479 ], [ 5.3718665, 52.086115599110464 ], [ 5.3719014, 52.086130399110473 ], [ 5.3719297, 52.086137999110477 ], [ 5.3720489, 52.086141999110467 ], [ 5.3722407, 52.086153499110459 ], [ 5.3723788, 52.08619469911045 ], [ 5.3723915, 52.086249299110449 ], [ 5.3723627, 52.086310899110465 ], [ 5.3723815, 52.086355399110445 ], [ 5.3724405, 52.086363599110449 ], [ 5.3725478, 52.086339699110454 ], [ 5.3726698, 52.086305099110447 ], [ 5.3726953, 52.086333099110441 ], [ 5.3726833, 52.086424599110444 ], [ 5.3727061, 52.086476499110425 ], [ 5.3727208, 52.086521899110444 ], [ 5.3727584, 52.086560599110435 ], [ 5.3728522, 52.086678399110419 ], [ 5.372867, 52.086768299110403 ], [ 5.3728737, 52.086825099110413 ], [ 5.3728093, 52.086933099110404 ], [ 5.3727999, 52.086982499110391 ], [ 5.3728026, 52.087024499110399 ], [ 5.3728361, 52.087082199110398 ], [ 5.3728294, 52.087157199110393 ], [ 5.3728227, 52.087218999110377 ], [ 5.3728737, 52.087230599110399 ], [ 5.3730145, 52.087206699110389 ], [ 5.3731339, 52.087192599110381 ], [ 5.3732398, 52.08718519911038 ], [ 5.3733203, 52.087226399110392 ], [ 5.3733632, 52.087276699110383 ], [ 5.3734598, 52.087341799110384 ], [ 5.3735648, 52.087407799110387 ], [ 5.3736261, 52.087447299110359 ], [ 5.3737414, 52.08749509911037 ], [ 5.3739278, 52.087519799110368 ], [ 5.3739667, 52.087547799110382 ], [ 5.3740445, 52.087631899110349 ], [ 5.3741759, 52.08765329911035 ], [ 5.3743249, 52.087640299110348 ], [ 5.3744441, 52.087696099110353 ], [ 5.374487, 52.087736499110342 ], [ 5.3745756, 52.087785099110334 ], [ 5.3747365, 52.087814799110333 ], [ 5.3747874, 52.087814399110329 ], [ 5.3749618, 52.087777699110347 ], [ 5.3750463, 52.087817699110346 ], [ 5.3750463, 52.087843599110357 ], [ 5.3750771, 52.087890599110338 ], [ 5.3751147, 52.087966399110329 ], [ 5.375167, 52.087992799110324 ], [ 5.3752796, 52.088002699110326 ], [ 5.3754044, 52.088035699110343 ], [ 5.3755331, 52.088105699110315 ], [ 5.3756136, 52.088177399110307 ], [ 5.3757262, 52.088246599110292 ], [ 5.3757799, 52.088300999110317 ], [ 5.3758469, 52.088332299110292 ], [ 5.375914, 52.088343799110298 ], [ 5.375981, 52.088355399110306 ], [ 5.3760333, 52.088348799110292 ], [ 5.376083, 52.088333999110326 ], [ 5.3761609, 52.088289999110316 ], [ 5.3761994, 52.0882454991103 ], [ 5.3761836, 52.088188399110294 ], [ 5.3761728, 52.088157599110332 ], [ 5.3761245, 52.088131199110315 ], [ 5.3757597, 52.088060399110319 ], [ 5.3756632, 52.08803399911033 ], [ 5.3755841, 52.087984599110328 ], [ 5.3755559, 52.087926899110336 ], [ 5.3755825, 52.087816999110338 ], [ 5.3756136, 52.087702699110345 ], [ 5.3756565, 52.087683799110344 ], [ 5.3757289, 52.087669799110358 ], [ 5.3757825, 52.087695299110358 ], [ 5.3758201, 52.087727499110336 ], [ 5.3758429, 52.087756299110339 ], [ 5.3759126, 52.087764499110349 ], [ 5.3759609, 52.087747199110339 ], [ 5.3759904, 52.087722499110335 ], [ 5.3759971, 52.087676399110343 ], [ 5.3759864, 52.087652499110362 ], [ 5.375973, 52.087630999110345 ], [ 5.3758804, 52.087605499110346 ], [ 5.3758145, 52.087579099110364 ], [ 5.3757906, 52.087539599110357 ], [ 5.375796, 52.087499199110368 ], [ 5.3757906, 52.087401099110359 ], [ 5.3757852, 52.087368199110387 ], [ 5.3756002, 52.087284099110384 ], [ 5.3755116, 52.087214899110378 ], [ 5.3754835, 52.087183599110389 ], [ 5.3754741, 52.087104499110382 ], [ 5.375399, 52.08703849911042 ], [ 5.3753225, 52.087035299110383 ], [ 5.3752166, 52.087043499110408 ], [ 5.3751281, 52.087033599110391 ], [ 5.3750798, 52.087010499110413 ], [ 5.375053, 52.086986199110399 ], [ 5.3750461, 52.086950099110403 ], [ 5.3750349, 52.086891899110405 ], [ 5.3749993, 52.086842399110402 ], [ 5.3750396, 52.086769899110429 ], [ 5.3749913, 52.086733599110417 ], [ 5.3749108, 52.086727099110419 ], [ 5.3747392, 52.086741899110407 ], [ 5.3745353, 52.086722099110432 ], [ 5.3744307, 52.086708099110425 ], [ 5.374369, 52.086672699110444 ], [ 5.3741665, 52.086697399110427 ], [ 5.374023, 52.086727099110419 ], [ 5.3739345, 52.086779799110424 ], [ 5.3738488, 52.086857899110413 ], [ 5.373787, 52.086868799110405 ], [ 5.373732, 52.086864699110421 ], [ 5.3737092, 52.086831699110405 ], [ 5.3737119, 52.086803699110419 ], [ 5.373732, 52.086655399110413 ], [ 5.3738138, 52.086580399110439 ], [ 5.37385, 52.086545799110446 ], [ 5.3739037, 52.086560599110435 ], [ 5.3739506, 52.086543299110438 ], [ 5.3739801, 52.086517699110431 ], [ 5.373956, 52.086479799110435 ], [ 5.3739975, 52.086413899110433 ], [ 5.3740217, 52.086371899110446 ], [ 5.374039, 52.086317799110446 ], [ 5.3741491, 52.086272199110454 ], [ 5.3742054, 52.086267999110454 ], [ 5.3742736, 52.086317199110461 ], [ 5.3742568, 52.086362699110452 ], [ 5.3742148, 52.086422999110461 ], [ 5.3742121, 52.086462499110446 ], [ 5.3742615, 52.08650659911045 ], [ 5.3744924, 52.086621599110444 ], [ 5.3746909, 52.086627299110447 ], [ 5.3748626, 52.086657799110426 ], [ 5.3749712, 52.086633099110429 ], [ 5.3751723, 52.086618299110427 ], [ 5.3752327, 52.086622399110439 ], [ 5.3752649, 52.086647099110436 ], [ 5.3752904, 52.086705599110431 ], [ 5.3752743, 52.086755099110434 ], [ 5.3752313, 52.086851199110413 ], [ 5.3753185, 52.086907499110417 ], [ 5.3753511, 52.086926199110401 ], [ 5.375466, 52.086992399110393 ], [ 5.3756149, 52.087066599110393 ], [ 5.3756592, 52.087087999110416 ], [ 5.375682, 52.087098699110392 ], [ 5.3757326, 52.087092899110381 ], [ 5.3759153, 52.087051699110397 ], [ 5.3760655, 52.086992399110393 ], [ 5.376149, 52.086969199110399 ], [ 5.3762761, 52.086816899110424 ], [ 5.3763485, 52.086784699110439 ], [ 5.3765309, 52.086753399110421 ], [ 5.3766757, 52.086751799110409 ], [ 5.3768899, 52.086729199110422 ], [ 5.377062, 52.086736899110413 ], [ 5.3771612, 52.086732799110436 ], [ 5.3773007, 52.086703999110433 ], [ 5.377306, 52.086659499110418 ], [ 5.3772873, 52.086621599110444 ], [ 5.3772618, 52.086597699110442 ], [ 5.3771887, 52.08658029911043 ], [ 5.3770271, 52.08660009911042 ], [ 5.3769064, 52.086628199110429 ], [ 5.3767106, 52.086618299110427 ], [ 5.3766569, 52.086588599110421 ], [ 5.3766355, 52.086552399110438 ], [ 5.3766221, 52.086451799110428 ], [ 5.3766409, 52.086387499110465 ], [ 5.3766127, 52.086349599110449 ], [ 5.3765738, 52.086315799110452 ], [ 5.3764357, 52.086244099110466 ], [ 5.3763494, 52.086209399110452 ], [ 5.3762908, 52.086197199110458 ], [ 5.3762334, 52.086178299110479 ], [ 5.3760642, 52.086178199110471 ], [ 5.3760052, 52.086168299110454 ], [ 5.3759757, 52.086135399110468 ], [ 5.3759395, 52.086074399110487 ], [ 5.3758737, 52.086043099110476 ], [ 5.3758174, 52.085978799110471 ], [ 5.3758684, 52.085878299110483 ], [ 5.3759998, 52.08582879911048 ], [ 5.3760883, 52.085813999110499 ], [ 5.3761862, 52.085840299110487 ], [ 5.3762546, 52.085863399110487 ], [ 5.3763096, 52.085930999110488 ], [ 5.3763827, 52.085972099110471 ], [ 5.3764343, 52.086031499110469 ], [ 5.3765389, 52.086163399110454 ], [ 5.376665, 52.086253999110461 ], [ 5.3767522, 52.086314199110454 ], [ 5.3768085, 52.086339699110454 ], [ 5.3768675, 52.08635699911045 ], [ 5.37696, 52.086362799110454 ], [ 5.3772242, 52.086395799110441 ], [ 5.3772873, 52.086468299110436 ], [ 5.3773946, 52.086572099110434 ], [ 5.3774616, 52.086674299110427 ], [ 5.3774428, 52.086779799110424 ], [ 5.3774884, 52.086855599110415 ], [ 5.3775904, 52.086941299110393 ], [ 5.377695, 52.086969299110393 ], [ 5.3778425, 52.086994099110392 ], [ 5.3779444, 52.087030299110396 ], [ 5.3779632, 52.087084699110378 ], [ 5.3779927, 52.087129199110379 ], [ 5.3779954, 52.087171199110394 ], [ 5.3779149, 52.087279199110355 ], [ 5.3778774, 52.087335199110385 ], [ 5.3778197, 52.087389599110359 ], [ 5.3777442, 52.08743789911037 ], [ 5.3776923, 52.087534599110356 ], [ 5.377695, 52.087592299110341 ], [ 5.3776467, 52.087636799110342 ], [ 5.3773999, 52.087717599110341 ], [ 5.3773597, 52.087763699110333 ], [ 5.3773529, 52.087803099110346 ], [ 5.3774026, 52.087864299110329 ], [ 5.3774214, 52.087911999110325 ], [ 5.377408, 52.087938399110314 ], [ 5.377349, 52.087958199110332 ], [ 5.3772685, 52.087984599110328 ], [ 5.3772091, 52.088047199110306 ], [ 5.3771859, 52.088099699110323 ], [ 5.3771639, 52.088123799110321 ], [ 5.3771196, 52.088128799110315 ], [ 5.3770258, 52.088147699110309 ], [ 5.3769842, 52.088167499110313 ], [ 5.3769949, 52.088210299110308 ], [ 5.3771049, 52.088271599110293 ], [ 5.3771679, 52.088304299110305 ], [ 5.3771638, 52.088377599110302 ], [ 5.3771412, 52.088454099110294 ], [ 5.377003, 52.08849629911029 ], [ 5.3768648, 52.088527599110272 ], [ 5.3767844, 52.08853499911028 ], [ 5.3767173, 52.088531699110298 ], [ 5.3766328, 52.088505399110275 ], [ 5.376543, 52.088511099110292 ], [ 5.3765202, 52.088535799110296 ], [ 5.3765215, 52.088568799110284 ], [ 5.3765537, 52.088595999110268 ], [ 5.3765818, 52.088605899110277 ], [ 5.3766677, 52.088596799110292 ], [ 5.3767025, 52.08860089911029 ], [ 5.3767361, 52.088617399110284 ], [ 5.3767817, 52.088642999110277 ], [ 5.3768072, 52.088651199110274 ], [ 5.3768487, 52.088661099110269 ], [ 5.3769024, 52.088662699110294 ], [ 5.3769741, 52.08867219911027 ], [ 5.3769989, 52.088695699110275 ], [ 5.3769406, 52.088748899110264 ], [ 5.3769037, 52.088783899110275 ], [ 5.3768675, 52.088785499110266 ], [ 5.3768326, 52.088783899110275 ], [ 5.3767736, 52.088756699110256 ], [ 5.3767186, 52.088747999110261 ], [ 5.3766543, 52.088746799110254 ], [ 5.3766395, 52.088771099110289 ], [ 5.3766449, 52.088789199110273 ], [ 5.376659, 52.088815999110281 ], [ 5.3766824, 52.08883329911027 ], [ 5.3767186, 52.088879499110242 ], [ 5.3767066, 52.088928899110257 ], [ 5.3766341, 52.088985799110255 ], [ 5.3765973, 52.089023699110264 ], [ 5.3764802, 52.089160099110231 ], [ 5.3759979, 52.089280899110243 ], [ 5.3755955, 52.089353799110214 ], [ 5.37545, 52.089476099110215 ], [ 5.3751817, 52.089658999110199 ], [ 5.374833, 52.089686999110192 ], [ 5.3746238, 52.089719999110194 ], [ 5.3744978, 52.089713399110202 ], [ 5.3742939, 52.089714999110193 ], [ 5.3741491, 52.089817199110186 ], [ 5.3740901, 52.089902899110186 ], [ 5.3741196, 52.090000099110178 ], [ 5.3742295, 52.09015669911016 ], [ 5.3742671, 52.090311599110159 ], [ 5.3742483, 52.090407199110139 ], [ 5.3742215, 52.090449999110135 ], [ 5.3742537, 52.090560399110124 ], [ 5.3742591, 52.090647799110137 ], [ 5.3742242, 52.090789499110137 ], [ 5.3741937, 52.0908440991101 ], [ 5.3742365, 52.090924499110095 ], [ 5.374387, 52.091352399110058 ], [ 5.3743998, 52.09159529911004 ], [ 5.3743952, 52.091679399110049 ], [ 5.3743848, 52.09195619911003 ], [ 5.3744629, 52.092030399110016 ], [ 5.3745916, 52.092068299109982 ], [ 5.3747204, 52.092061699110033 ], [ 5.3748277, 52.092111199110015 ], [ 5.3749028, 52.092242999110013 ], [ 5.374994, 52.092327099109987 ], [ 5.3751093, 52.092364999109975 ], [ 5.375289, 52.092328699109999 ], [ 5.3754285, 52.092307299110004 ], [ 5.3756055, 52.092287499110014 ], [ 5.3757396, 52.09227929910999 ], [ 5.3758281, 52.092302299110003 ], [ 5.3759596, 52.09233609911 ], [ 5.3760427, 52.092343499109987 ], [ 5.3762399, 52.09235509910998 ], [ 5.3763525, 52.092379799110006 ], [ 5.376422, 52.092402399109986 ], [ 5.3766169, 52.092388999109986 ], [ 5.3766422, 52.092426799109973 ], [ 5.3766341, 52.092523999109979 ], [ 5.3767227, 52.09258409910997 ], [ 5.3767178, 52.092709099109967 ], [ 5.3767803, 52.092743199109954 ], [ 5.3768922, 52.092742499109953 ], [ 5.3770123, 52.09269779910997 ], [ 5.3770499, 52.092710199109966 ], [ 5.3770579, 52.092734099109961 ], [ 5.3771548, 52.092786999109961 ], [ 5.3772162, 52.092809099109964 ], [ 5.3773583, 52.092826399109974 ], [ 5.3774093, 52.092860999109952 ], [ 5.3773221, 52.092926099109938 ], [ 5.3772283, 52.092983699109944 ], [ 5.3772363, 52.093008499109949 ], [ 5.377298, 52.09303809910994 ], [ 5.3772419, 52.093084699109937 ], [ 5.3772859, 52.093108199109949 ], [ 5.3772712, 52.093149399109933 ], [ 5.3772578, 52.09317239910991 ], [ 5.3772309, 52.093184799109935 ], [ 5.3771693, 52.093176499109909 ], [ 5.3770727, 52.093183099109943 ], [ 5.3770123, 52.093192999109924 ], [ 5.3768675, 52.093272099109925 ], [ 5.3767616, 52.093296799109929 ], [ 5.3765953, 52.093356199109927 ], [ 5.3765872, 52.093402299109933 ], [ 5.3765336, 52.09342039910991 ], [ 5.3764357, 52.093450899109925 ], [ 5.3763981, 52.09355719910991 ], [ 5.3763847, 52.093610799109889 ], [ 5.3763874, 52.093660999109886 ], [ 5.3764357, 52.093670099109893 ], [ 5.3765336, 52.093654399109873 ], [ 5.376606, 52.093644499109899 ], [ 5.3766905, 52.093672599109887 ], [ 5.3767066, 52.093695599109871 ], [ 5.376716, 52.093720399109891 ], [ 5.3766865, 52.093766499109883 ], [ 5.3766236, 52.093797699109885 ], [ 5.376551, 52.093821699109888 ], [ 5.3762814, 52.093908199109869 ], [ 5.3762734, 52.093961799109856 ], [ 5.3762251, 52.094035099109867 ], [ 5.3762278, 52.094112499109862 ], [ 5.3762077, 52.094181799109847 ], [ 5.3762251, 52.094220499109845 ], [ 5.3762908, 52.094241899109846 ], [ 5.3763901, 52.094268299109849 ], [ 5.3764652, 52.094310299109821 ], [ 5.3764786, 52.094350699109839 ], [ 5.3765215, 52.09438279910983 ], [ 5.3765456, 52.094428099109834 ], [ 5.3765872, 52.094431399109844 ], [ 5.3766328, 52.094447899109845 ], [ 5.3766865, 52.094464399109825 ], [ 5.3767079, 52.094491499109814 ], [ 5.3767723, 52.094515399109831 ], [ 5.376775, 52.094559899109811 ], [ 5.3767991, 52.094591199109814 ], [ 5.3767589, 52.094642299109829 ], [ 5.3767736, 52.094666199109803 ], [ 5.3767835, 52.094813499109812 ], [ 5.3766368, 52.095013099109806 ], [ 5.37676, 52.095004999109797 ], [ 5.3768395, 52.095094999109783 ], [ 5.376932, 52.095212099109766 ], [ 5.3770565, 52.095342999109782 ], [ 5.377064, 52.095415999109754 ], [ 5.3770395, 52.095464699109748 ], [ 5.3770508, 52.095499499109756 ], [ 5.3770942, 52.095514599109741 ], [ 5.377164, 52.095521499109758 ], [ 5.3772282, 52.095509899109757 ], [ 5.3773074, 52.095526099109755 ], [ 5.3774394, 52.095542399109746 ], [ 5.3774677, 52.095558599109737 ], [ 5.3775413, 52.095572899109754 ], [ 5.3776344, 52.095613999109737 ], [ 5.3776839, 52.095643699109736 ], [ 5.3776963, 52.095691399109739 ], [ 5.3777424, 52.095820899109725 ], [ 5.3778141, 52.095881099109725 ], [ 5.3778778, 52.095929799109712 ], [ 5.3780247, 52.095958899109718 ], [ 5.3780492, 52.096017199109703 ], [ 5.3781261, 52.096060399109703 ], [ 5.3782475, 52.096136099109714 ], [ 5.3783186, 52.096132799109704 ], [ 5.3784285, 52.096089899109721 ], [ 5.3785117, 52.096066899109722 ], [ 5.3785989, 52.096085799109709 ], [ 5.378619, 52.096111799109721 ], [ 5.3786773, 52.096110099109715 ], [ 5.3787196, 52.096126199109719 ], [ 5.3788188, 52.096185499109701 ], [ 5.3790642, 52.096336299109701 ], [ 5.3790978, 52.096458999109686 ], [ 5.3791367, 52.096534799109683 ], [ 5.3792413, 52.096612299109665 ], [ 5.3792976, 52.09666009910967 ], [ 5.379319, 52.09673589910966 ], [ 5.3792641, 52.096818199109649 ], [ 5.3791675, 52.096872599109638 ], [ 5.3790334, 52.096927799109643 ], [ 5.3789502, 52.096987999109651 ], [ 5.3789945, 52.097129699109637 ], [ 5.3790709, 52.097165099109631 ], [ 5.3791594, 52.097218599109631 ], [ 5.3792399, 52.097291099109611 ], [ 5.3792587, 52.097378499109617 ], [ 5.379256, 52.097603399109595 ], [ 5.3792225, 52.097828299109587 ], [ 5.379227, 52.097973099109566 ], [ 5.3792721, 52.098145499109563 ], [ 5.379378, 52.098253399109538 ], [ 5.3794827, 52.098311099109544 ], [ 5.3795055, 52.098383599109539 ], [ 5.3794706, 52.098463499109528 ], [ 5.3794639, 52.098559899109539 ], [ 5.3794733, 52.09865959910951 ], [ 5.3794223, 52.098730399109513 ], [ 5.3793472, 52.098794699109504 ], [ 5.3792573, 52.098852399109497 ], [ 5.3792158, 52.0988976991095 ], [ 5.3791899, 52.098954099109491 ], [ 5.3791595, 52.09903519910948 ], [ 5.3791444, 52.099113599109494 ], [ 5.3790716, 52.09912219910948 ], [ 5.3790039, 52.099133299109482 ], [ 5.3788852, 52.099172799109475 ], [ 5.3787494, 52.099188399109487 ], [ 5.3786934, 52.099174899109471 ], [ 5.3786257, 52.099168499109474 ], [ 5.3785932, 52.099140499109467 ], [ 5.3785177, 52.099134099109477 ], [ 5.3784267, 52.099113299109476 ], [ 5.3783759, 52.09910049910949 ], [ 5.3782887, 52.0991092991095 ], [ 5.3782432, 52.099098899109464 ], [ 5.3781638, 52.099101299109485 ], [ 5.3781091, 52.099073299109477 ], [ 5.3780389, 52.099084499109495 ], [ 5.3780037, 52.099110899109469 ], [ 5.3779426, 52.099126099109469 ], [ 5.3778658, 52.099133299109482 ], [ 5.3777565, 52.099157299109478 ], [ 5.3775952, 52.099144499109485 ], [ 5.3775158, 52.099145299109473 ], [ 5.377344, 52.09916529910948 ], [ 5.3771931, 52.099233199109477 ], [ 5.3771514, 52.099269199109472 ], [ 5.3771723, 52.099312299109464 ], [ 5.3771241, 52.099359499109461 ], [ 5.3770812, 52.09938189910946 ], [ 5.3770629, 52.099434599109458 ], [ 5.3770621, 52.099465799109446 ], [ 5.3770776, 52.099491399109461 ], [ 5.3770617, 52.099512999109457 ], [ 5.3770594, 52.09953789910945 ], [ 5.3770334, 52.099556199109472 ], [ 5.3770085, 52.099585699109447 ], [ 5.3769739, 52.099627199109449 ], [ 5.3769591, 52.099696499109434 ], [ 5.3768707, 52.099748499109438 ], [ 5.3768462, 52.099772199109424 ], [ 5.3768339, 52.099851099109429 ], [ 5.3768769, 52.099990199109428 ], [ 5.3768626, 52.100082099109407 ], [ 5.3768365, 52.100313899109402 ], [ 5.3768316, 52.100438799109384 ], [ 5.3768675, 52.100445599109406 ], [ 5.3769708, 52.100456799109374 ], [ 5.3771076, 52.10047779910937 ], [ 5.3773275, 52.10050659910938 ], [ 5.3773919, 52.100557699109373 ], [ 5.3774242, 52.100631899109374 ], [ 5.3774321, 52.100707599109349 ], [ 5.3773516, 52.100784999109372 ], [ 5.3772336, 52.10086579910935 ], [ 5.3771626, 52.100928299109349 ], [ 5.377121, 52.100994299109345 ], [ 5.3771424, 52.101046999109322 ], [ 5.3770941, 52.101094799109333 ], [ 5.3770612, 52.101201099109311 ], [ 5.3765829, 52.101283099109331 ], [ 5.3757979, 52.101386199109307 ], [ 5.3758255, 52.101440999109315 ], [ 5.3758567, 52.101490499109289 ], [ 5.3758983, 52.101524099109305 ], [ 5.3759205, 52.101552899109301 ], [ 5.3758697, 52.10159439910931 ], [ 5.3758476, 52.101618399109284 ], [ 5.375832, 52.101651999109293 ], [ 5.3758242, 52.101685499109301 ], [ 5.3757682, 52.101764799109283 ], [ 5.3757382, 52.101851999109279 ], [ 5.375725, 52.101937499109276 ], [ 5.3756946, 52.10197409910927 ], [ 5.3756746, 52.102016599109255 ], [ 5.3756669, 52.10205419910924 ], [ 5.3756742, 52.102087999109273 ], [ 5.3756462, 52.10213129910926 ], [ 5.3756814, 52.10217649910927 ], [ 5.375756, 52.102209599109266 ], [ 5.3757384, 52.10224899910925 ], [ 5.3757426, 52.102276399109243 ], [ 5.3757716, 52.102305699109237 ], [ 5.3758193, 52.102429199109231 ], [ 5.3758701, 52.102472499109219 ], [ 5.3758939, 52.102525999109226 ], [ 5.3759208, 52.102545699109221 ], [ 5.3759768, 52.102551399109224 ], [ 5.3760235, 52.102566699109225 ], [ 5.3760722, 52.102604899109224 ], [ 5.3761136, 52.102642499109216 ], [ 5.3761696, 52.10264569910921 ], [ 5.3761862, 52.102655199109222 ], [ 5.376181, 52.102687099109211 ], [ 5.3760825, 52.102714399109217 ], [ 5.3760763, 52.102737999109216 ], [ 5.3760825, 52.102754499109203 ], [ 5.3761385, 52.102769199109197 ], [ 5.3761758, 52.102788299109207 ], [ 5.3762608, 52.10278259910919 ], [ 5.3763323, 52.102832799109201 ], [ 5.3764696, 52.102974799109191 ], [ 5.376525, 52.103055199109185 ], [ 5.3765725, 52.103083999109195 ], [ 5.376588, 52.103123899109185 ], [ 5.3765882, 52.10314169910918 ], [ 5.3765844, 52.103160299109163 ], [ 5.3765614, 52.103179799109171 ], [ 5.3765014, 52.103239899109177 ], [ 5.3765228, 52.103335499109157 ], [ 5.3765202, 52.103411299109162 ], [ 5.3765141, 52.10347289910915 ], [ 5.3764424, 52.103613899109121 ], [ 5.3765255, 52.103720999109143 ], [ 5.3765658, 52.103813299109135 ], [ 5.3766811, 52.103879199109123 ], [ 5.3768152, 52.103937599109109 ], [ 5.3769211, 52.103968099109117 ], [ 5.3769935, 52.104005099109116 ], [ 5.3770668, 52.104016899109112 ], [ 5.377118, 52.10403359910913 ], [ 5.377227, 52.104043999109116 ], [ 5.3774681, 52.104065999109096 ], [ 5.3775537, 52.104127899109109 ], [ 5.3776969, 52.104230599109087 ], [ 5.3777149, 52.104309399109077 ], [ 5.3777375, 52.104400299109088 ], [ 5.3778239, 52.104447299109083 ], [ 5.3778503, 52.10451649910906 ], [ 5.3780011, 52.104557299109068 ], [ 5.3780508, 52.104637799109085 ], [ 5.3780469, 52.104699099109062 ], [ 5.3780757, 52.10472979910908 ], [ 5.3781231, 52.104812399109051 ], [ 5.3781642, 52.104838599109051 ], [ 5.3782377, 52.104877199109048 ], [ 5.3783017, 52.104973499109036 ], [ 5.3783796, 52.105005299109052 ], [ 5.3786291, 52.105164099109039 ], [ 5.3786475, 52.105191999109017 ], [ 5.378656, 52.105226799109005 ], [ 5.3786943, 52.105249299109026 ], [ 5.3788048, 52.105330399109008 ], [ 5.378853, 52.105352099109005 ], [ 5.3789225, 52.105346099109013 ], [ 5.3790146, 52.105386099108991 ], [ 5.3790968, 52.10544879910902 ], [ 5.3791861, 52.105490599109004 ], [ 5.3793731, 52.105530599109002 ], [ 5.3794511, 52.105547999109 ], [ 5.3795574, 52.105554099109 ], [ 5.3797076, 52.105562799108988 ], [ 5.379838, 52.105650699108978 ], [ 5.3799471, 52.105779599108985 ], [ 5.3800237, 52.105919699108973 ], [ 5.3800435, 52.106028499108952 ], [ 5.380181, 52.106065099108953 ], [ 5.3802306, 52.106095499108953 ], [ 5.3802391, 52.106134699108971 ], [ 5.3803071, 52.106158199108961 ], [ 5.3803425, 52.106222999108951 ], [ 5.3803454, 52.106240899108947 ], [ 5.3805735, 52.106351299108944 ], [ 5.3807153, 52.106496799108918 ], [ 5.3809531, 52.106618299108924 ], [ 5.3810828, 52.106686299108908 ], [ 5.3811941, 52.106718099108903 ], [ 5.3812872, 52.106748099108906 ], [ 5.3813975, 52.106762199108914 ], [ 5.3814139, 52.106794499108894 ], [ 5.3814267, 52.106798899108909 ], [ 5.3815103, 52.106860999108918 ], [ 5.3815926, 52.106869399108902 ], [ 5.381679, 52.106864199108898 ], [ 5.3817584, 52.106845899108905 ], [ 5.3819171, 52.106796299108908 ], [ 5.3820812, 52.106747299108903 ], [ 5.3822763, 52.106741499108914 ], [ 5.3823324, 52.106760599108917 ], [ 5.3825501, 52.106768499108902 ], [ 5.3827788, 52.10675879910891 ], [ 5.3829942, 52.106840699108893 ], [ 5.3831742, 52.106902499108898 ], [ 5.3832918, 52.106962499108889 ], [ 5.3833046, 52.1070321991089 ], [ 5.3832989, 52.107056499108886 ], [ 5.3834236, 52.107097399108895 ], [ 5.3835115, 52.107130499108877 ], [ 5.3836419, 52.107151399108851 ], [ 5.383734, 52.107160599108894 ], [ 5.3838786, 52.107147899108888 ], [ 5.3842286, 52.107074799108894 ], [ 5.3842938, 52.107117499108902 ], [ 5.384342, 52.107139199108893 ], [ 5.3843902, 52.107184499108861 ], [ 5.3843732, 52.107268899108888 ], [ 5.3843817, 52.107301999108856 ], [ 5.3844327, 52.107322899108873 ], [ 5.3844852, 52.107328099108869 ], [ 5.3845518, 52.107336799108857 ], [ 5.3845872, 52.107354199108862 ], [ 5.3845858, 52.107413399108843 ], [ 5.3845744, 52.107487399108848 ], [ 5.3846127, 52.107581399108852 ], [ 5.3846765, 52.107648399108825 ], [ 5.3846907, 52.107691999108845 ], [ 5.3847275, 52.107727699108835 ], [ 5.3847743, 52.107768599108837 ], [ 5.3847559, 52.107833799108839 ], [ 5.3847063, 52.107895599108815 ], [ 5.3847176, 52.107947899108808 ], [ 5.3847403, 52.107966199108802 ], [ 5.3848012, 52.107980999108825 ], [ 5.3849146, 52.107978299108829 ], [ 5.3850025, 52.107940899108812 ], [ 5.3850591, 52.107913899108844 ], [ 5.3851891, 52.107941699108807 ], [ 5.3852534, 52.107976299108813 ], [ 5.3853212, 52.107990699108811 ], [ 5.3853386, 52.10800639910881 ], [ 5.3853902, 52.108202399108805 ], [ 5.3854439, 52.108345799108797 ], [ 5.3854754, 52.108401299108777 ], [ 5.3853863, 52.108459699108792 ], [ 5.3854557, 52.108904599108754 ], [ 5.3855442, 52.109395699108717 ], [ 5.3856843, 52.110325899108659 ], [ 5.3855964, 52.110411699108646 ], [ 5.3855267, 52.110495299108628 ], [ 5.3854901, 52.110570799108629 ], [ 5.3855001, 52.110650299108634 ], [ 5.3854968, 52.110748099108633 ], [ 5.3854702, 52.110811299108612 ], [ 5.3854038, 52.110880699108613 ], [ 5.3854038, 52.110939799108593 ], [ 5.3854237, 52.111053999108577 ], [ 5.3854171, 52.111133499108583 ], [ 5.3853806, 52.111221099108576 ], [ 5.385281, 52.111294499108567 ], [ 5.3850399, 52.111381999108573 ], [ 5.3850154, 52.111480099108569 ], [ 5.3849225, 52.111622799108545 ], [ 5.3848229, 52.111757299108547 ], [ 5.3846502, 52.111838899108534 ], [ 5.3845407, 52.111881699108523 ], [ 5.3843565, 52.112041699108524 ], [ 5.3842768, 52.112132499108519 ], [ 5.3842336, 52.112191599108506 ], [ 5.3842137, 52.112233399108511 ], [ 5.3842429, 52.112279899108493 ], [ 5.3842598, 52.112324199108485 ], [ 5.3842627, 52.112405999108482 ], [ 5.3843363, 52.112489599108486 ], [ 5.3845773, 52.112520899108482 ], [ 5.3845631, 52.112592299108478 ], [ 5.3844412, 52.112670599108455 ], [ 5.384308, 52.112693299108479 ], [ 5.3842343, 52.112656699108477 ], [ 5.3842133, 52.112612099108482 ], [ 5.384164, 52.112568399108483 ], [ 5.3840983, 52.112560999108489 ], [ 5.3840246, 52.112682799108477 ], [ 5.3840239, 52.112770199108482 ], [ 5.3839452, 52.112877799108453 ], [ 5.383863, 52.11298219910843 ], [ 5.3838148, 52.113088399108456 ], [ 5.3838176, 52.113157999108438 ], [ 5.3837666, 52.113225899108429 ], [ 5.3837808, 52.113312899108436 ], [ 5.3838346, 52.113351199108422 ], [ 5.3838729, 52.113383399108407 ], [ 5.3838842, 52.113445199108412 ], [ 5.3838446, 52.113589699108388 ], [ 5.3838318, 52.113653199108398 ], [ 5.383774, 52.113747599108379 ], [ 5.3837071, 52.113811599108388 ], [ 5.3835247, 52.113898099108383 ], [ 5.3833625, 52.113968099108376 ], [ 5.3833236, 52.114007599108383 ], [ 5.3832847, 52.114077699108357 ], [ 5.3832766, 52.114134499108367 ], [ 5.3833061, 52.114175699108351 ], [ 5.3833544, 52.114203699108366 ], [ 5.3834188, 52.114216799108355 ], [ 5.3834684, 52.11422749910836 ], [ 5.3835046, 52.114262099108359 ], [ 5.3835058, 52.114296599108364 ], [ 5.3833043, 52.114491499108325 ], [ 5.3833882, 52.114546899108319 ], [ 5.3833799, 52.114608799108325 ], [ 5.3833584, 52.114657799108343 ], [ 5.3833611, 52.114729899108298 ], [ 5.3834, 52.114785099108325 ], [ 5.3834885, 52.114814699108315 ], [ 5.3835878, 52.114835299108321 ], [ 5.3836736, 52.114901199108317 ], [ 5.3836977, 52.114970399108287 ], [ 5.3837702, 52.115036299108283 ], [ 5.3838533, 52.115100499108301 ], [ 5.3838935, 52.115172999108296 ], [ 5.3838962, 52.115245399108275 ], [ 5.3838211, 52.11534429910828 ], [ 5.3837461, 52.115410599108252 ], [ 5.383736, 52.115768699108251 ], [ 5.3836999, 52.115868299108222 ], [ 5.383714, 52.116016399108226 ], [ 5.3840554, 52.116227399108212 ], [ 5.3841409, 52.116352099108198 ], [ 5.3842522, 52.116495499108176 ], [ 5.384254, 52.116546599108183 ], [ 5.3842721, 52.116587299108168 ], [ 5.3843175, 52.116601699108152 ], [ 5.3843364, 52.116613099108179 ], [ 5.384359, 52.11663579910816 ], [ 5.3844313, 52.116719299108162 ], [ 5.3844398, 52.116755899108171 ], [ 5.3844965, 52.116815899108182 ], [ 5.384573, 52.116818499108163 ], [ 5.3846595, 52.116823699108167 ], [ 5.3849699, 52.116729699108156 ], [ 5.3851513, 52.116642899108179 ], [ 5.3851697, 52.116612299108176 ], [ 5.3852179, 52.116573999108176 ], [ 5.3853284, 52.116517399108204 ], [ 5.3854248, 52.116425199108193 ], [ 5.3855135, 52.116354399108211 ], [ 5.3856331, 52.116219799108208 ], [ 5.3857582, 52.116202599108213 ], [ 5.3858663, 52.116185299108196 ], [ 5.3860073, 52.116177999108203 ], [ 5.3860824, 52.116208499108218 ], [ 5.3860541, 52.116317199108209 ], [ 5.386047, 52.116383399108194 ], [ 5.3860725, 52.116397299108193 ], [ 5.3860668, 52.116432999108198 ], [ 5.3860909, 52.116483499108192 ], [ 5.3861292, 52.116512999108195 ], [ 5.3861207, 52.116553099108188 ], [ 5.3861589, 52.116594899108179 ], [ 5.3861348, 52.116647099108171 ], [ 5.3861391, 52.116746299108179 ], [ 5.3861986, 52.116761099108167 ], [ 5.3862666, 52.116817599108167 ], [ 5.3863148, 52.116837699108181 ], [ 5.3863171, 52.116893099108161 ], [ 5.3863588, 52.116912499108167 ], [ 5.3863573, 52.116957799108164 ], [ 5.3864055, 52.117009099108138 ], [ 5.3864991, 52.117060399108141 ], [ 5.3866082, 52.117069099108157 ], [ 5.3866861, 52.117063899108139 ], [ 5.3868038, 52.117069999108146 ], [ 5.3868888, 52.117045699108132 ], [ 5.386988, 52.117007399108154 ], [ 5.3870362, 52.116997799108169 ], [ 5.3871142, 52.117006599108159 ], [ 5.387185, 52.117035199108138 ], [ 5.3872417, 52.117051699108139 ], [ 5.3873126, 52.117055199108151 ], [ 5.3873636, 52.117063099108144 ], [ 5.3873834, 52.117079599108145 ], [ 5.3874784, 52.117100499108147 ], [ 5.3875294, 52.117134399108139 ], [ 5.38763, 52.117172699108131 ], [ 5.3876697, 52.117209299108126 ], [ 5.387664, 52.117248399108149 ], [ 5.3876768, 52.117279799108132 ], [ 5.3876711, 52.117333699108137 ], [ 5.3877066, 52.117369399108107 ], [ 5.3877477, 52.117394599108124 ], [ 5.3877817, 52.11742249910813 ], [ 5.3878228, 52.117437299108104 ], [ 5.387837, 52.117476399108114 ], [ 5.3878908, 52.117510399108113 ], [ 5.3878965, 52.117536499108112 ], [ 5.3879347, 52.117560799108105 ], [ 5.3879603, 52.117576499108097 ], [ 5.3879999, 52.117586999108106 ], [ 5.388024, 52.117613899108115 ], [ 5.3880623, 52.117650499108123 ], [ 5.3881346, 52.11770529910811 ], [ 5.3881601, 52.117745299108094 ], [ 5.3881601, 52.117780999108099 ], [ 5.388153, 52.117834999108098 ], [ 5.388136, 52.117865399108098 ], [ 5.3881573, 52.11789849910808 ], [ 5.3881728, 52.117938499108071 ], [ 5.388221, 52.117961199108102 ], [ 5.3882508, 52.118008999108078 ], [ 5.388255, 52.118058599108068 ], [ 5.3882905, 52.118093399108083 ], [ 5.3882706, 52.118137799108062 ], [ 5.3883004, 52.118169099108059 ], [ 5.3883359, 52.118197399108062 ], [ 5.3882976, 52.118341599108049 ], [ 5.3882423, 52.118551499108044 ], [ 5.3882, 52.118618799108042 ], [ 5.3881303, 52.118696499108012 ], [ 5.3879688, 52.11892279910802 ], [ 5.3879688, 52.119130799108014 ], [ 5.3878894, 52.119351799107982 ], [ 5.3878381, 52.119536799107976 ], [ 5.3878114, 52.11963629910796 ], [ 5.3877999, 52.11966149910797 ], [ 5.3877776, 52.119707099107941 ], [ 5.3875337, 52.120390799107909 ], [ 5.3874814, 52.120587199107895 ], [ 5.38754, 52.120628199107891 ], [ 5.387593, 52.120670999107894 ], [ 5.3876258, 52.120708099107887 ], [ 5.3876004, 52.120786699107853 ], [ 5.3876097, 52.120851699107881 ], [ 5.3876218, 52.120882999107884 ], [ 5.387595, 52.120929099107869 ], [ 5.3875735, 52.120974399107851 ], [ 5.3875843, 52.121018899107838 ], [ 5.3876165, 52.121036199107841 ], [ 5.3877063, 52.121059299107849 ], [ 5.3877653, 52.121082299107854 ], [ 5.3877653, 52.121106199107849 ], [ 5.3877626, 52.121174499107852 ], [ 5.3877921, 52.121225599107859 ], [ 5.3878592, 52.121267599107853 ], [ 5.3879303, 52.121303799107849 ], [ 5.3879853, 52.121346599107845 ], [ 5.3881046, 52.121393599107826 ], [ 5.3882267, 52.121436399107836 ], [ 5.388291, 52.121469299107829 ], [ 5.3882991, 52.121501399107828 ], [ 5.3882763, 52.121544199107817 ], [ 5.3882562, 52.121561499107806 ], [ 5.3882441, 52.121592799107809 ], [ 5.3882615, 52.12163239910781 ], [ 5.3884372, 52.121759199107792 ], [ 5.3885686, 52.121829999107788 ], [ 5.3886142, 52.121894199107793 ], [ 5.3886196, 52.121941999107797 ], [ 5.3887001, 52.122016099107796 ], [ 5.3887778, 52.122065499107791 ], [ 5.3888556, 52.122086899107778 ], [ 5.3889415, 52.122116499107761 ], [ 5.3889871, 52.122182399107757 ], [ 5.3890756, 52.122246599107761 ], [ 5.3891333, 52.122279699107779 ], [ 5.3892645, 52.122348299107784 ], [ 5.3892471, 52.122359999107772 ], [ 5.3892457, 52.122386999107768 ], [ 5.3892131, 52.122464399107734 ], [ 5.3891848, 52.122536699107762 ], [ 5.3892202, 52.122561899107765 ], [ 5.3892372, 52.122593199107754 ], [ 5.3892429, 52.12261589910775 ], [ 5.389318, 52.122642799107751 ], [ 5.3893392, 52.122710699107742 ], [ 5.3893747, 52.122750699107733 ], [ 5.3893988, 52.122817699107728 ], [ 5.3894002, 52.12287689910773 ], [ 5.3894469, 52.122890799107729 ], [ 5.3894498, 52.122931699107717 ], [ 5.3894781, 52.122976999107713 ], [ 5.3894852, 52.123001299107727 ], [ 5.3895334, 52.123041399107713 ], [ 5.3895221, 52.123074399107686 ], [ 5.3895433, 52.123092699107694 ], [ 5.3895334, 52.123133599107703 ], [ 5.3895632, 52.123175399107708 ], [ 5.3896595, 52.123246699107689 ], [ 5.3897077, 52.12329539910769 ], [ 5.3897063, 52.123345899107676 ], [ 5.3896162, 52.123394199107679 ], [ 5.3895579, 52.12342549910769 ], [ 5.3894054, 52.123465799107663 ], [ 5.3892211, 52.123506199107673 ], [ 5.3890139, 52.123527799107677 ], [ 5.3888664, 52.12358219910768 ], [ 5.3886571, 52.123662899107664 ], [ 5.3885338, 52.123741899107664 ], [ 5.3885027, 52.123822099107649 ], [ 5.3884949, 52.123897499107649 ], [ 5.3885069, 52.124046599107636 ], [ 5.3885391, 52.124146999107616 ], [ 5.388574, 52.1242325991076 ], [ 5.3886853, 52.124269699107629 ], [ 5.3887791, 52.124268899107619 ], [ 5.388865, 52.12428619910763 ], [ 5.3889536, 52.124307499107623 ], [ 5.3890729, 52.124418699107615 ], [ 5.3891302, 52.124528399107604 ], [ 5.3894852, 52.124603399107592 ], [ 5.3897109, 52.124768499107581 ], [ 5.3897607, 52.124979699107556 ], [ 5.3896888, 52.125088099107565 ], [ 5.3896313, 52.125119799107573 ], [ 5.3895887, 52.125167099107557 ], [ 5.3895816, 52.125214899107547 ], [ 5.3895561, 52.125275799107534 ], [ 5.3895476, 52.12532539910756 ], [ 5.3895192, 52.125360199107554 ], [ 5.3894994, 52.125408099107531 ], [ 5.3893662, 52.125422899107534 ], [ 5.3892783, 52.125435099107541 ], [ 5.3892117, 52.125451599107549 ], [ 5.389173, 52.125515599107537 ], [ 5.3891904, 52.12558469910752 ], [ 5.3892202, 52.125636899107526 ], [ 5.3892588, 52.125702699107507 ], [ 5.3892641, 52.125761299107516 ], [ 5.3893486, 52.125812899107501 ], [ 5.389452, 52.125890499107513 ], [ 5.3895059, 52.125982199107511 ], [ 5.3895488, 52.126015499107503 ], [ 5.3896391, 52.126027999107485 ], [ 5.3897271, 52.126023799107486 ], [ 5.3897768, 52.125991899107497 ], [ 5.3898694, 52.125955899107488 ], [ 5.3899484, 52.125944799107486 ], [ 5.3900251, 52.125991899107497 ], [ 5.390077, 52.126020999107503 ], [ 5.3901628, 52.126038999107486 ], [ 5.3902599, 52.126032099107512 ], [ 5.3903434, 52.126058399107492 ], [ 5.3904269, 52.126105599107497 ], [ 5.3904473, 52.126183199107487 ], [ 5.3904202, 52.126280199107477 ], [ 5.3903396, 52.126362299107477 ], [ 5.3903372, 52.126425499107469 ], [ 5.390377, 52.12645559910748 ], [ 5.3904173, 52.126470799107459 ], [ 5.3904482, 52.12648099910745 ], [ 5.3905044, 52.126489599107451 ], [ 5.3905265, 52.126492899107454 ], [ 5.3906387, 52.126531699107467 ], [ 5.3906948, 52.126577599107456 ], [ 5.3907953, 52.126647899107432 ], [ 5.3908818, 52.126708099107439 ], [ 5.3909963, 52.126735399107439 ], [ 5.3910968, 52.126788499107427 ], [ 5.3911459, 52.126841599107415 ], [ 5.3912651, 52.126851599107439 ], [ 5.3913445, 52.126897499107422 ], [ 5.3914193, 52.126966399107431 ], [ 5.3914567, 52.127069699107416 ], [ 5.3914263, 52.127172999107408 ], [ 5.3914403, 52.1272762991074 ], [ 5.3913726, 52.127385299107395 ], [ 5.3913539, 52.127485799107383 ], [ 5.3913095, 52.127547499107393 ], [ 5.3912464, 52.127544599107388 ], [ 5.3911388, 52.12753599910738 ], [ 5.3909612, 52.127508699107374 ], [ 5.3907475, 52.12751779910738 ], [ 5.3905488, 52.127537199107394 ], [ 5.3902689, 52.12755939910739 ], [ 5.3901425, 52.127653599107376 ], [ 5.3900838, 52.127761699107381 ], [ 5.3900071, 52.12783099910736 ], [ 5.3899032, 52.127869799107366 ], [ 5.3898874, 52.127934599107363 ], [ 5.3898761, 52.12797509910736 ], [ 5.3897136, 52.128041599107362 ], [ 5.3895827, 52.12813029910734 ], [ 5.389533, 52.128257799107345 ], [ 5.3895691, 52.128410299107315 ], [ 5.3895917, 52.128476799107332 ], [ 5.389533, 52.128523899107307 ], [ 5.3892531, 52.128604299107295 ], [ 5.3892756, 52.128690199107297 ], [ 5.3893524, 52.128845399107284 ], [ 5.3893524, 52.129008899107291 ], [ 5.3894111, 52.129175199107273 ], [ 5.3893885, 52.129238999107272 ], [ 5.3894562, 52.129330499107262 ], [ 5.3894772, 52.129369099107244 ], [ 5.3895149, 52.129438499107252 ], [ 5.3894337, 52.12956879910724 ], [ 5.3895195, 52.129820999107217 ], [ 5.3894788, 52.129917999107228 ], [ 5.3893118, 52.129981799107192 ], [ 5.3892013, 52.1300347991072 ], [ 5.3890982, 52.130127599107212 ], [ 5.3890509, 52.130156599107217 ], [ 5.3889692, 52.130174899107196 ], [ 5.3888631, 52.130183299107173 ], [ 5.3887876, 52.13017959910718 ], [ 5.3887174, 52.130161799107213 ], [ 5.3886502, 52.130125199107212 ], [ 5.3885639, 52.130077399107201 ], [ 5.388522, 52.130056299107203 ], [ 5.388451, 52.130031999107196 ], [ 5.3884197, 52.130006699107213 ], [ 5.3884265, 52.129968699107202 ], [ 5.388441, 52.129911099107225 ], [ 5.3884624, 52.129829599107211 ], [ 5.388451, 52.12972179910723 ], [ 5.3884601, 52.129715199107224 ], [ 5.3884914, 52.129697399107222 ], [ 5.3885166, 52.129676299107238 ], [ 5.3885319, 52.129642599107228 ], [ 5.3885433, 52.129568999107242 ], [ 5.3885769, 52.129524999107247 ], [ 5.3886647, 52.129431799107238 ], [ 5.3887303, 52.129345999107258 ], [ 5.388812, 52.12927479910725 ], [ 5.3888715, 52.129207799107277 ], [ 5.3888921, 52.129114099107262 ], [ 5.3888921, 52.129090599107279 ], [ 5.3888715, 52.129028299107269 ], [ 5.3888776, 52.129001599107291 ], [ 5.3889028, 52.128972099107273 ], [ 5.3889311, 52.128945399107266 ], [ 5.3889784, 52.12891679910728 ], [ 5.3890379, 52.128888199107287 ], [ 5.3890807, 52.128849799107286 ], [ 5.3891043, 52.128795899107295 ], [ 5.3891158, 52.128728399107288 ], [ 5.3891104, 52.128652999107317 ], [ 5.3891143, 52.128605699107311 ], [ 5.3890944, 52.128551799107328 ], [ 5.3890708, 52.128517999107309 ], [ 5.3890677, 52.128474499107313 ], [ 5.3890494, 52.128440299107318 ], [ 5.3890308, 52.128409899107325 ], [ 5.3890151, 52.12838429910731 ], [ 5.3894981, 52.127752999107365 ], [ 5.3896288, 52.127593899107382 ], [ 5.3895423, 52.127533699107374 ], [ 5.3894862, 52.127542899107382 ], [ 5.3894119, 52.127569399107379 ], [ 5.3893213, 52.127595999107385 ], [ 5.3892328, 52.127597199107392 ], [ 5.3891895, 52.127578499107379 ], [ 5.3891267, 52.127504299107386 ], [ 5.3890686, 52.127446199107396 ], [ 5.3889577, 52.127405099107378 ], [ 5.3888476, 52.127376099107394 ], [ 5.3887665, 52.127375699107404 ], [ 5.3886867, 52.127365299107396 ], [ 5.3886232, 52.127339999107399 ], [ 5.3884252, 52.127268199107419 ], [ 5.388363, 52.127247099107393 ], [ 5.3883225, 52.127211799107407 ], [ 5.3882954, 52.127169899107408 ], [ 5.3882826, 52.127134599107414 ], [ 5.3882975, 52.127115099107414 ], [ 5.3883123, 52.127089799107409 ], [ 5.3882995, 52.127059899107422 ], [ 5.3882846, 52.127031299107436 ], [ 5.3882839, 52.127008899107423 ], [ 5.3883008, 52.126971599107407 ], [ 5.3882961, 52.126941299107415 ], [ 5.3882529, 52.126911399107428 ], [ 5.388192, 52.126883799107432 ], [ 5.3881444, 52.126851299107422 ], [ 5.3881177, 52.12681139910746 ], [ 5.3881245, 52.126777399107453 ], [ 5.3881245, 52.126717699107438 ], [ 5.3880704, 52.126691099107433 ], [ 5.3880096, 52.126682799107428 ], [ 5.3879404, 52.126665399107452 ], [ 5.3878341, 52.126670599107428 ], [ 5.3877703, 52.126653199107452 ], [ 5.3877264, 52.126638399107442 ], [ 5.387664, 52.126637499107446 ], [ 5.3876017, 52.126653199107452 ], [ 5.3875365, 52.12665059910745 ], [ 5.3875152, 52.126609699107462 ], [ 5.3874826, 52.126561799107449 ], [ 5.3874472, 52.126555699107449 ], [ 5.3874049, 52.126525899107456 ], [ 5.3873532, 52.126492499107457 ], [ 5.3873153, 52.126426099107448 ], [ 5.3873125, 52.126324499107476 ], [ 5.3874219, 52.126157399107484 ], [ 5.3875005, 52.126107399107497 ], [ 5.3875398, 52.126057399107495 ], [ 5.3875195, 52.125982299107505 ], [ 5.3875379, 52.125930999107503 ], [ 5.3875959, 52.125866199107513 ], [ 5.3875931, 52.125826599107512 ], [ 5.3875931, 52.125745599107518 ], [ 5.3876074, 52.125613399107515 ], [ 5.3876187, 52.125536899107523 ], [ 5.3876343, 52.125459399107534 ], [ 5.3876074, 52.125401999107538 ], [ 5.3875748, 52.125387199107543 ], [ 5.3875422, 52.125389799107538 ], [ 5.3874883, 52.125363699107552 ], [ 5.387426, 52.12536199910754 ], [ 5.3873579, 52.125411599107537 ], [ 5.3872771, 52.125526399107528 ], [ 5.3872701, 52.125582999107522 ], [ 5.3872658, 52.125645599107514 ], [ 5.387236, 52.125682999107525 ], [ 5.3871723, 52.12570479910751 ], [ 5.3870957, 52.125711699107512 ], [ 5.3869441, 52.125708299107515 ], [ 5.3868676, 52.125708299107515 ], [ 5.3866833, 52.125751799107512 ], [ 5.386594, 52.125851799107508 ], [ 5.3865402, 52.1259179991075 ], [ 5.3863758, 52.126010199107498 ], [ 5.3863503, 52.126056299107496 ], [ 5.3863384, 52.126091799107478 ], [ 5.386327, 52.126121799107487 ], [ 5.3862821, 52.126121399107483 ], [ 5.3862411, 52.126103299107484 ], [ 5.3862011, 52.12605639910749 ], [ 5.3860994, 52.125996299107491 ], [ 5.3860399, 52.125990999107508 ], [ 5.3859974, 52.125990999107508 ], [ 5.3859166, 52.125979699107504 ], [ 5.3859095, 52.125936199107493 ], [ 5.385952, 52.125906599107488 ], [ 5.385952, 52.125866599107503 ], [ 5.3859449, 52.125837899107502 ], [ 5.3859137, 52.125825499107499 ], [ 5.3858941, 52.125811499107506 ], [ 5.38585, 52.125765699107532 ], [ 5.3858117, 52.125737399107514 ], [ 5.3856693, 52.125748699107533 ], [ 5.3856431, 52.125749999107512 ], [ 5.3856275, 52.12573609910752 ], [ 5.385626, 52.125719599107498 ], [ 5.3856374, 52.125703899107521 ], [ 5.3857564, 52.125627399107522 ], [ 5.3860597, 52.125498599107537 ], [ 5.3862, 52.125414999107527 ], [ 5.3863035, 52.125352399107534 ], [ 5.386378, 52.125297699107556 ], [ 5.3863999, 52.125289799107556 ], [ 5.3863984, 52.125268899107539 ], [ 5.3863715, 52.125234099107558 ], [ 5.3863375, 52.125220099107558 ], [ 5.3862539, 52.125226199107537 ], [ 5.3859917, 52.125317599107554 ], [ 5.385918, 52.12539329910755 ], [ 5.3858301, 52.125435899107543 ], [ 5.3857522, 52.125450699107539 ], [ 5.385704, 52.125436799107533 ], [ 5.38567, 52.125394999107527 ], [ 5.385636, 52.12532979910754 ], [ 5.3856303, 52.12524709910754 ], [ 5.3856459, 52.125200999107555 ], [ 5.3856459, 52.125149699107567 ], [ 5.38567, 52.125113999107555 ], [ 5.38567, 52.125081799107576 ], [ 5.385626, 52.125064399107558 ], [ 5.3856076, 52.125019999107586 ], [ 5.385558, 52.12495479910757 ], [ 5.3855042, 52.124923399107573 ], [ 5.3854248, 52.124888599107564 ], [ 5.3853497, 52.124872999107602 ], [ 5.385191, 52.12490429910757 ], [ 5.3851215, 52.124915599107574 ], [ 5.3850336, 52.124924299107576 ], [ 5.3849486, 52.124926899107557 ], [ 5.3848607, 52.124894699107578 ], [ 5.384784, 52.12486689910758 ], [ 5.3847544, 52.124787699107578 ], [ 5.3847488, 52.12468589910759 ], [ 5.3847672, 52.124648499107593 ], [ 5.3847388, 52.124631999107571 ], [ 5.3847388, 52.12458059910761 ], [ 5.3847254, 52.124568599107619 ], [ 5.3847133, 52.124526699107612 ], [ 5.3847268, 52.124443699107594 ], [ 5.3847645, 52.12436559910762 ], [ 5.384814, 52.124263899107611 ], [ 5.3848692, 52.124185599107626 ], [ 5.3849509, 52.124064699107613 ], [ 5.3847103, 52.123896199107655 ], [ 5.38451, 52.123759399107648 ], [ 5.3844304, 52.123671199107683 ], [ 5.3844083, 52.123553599107666 ], [ 5.3844135, 52.123436199107672 ], [ 5.3844384, 52.123343699107686 ], [ 5.3845355, 52.123020399107723 ], [ 5.38452, 52.12287689910773 ], [ 5.3844562, 52.12208979910779 ], [ 5.3844476, 52.122035899107779 ], [ 5.3844263, 52.122023299107781 ], [ 5.3844113, 52.121972199107788 ], [ 5.3844044, 52.121957999107785 ], [ 5.384342, 52.121932799107789 ], [ 5.3843817, 52.121895399107807 ], [ 5.3844214, 52.121864899107813 ], [ 5.3844299, 52.121829199107793 ], [ 5.3844667, 52.121793499107795 ], [ 5.3844772, 52.121756299107794 ], [ 5.3844625, 52.121723899107806 ], [ 5.3844567, 52.121659099107816 ], [ 5.3844597, 52.121565599107846 ], [ 5.3844384, 52.121530799107823 ], [ 5.3844356, 52.12144809910783 ], [ 5.384539, 52.121343699107825 ], [ 5.3845957, 52.121281899107842 ], [ 5.3846793, 52.121235799107836 ], [ 5.3847204, 52.121178299107861 ], [ 5.3846949, 52.121118299107849 ], [ 5.3846652, 52.121005199107856 ], [ 5.384668, 52.120871199107881 ], [ 5.3846694, 52.120795499107864 ], [ 5.3847644, 52.120757199107885 ], [ 5.3848707, 52.120684099107869 ], [ 5.3848466, 52.120653599107882 ], [ 5.3848494, 52.120600499107901 ], [ 5.384814, 52.120579599107884 ], [ 5.3848111, 52.120539599107914 ], [ 5.3847771, 52.120509199107886 ], [ 5.3848395, 52.120463899107897 ], [ 5.3849221, 52.120397799107899 ], [ 5.3849599, 52.120298599107905 ], [ 5.3849571, 52.120224599107914 ], [ 5.3849599, 52.120154999107932 ], [ 5.3850488, 52.120118599107919 ], [ 5.3850492, 52.120089699107929 ], [ 5.3851045, 52.120062699107926 ], [ 5.3851002, 52.120017499107938 ], [ 5.3851513, 52.119993999107948 ], [ 5.3852108, 52.119960899107937 ], [ 5.3853171, 52.119952199107928 ], [ 5.3853681, 52.119921799107942 ], [ 5.3854404, 52.119904399107938 ], [ 5.3854942, 52.119889599107943 ], [ 5.3855339, 52.119903499107942 ], [ 5.3855778, 52.119902699107918 ], [ 5.3856601, 52.119863499107943 ], [ 5.3856771, 52.119830399107947 ], [ 5.385738, 52.119765099107958 ], [ 5.3857727, 52.119716399107951 ], [ 5.385762, 52.119658599107943 ], [ 5.3857357, 52.119639799107951 ], [ 5.3857309, 52.119588999107961 ], [ 5.3856577, 52.119548699107966 ], [ 5.3856559, 52.119528199107961 ], [ 5.3856337, 52.119507199107986 ], [ 5.3855926, 52.11948029910797 ], [ 5.3852532, 52.11944039910798 ], [ 5.3852051, 52.119430399107983 ], [ 5.3851143, 52.119411299107966 ], [ 5.3850518, 52.119399799107967 ], [ 5.3822577, 52.119107599107998 ], [ 5.3801194, 52.118874599108018 ], [ 5.3793336, 52.118783999108004 ], [ 5.378209, 52.118655999108029 ], [ 5.3777441, 52.118599599108038 ], [ 5.3774746, 52.11857269910805 ], [ 5.3774273, 52.118679099108029 ], [ 5.3774372, 52.118739999108023 ], [ 5.377406, 52.118819199108003 ], [ 5.3773933, 52.118880999108001 ], [ 5.3773521, 52.118967999108008 ], [ 5.3773082, 52.119020199107993 ], [ 5.3772969, 52.119044599107994 ], [ 5.377175, 52.119057699107984 ], [ 5.3771141, 52.119035899108013 ], [ 5.3770049, 52.119062899108009 ], [ 5.3769813, 52.119112199108002 ], [ 5.376944, 52.11919779910798 ], [ 5.3768901, 52.119310899107987 ], [ 5.3768816, 52.119357199107974 ], [ 5.3768887, 52.119456199107972 ], [ 5.3768589, 52.119595399107958 ], [ 5.3768575, 52.119685099107954 ], [ 5.376883, 52.119718999107967 ], [ 5.3768774, 52.119760799107944 ], [ 5.3767923, 52.119833899107959 ], [ 5.3767682, 52.119893899107929 ], [ 5.3768023, 52.119933999107943 ], [ 5.3768717, 52.119966199107921 ], [ 5.3768887, 52.120026199107933 ], [ 5.3768802, 52.120056699107934 ], [ 5.376849, 52.120080999107913 ], [ 5.3767059, 52.120185399107918 ], [ 5.3766506, 52.120224599107914 ], [ 5.376584, 52.120250699107913 ], [ 5.3764961, 52.12024029910792 ], [ 5.3763246, 52.120215899107912 ], [ 5.3762339, 52.120272499107919 ], [ 5.3761333, 52.120349899107914 ], [ 5.3759973, 52.120418699107901 ], [ 5.3759647, 52.120456099107898 ], [ 5.3759746, 52.120495199107907 ], [ 5.3760058, 52.120540499107904 ], [ 5.3760072, 52.120586599107888 ], [ 5.3759845, 52.120621399107876 ], [ 5.3759533, 52.12070229910789 ], [ 5.3759377, 52.12077109910787 ], [ 5.3759306, 52.120826799107874 ], [ 5.3759392, 52.120885099107866 ], [ 5.3759392, 52.120937299107858 ], [ 5.3758669, 52.121005999107872 ], [ 5.3758513, 52.121066099107864 ], [ 5.3758314, 52.121107899107855 ], [ 5.3758541, 52.121133999107855 ], [ 5.3758371, 52.121163499107837 ], [ 5.3758616, 52.121184999107832 ], [ 5.375891, 52.121213099107827 ], [ 5.3759406, 52.121227099107834 ], [ 5.3759871, 52.121290999107842 ], [ 5.3760228, 52.121311499107826 ], [ 5.3760738, 52.12138539910783 ], [ 5.3760667, 52.12144199910783 ], [ 5.3760313, 52.121539499107818 ], [ 5.3759462, 52.121671699107814 ], [ 5.3758555, 52.1217908991078 ], [ 5.375728, 52.121808299107798 ], [ 5.3756245, 52.121819699107803 ], [ 5.3755749, 52.121851899107789 ], [ 5.3755919, 52.121890999107791 ], [ 5.3756642, 52.121918899107797 ], [ 5.3757251, 52.121964099107807 ], [ 5.3757507, 52.122011099107795 ], [ 5.3757365, 52.122087699107787 ], [ 5.3756982, 52.122156399107773 ], [ 5.3755933, 52.122201699107777 ], [ 5.3755168, 52.12221819910777 ], [ 5.37548, 52.122260799107764 ], [ 5.3754658, 52.122305199107764 ], [ 5.3754215, 52.122343999107741 ], [ 5.3754095, 52.122367999107766 ], [ 5.3753978, 52.122398299107751 ], [ 5.3754049, 52.122429599107747 ], [ 5.3753454, 52.122485399107752 ], [ 5.375283, 52.122542799107741 ], [ 5.3752773, 52.122580999107747 ], [ 5.3752348, 52.122653299107725 ], [ 5.3752475, 52.122671499107739 ], [ 5.375205, 52.122716799107742 ], [ 5.3752079, 52.122769899107752 ], [ 5.3751342, 52.12283949910772 ], [ 5.3751072, 52.122919499107731 ], [ 5.3751285, 52.122971699107701 ], [ 5.3751919, 52.122999799107724 ], [ 5.3752373, 52.123056499107705 ], [ 5.375208, 52.123117599107715 ], [ 5.3751142, 52.123151799107696 ], [ 5.3749969, 52.123185099107708 ], [ 5.3749515, 52.123213899107711 ], [ 5.3749067, 52.123271699107683 ], [ 5.3749315, 52.123351999107676 ], [ 5.3749896, 52.123507699107655 ], [ 5.3748989, 52.123584299107655 ], [ 5.374743, 52.123645199107671 ], [ 5.3746353, 52.123673099107648 ], [ 5.37458, 52.123727899107664 ], [ 5.3745701, 52.123773099107673 ], [ 5.3745758, 52.123808799107664 ], [ 5.3746042, 52.123845499107652 ], [ 5.3746523, 52.123882799107648 ], [ 5.3746934, 52.123915799107642 ], [ 5.3747586, 52.123950599107658 ], [ 5.3747855, 52.124010699107657 ], [ 5.3747671, 52.124085499107636 ], [ 5.37476, 52.124188199107635 ], [ 5.3746657, 52.124272899107638 ], [ 5.3746296, 52.124338699107625 ], [ 5.3745588, 52.124375299107612 ], [ 5.3745559, 52.124433599107604 ], [ 5.3745644, 52.124497099107614 ], [ 5.3745999, 52.124584099107601 ], [ 5.37458, 52.124670199107591 ], [ 5.374546, 52.124736399107597 ], [ 5.3744666, 52.124794699107582 ], [ 5.3743802, 52.124873799107576 ], [ 5.3742711, 52.12493469910757 ], [ 5.3742073, 52.124939999107553 ], [ 5.3741449, 52.12495649910759 ], [ 5.3741166, 52.124993899107558 ], [ 5.3741123, 52.125019099107583 ], [ 5.3741206, 52.125056599107559 ], [ 5.3741407, 52.125080899107559 ], [ 5.3741421, 52.125113999107555 ], [ 5.3741038, 52.125156599107555 ], [ 5.3740287, 52.125174899107556 ], [ 5.3739857, 52.125190399107552 ], [ 5.3739682, 52.125257199107558 ], [ 5.3739902, 52.125345399107538 ], [ 5.3740121, 52.125411999107534 ], [ 5.3739902, 52.125481299107541 ], [ 5.3740216, 52.125531599107518 ], [ 5.3740634, 52.125568499107523 ], [ 5.3740344, 52.125575099107536 ], [ 5.3740605, 52.125604499107517 ], [ 5.3740532, 52.125652199107513 ], [ 5.3740542, 52.125702199107515 ], [ 5.3740074, 52.125751799107512 ], [ 5.3740159, 52.125804799107499 ], [ 5.3739734, 52.125872699107504 ], [ 5.3739111, 52.125924899107503 ], [ 5.3738445, 52.125983199107516 ], [ 5.373826, 52.126031899107488 ], [ 5.3738445, 52.126059799107502 ], [ 5.373846, 52.126111699107497 ], [ 5.3738582, 52.126153499107474 ], [ 5.3738729, 52.126189099107471 ], [ 5.3738445, 52.126203299107495 ], [ 5.3737849, 52.126258199107454 ], [ 5.3737155, 52.126315599107471 ], [ 5.3736588, 52.126367799107463 ], [ 5.373622, 52.126415599107474 ], [ 5.3736251, 52.126489199107475 ], [ 5.3736347, 52.126534799107475 ], [ 5.3736489, 52.126575699107441 ], [ 5.3736716, 52.126603599107455 ], [ 5.373656, 52.126638399107442 ], [ 5.3736347, 52.126681899107439 ], [ 5.3736007, 52.126710599107447 ], [ 5.3735341, 52.12674279910744 ], [ 5.3733668, 52.126829799107441 ], [ 5.3732932, 52.126840199107427 ], [ 5.3731826, 52.12685419910742 ], [ 5.3730409, 52.12689939910743 ], [ 5.3729969, 52.126944699107433 ], [ 5.3729587, 52.126990799107418 ], [ 5.3730097, 52.127055999107412 ], [ 5.3730154, 52.127078599107413 ], [ 5.373021, 52.127099499107409 ], [ 5.3730536, 52.127130799107412 ], [ 5.3730636, 52.127164799107419 ], [ 5.3730522, 52.127196999107412 ], [ 5.3730253, 52.127233499107419 ], [ 5.3729799, 52.127251799107412 ], [ 5.3729445, 52.127263999107413 ], [ 5.3729176, 52.12726919910741 ], [ 5.3728935, 52.127271799107405 ], [ 5.3728581, 52.127277899107412 ], [ 5.3727966, 52.12728039910742 ], [ 5.3726327, 52.127305699107389 ], [ 5.3725944, 52.127325699107402 ], [ 5.3725933, 52.127330499107408 ], [ 5.3725817, 52.127366599107411 ], [ 5.372542, 52.127390999107391 ], [ 5.3725066, 52.127401399107399 ], [ 5.3724782, 52.127397099107398 ], [ 5.3724371, 52.127377099107392 ], [ 5.3724286, 52.127362299107396 ], [ 5.3724329, 52.127335299107408 ], [ 5.3724797, 52.127306599107399 ], [ 5.3725329, 52.127276699107405 ], [ 5.3726205, 52.127213599107428 ], [ 5.3726526, 52.127159599107394 ], [ 5.3726341, 52.127045599107419 ], [ 5.3726326, 52.127002199107423 ], [ 5.3725944, 52.126946399107418 ], [ 5.3725448, 52.126929899107424 ], [ 5.372491, 52.126895099107422 ], [ 5.3724392, 52.126889099107451 ], [ 5.3723804, 52.126869799107432 ], [ 5.3723294, 52.126828099107428 ], [ 5.3722997, 52.126794099107435 ], [ 5.3722515, 52.126750599107446 ], [ 5.3721636, 52.126730199107435 ], [ 5.3720701, 52.126717099107431 ], [ 5.3720431, 52.126704899107438 ], [ 5.3719553, 52.126708899107463 ], [ 5.3718419, 52.12666799910744 ], [ 5.371798, 52.126607099107432 ], [ 5.3717483, 52.126577499107455 ], [ 5.3716307, 52.126515699107472 ], [ 5.3716052, 52.126440899107457 ], [ 5.3716307, 52.126395599107468 ], [ 5.3716619, 52.126366899107474 ], [ 5.3717625, 52.126333899107451 ], [ 5.3718858, 52.126325199107463 ], [ 5.3719822, 52.126318199107487 ], [ 5.3720573, 52.126329499107456 ], [ 5.3721721, 52.12632859910746 ], [ 5.372243, 52.126271199107471 ], [ 5.3723053, 52.126209399107474 ], [ 5.3722897, 52.126141599107477 ], [ 5.3722954, 52.126105899107486 ], [ 5.3722841, 52.126064099107502 ], [ 5.3723011, 52.126014499107477 ], [ 5.372277, 52.12594749910749 ], [ 5.3722302, 52.125918799107488 ], [ 5.3722359, 52.125863099107505 ], [ 5.3722285, 52.125810799107512 ], [ 5.3721622, 52.125732599107515 ], [ 5.3721253, 52.125661299107513 ], [ 5.3720942, 52.12561779910753 ], [ 5.3720346, 52.125606499107519 ], [ 5.3719496, 52.125610799107513 ], [ 5.3718717, 52.125648199107523 ], [ 5.3718405, 52.125679599107521 ], [ 5.3718065, 52.125716099107521 ], [ 5.371703, 52.125743099107524 ], [ 5.3716265, 52.125739599107519 ], [ 5.3715953, 52.125742199107513 ], [ 5.3715542, 52.125729199107518 ], [ 5.3715131, 52.125714399107501 ], [ 5.3714706, 52.125710899107531 ], [ 5.3714125, 52.125693499107513 ], [ 5.3713175, 52.125637799107501 ], [ 5.3712693, 52.125642099107516 ], [ 5.371197, 52.125648199107523 ], [ 5.3711375, 52.125665599107521 ], [ 5.3710822, 52.125689099107525 ], [ 5.37108, 52.125717199107505 ], [ 5.3710851, 52.125756099107505 ], [ 5.3711063, 52.125767399107502 ], [ 5.3711375, 52.125783099107515 ], [ 5.3711942, 52.125790099107512 ], [ 5.3712452, 52.125786599107499 ], [ 5.3713147, 52.125780499107513 ], [ 5.371404, 52.125776099107519 ], [ 5.3714692, 52.125776999107508 ], [ 5.3715131, 52.12581269910752 ], [ 5.3715428, 52.125830099107503 ], [ 5.371574, 52.125851799107508 ], [ 5.3715684, 52.125868399107517 ], [ 5.3715797, 52.125902299107501 ], [ 5.3715669, 52.125936199107493 ], [ 5.3715159, 52.125964899107487 ], [ 5.3714493, 52.125988399107499 ], [ 5.3714224, 52.126039799107495 ], [ 5.3714224, 52.126065899107473 ], [ 5.3712971, 52.126159199107477 ], [ 5.3712176, 52.126161599107498 ], [ 5.3711446, 52.126157199107482 ], [ 5.3710528, 52.126151099107474 ], [ 5.3709632, 52.126142399107486 ], [ 5.3708583, 52.126135499107491 ], [ 5.3708342, 52.126121599107485 ], [ 5.3707846, 52.126093699107486 ], [ 5.3706871, 52.126061299107491 ], [ 5.3706188, 52.126058899107491 ], [ 5.3705593, 52.126073699107479 ], [ 5.3705153, 52.126074599107504 ], [ 5.3704572, 52.126071099107499 ], [ 5.3704105, 52.12604849910749 ], [ 5.3703424, 52.126053699107501 ], [ 5.3703141, 52.126026699107491 ], [ 5.3702787, 52.126031899107488 ], [ 5.3702347, 52.126016299107512 ], [ 5.370188, 52.125989299107495 ], [ 5.3701809, 52.125938799107502 ], [ 5.3701497, 52.125863999107501 ], [ 5.3701114, 52.12584919910752 ], [ 5.3701086, 52.125834399107511 ], [ 5.3700618, 52.125828799107509 ], [ 5.3699484, 52.125811799107495 ], [ 5.3698953, 52.125805699107502 ], [ 5.3698358, 52.125810099107497 ], [ 5.369784, 52.125813999107514 ], [ 5.3696933, 52.125826599107512 ], [ 5.3696345, 52.125828299107496 ], [ 5.3695814, 52.125805699107502 ], [ 5.369553, 52.125789199107508 ], [ 5.3695162, 52.125796099107525 ], [ 5.3694326, 52.125752599107514 ], [ 5.3693844, 52.125693499107513 ], [ 5.3693149, 52.125661299107513 ], [ 5.3692412, 52.125585599107545 ], [ 5.3691874, 52.125533399107539 ], [ 5.3691463, 52.125483799107521 ], [ 5.3691165, 52.125483799107521 ], [ 5.3690442, 52.125459399107534 ], [ 5.3689426, 52.125402599107538 ], [ 5.3688353, 52.125411799107546 ], [ 5.3687532, 52.125451299107525 ], [ 5.3686052, 52.125490799107538 ], [ 5.3685681, 52.125495799107526 ], [ 5.3685279, 52.125486899107536 ], [ 5.3684945, 52.125458499107523 ], [ 5.3684655, 52.125412499107533 ], [ 5.3684843, 52.125386199107538 ], [ 5.3686002, 52.125344399107547 ], [ 5.3687376, 52.125284199107547 ], [ 5.3687437, 52.125216499107552 ], [ 5.368672, 52.125141599107572 ], [ 5.3685322, 52.125121899107562 ], [ 5.3684069, 52.125037499107556 ], [ 5.3683676, 52.125004999107574 ], [ 5.3682649, 52.124962399107574 ], [ 5.3681731, 52.124878999107565 ], [ 5.3681436, 52.124848499107571 ], [ 5.3681262, 52.124817199107568 ], [ 5.3681691, 52.124773599107584 ], [ 5.3682509, 52.124710999107585 ], [ 5.3682737, 52.124643499107584 ], [ 5.3682134, 52.124598999107597 ], [ 5.3680672, 52.124627899107587 ], [ 5.3679505, 52.124648399107592 ], [ 5.3679264, 52.124643499107584 ], [ 5.3678969, 52.124643499107584 ], [ 5.3678821, 52.124657499107592 ], [ 5.3678741, 52.124698699107604 ], [ 5.3678513, 52.124740699107583 ], [ 5.3677976, 52.124729999107593 ], [ 5.3677641, 52.124714299107588 ], [ 5.3677348, 52.124680599107585 ], [ 5.3677635, 52.124593399107603 ], [ 5.3677367, 52.124515299107614 ], [ 5.3676843, 52.124479499107601 ], [ 5.3676585, 52.124447699107591 ], [ 5.3676978, 52.124402199107614 ], [ 5.3677731, 52.124367699107609 ], [ 5.3678754, 52.124351999107603 ], [ 5.3680069, 52.124349099107626 ], [ 5.3681541, 52.124329099107598 ], [ 5.3682831, 52.12428619910763 ], [ 5.3683474, 52.124235199107616 ], [ 5.3683294, 52.124159999107626 ], [ 5.3683452, 52.12408959910762 ], [ 5.3683868, 52.124019899107644 ], [ 5.3683582, 52.123990599107643 ], [ 5.3683569, 52.123935399107623 ], [ 5.3683542, 52.123872799107652 ], [ 5.3683595, 52.12379459910764 ], [ 5.3683676, 52.123730399107657 ], [ 5.3684092, 52.123687599107669 ], [ 5.3684812, 52.123675599107692 ], [ 5.3685272, 52.123624999107683 ], [ 5.3685441, 52.123584499107679 ], [ 5.3685284, 52.123527899107685 ], [ 5.3685081, 52.123487899107687 ], [ 5.3684441, 52.123460999107685 ], [ 5.3683783, 52.123452099107666 ], [ 5.3682818, 52.123479299107672 ], [ 5.3682603, 52.123535199107657 ], [ 5.3683019, 52.12357559910766 ], [ 5.368322, 52.123610999107669 ], [ 5.3683047, 52.123709399107653 ], [ 5.3682081, 52.123768799107644 ], [ 5.3680013, 52.123830899107645 ], [ 5.3678248, 52.123908799107653 ], [ 5.3675992, 52.123961599107638 ], [ 5.3674854, 52.12394949910766 ], [ 5.3673955, 52.123929499107653 ], [ 5.3673108, 52.123873699107648 ], [ 5.3672974, 52.123804499107663 ], [ 5.3673215, 52.12368589910767 ], [ 5.3672732, 52.123635699107666 ], [ 5.3672491, 52.123545099107652 ], [ 5.3672142, 52.123431499107681 ], [ 5.367178, 52.12332449910771 ], [ 5.3671472, 52.123242899107701 ], [ 5.3671847, 52.123198499107708 ], [ 5.3672504, 52.123169699107692 ], [ 5.3673618, 52.123142199107697 ], [ 5.3673966, 52.123076599107705 ], [ 5.3673764, 52.122964899107728 ], [ 5.3673658, 52.122877399107708 ], [ 5.3673886, 52.12283369910773 ], [ 5.3675191, 52.122788199107731 ], [ 5.3676018, 52.122687999107725 ], [ 5.3676501, 52.122595699107734 ], [ 5.3677889, 52.122481199107767 ], [ 5.3678218, 52.122456599107728 ], [ 5.3678285, 52.122416199107775 ], [ 5.3678177, 52.122394799107752 ], [ 5.3677882, 52.122359399107772 ], [ 5.3676635, 52.122359399107772 ], [ 5.3675066, 52.12237669910774 ], [ 5.3674597, 52.122357799107753 ], [ 5.3674275, 52.122337199107776 ], [ 5.3673765, 52.122318299107768 ], [ 5.3673296, 52.122301799107781 ], [ 5.3672786, 52.122305099107756 ], [ 5.3672276, 52.122305099107756 ], [ 5.367115, 52.122253999107784 ], [ 5.367009, 52.12224249910777 ], [ 5.3669268, 52.122262399107775 ], [ 5.3668414, 52.122280399107773 ], [ 5.3668387, 52.122285299107773 ], [ 5.3668159, 52.12229269910776 ], [ 5.3667717, 52.12229359910777 ], [ 5.3667475, 52.122274599107755 ], [ 5.3667247, 52.122244199107769 ], [ 5.3667194, 52.122188199107754 ], [ 5.3667274, 52.122151899107777 ], [ 5.3667099, 52.122087799107781 ], [ 5.3666347, 52.122051699107793 ], [ 5.3665515, 52.122002299107791 ], [ 5.3664919, 52.121937399107793 ], [ 5.3664346, 52.121877399107788 ], [ 5.3663525, 52.121813899107792 ], [ 5.366305, 52.121763299107805 ], [ 5.3662674, 52.121745999107794 ], [ 5.3661574, 52.121742699107813 ], [ 5.3660547, 52.121731799107799 ], [ 5.3659704, 52.121722799107808 ], [ 5.3658932, 52.121722099107785 ], [ 5.3657872, 52.121722799107808 ], [ 5.3657198, 52.121718699107824 ], [ 5.3656653, 52.12173939910781 ], [ 5.3655781, 52.121740999107786 ], [ 5.3654668, 52.121740999107786 ], [ 5.365404, 52.12172689910782 ], [ 5.3653702, 52.12171449910781 ], [ 5.3653193, 52.12171629910781 ], [ 5.3652777, 52.121723799107812 ], [ 5.3652062, 52.121719399107803 ], [ 5.3651489, 52.121695799107805 ], [ 5.3651248, 52.121678499107816 ], [ 5.365096, 52.12164759910781 ], [ 5.3650537, 52.121601899107816 ], [ 5.3650229, 52.121572199107817 ], [ 5.3650229, 52.121554099107819 ], [ 5.3650001, 52.121526999107822 ], [ 5.3649759, 52.121504699107831 ], [ 5.3649344, 52.121503899107822 ], [ 5.3649089, 52.121496499107828 ], [ 5.3648409, 52.121472299107815 ], [ 5.3648217, 52.121467699107825 ], [ 5.3648083, 52.121456999107828 ], [ 5.3647868, 52.121448699107837 ], [ 5.364764, 52.121439699107832 ], [ 5.3647265, 52.121432299107838 ], [ 5.3647023, 52.121417399107813 ], [ 5.3646661, 52.121409199107845 ], [ 5.3646165, 52.121409999107833 ], [ 5.3645749, 52.121395199107837 ], [ 5.3645347, 52.121377899107834 ], [ 5.3645159, 52.121372199107846 ], [ 5.3644878, 52.121353199107823 ], [ 5.3644462, 52.121322699107836 ], [ 5.3644033, 52.121289799107842 ], [ 5.364351, 52.121269999107845 ], [ 5.3642933, 52.121254399107855 ], [ 5.3642531, 52.121236299107842 ], [ 5.3642316, 52.121215699107836 ], [ 5.3642236, 52.121170399107847 ], [ 5.3642276, 52.121141599107851 ], [ 5.3642169, 52.121120999107845 ], [ 5.3642075, 52.121095499107859 ], [ 5.3641914, 52.121082299107854 ], [ 5.3641981, 52.12106829910784 ], [ 5.3641967, 52.121046899107853 ], [ 5.3641807, 52.121024699107863 ], [ 5.3641565, 52.120996699107856 ], [ 5.3641014, 52.120956799107866 ], [ 5.3640665, 52.120881599107868 ], [ 5.364072, 52.120854199107882 ], [ 5.3640586, 52.120823699107873 ], [ 5.3640318, 52.12079079910788 ], [ 5.364007, 52.12077259910788 ], [ 5.3639607, 52.120772699107889 ], [ 5.3639097, 52.120781799107867 ], [ 5.3638574, 52.120800699107861 ], [ 5.3637998, 52.120825399107872 ], [ 5.3637113, 52.120853399107865 ], [ 5.3636603, 52.120854199107882 ], [ 5.3635959, 52.120856699107875 ], [ 5.3635517, 52.120850899107865 ], [ 5.3634913, 52.120836899107857 ], [ 5.3634605, 52.120822099107869 ], [ 5.3634605, 52.120803999107871 ], [ 5.3634806, 52.120792499107871 ], [ 5.3634793, 52.12075619910788 ], [ 5.3634725, 52.120731499107862 ], [ 5.3634979, 52.120704999107886 ], [ 5.363436, 52.120656699107869 ], [ 5.3633183, 52.1205766991079 ], [ 5.3632715, 52.120503099107893 ], [ 5.3629099, 52.120454199107897 ], [ 5.362845, 52.120456199107885 ], [ 5.3628335, 52.120350399107906 ], [ 5.3628238, 52.12014459910791 ], [ 5.3627563, 52.118684699108023 ], [ 5.3627232, 52.117935799108089 ], [ 5.3627033, 52.11771439910811 ], [ 5.3626826, 52.117532499108108 ], [ 5.3626694, 52.117433999108115 ], [ 5.3626437, 52.117315599108132 ], [ 5.3626076, 52.117197699108139 ], [ 5.3625554, 52.117048599108131 ], [ 5.3625213, 52.116943499108146 ], [ 5.3623569, 52.116352599108183 ], [ 5.361957, 52.115385699108252 ], [ 5.3614955, 52.114367099108343 ], [ 5.361313, 52.113929199108377 ], [ 5.3607744, 52.112727699108447 ], [ 5.3613195, 52.112703999108462 ], [ 5.3614106, 52.112701899108465 ], [ 5.3614614, 52.112651199108484 ], [ 5.3614704, 52.112581499108479 ], [ 5.3615333, 52.112524899108479 ], [ 5.3615985, 52.11247999910848 ], [ 5.3616963, 52.112447899108496 ], [ 5.3617828, 52.11237369910851 ], [ 5.361866, 52.112307399108516 ], [ 5.3618401, 52.112263299108513 ], [ 5.3618542, 52.112229799108498 ], [ 5.3619154, 52.11220909910849 ], [ 5.3619958, 52.112195599108517 ], [ 5.3621593, 52.112279999108509 ], [ 5.3622481, 52.112351599108486 ], [ 5.3624054, 52.112329499108512 ], [ 5.3625864, 52.112294299108505 ], [ 5.3628044, 52.112307399108516 ], [ 5.3630652, 52.112359199108496 ], [ 5.3633281, 52.112410299108483 ], [ 5.3634147, 52.112335699108513 ], [ 5.3635192, 52.112314999108484 ], [ 5.3636462, 52.11235849910851 ], [ 5.3637327, 52.11241579910849 ], [ 5.3638429, 52.112408199108472 ], [ 5.363944, 52.112394699108478 ], [ 5.3639834, 52.112344699108505 ], [ 5.3639766, 52.112253599108513 ], [ 5.3639452, 52.112147299108514 ], [ 5.3639834, 52.112050699108522 ], [ 5.3640148, 52.111931999108528 ], [ 5.3640216, 52.111795299108543 ], [ 5.3640216, 52.111668299108558 ], [ 5.364053, 52.111593799108554 ], [ 5.3641654, 52.111570299108536 ], [ 5.3643093, 52.111613099108567 ], [ 5.3644576, 52.111635199108548 ], [ 5.364561, 52.111578599108547 ], [ 5.3646982, 52.111581399108537 ], [ 5.3647858, 52.11163109910855 ], [ 5.3647813, 52.111708399108537 ], [ 5.3648488, 52.111727699108556 ], [ 5.3649724, 52.111720799108539 ], [ 5.3651073, 52.111684899108553 ], [ 5.3652466, 52.11163109910855 ], [ 5.3653882, 52.111621399108543 ], [ 5.3655276, 52.111694599108553 ], [ 5.365658, 52.111762199108526 ], [ 5.3658086, 52.111795299108543 ], [ 5.3659906, 52.111789799108543 ], [ 5.3661839, 52.111806399108531 ], [ 5.3662154, 52.111862999108538 ], [ 5.3661547, 52.111905799108534 ], [ 5.3660558, 52.111978899108514 ], [ 5.3660333, 52.112076899108501 ], [ 5.3659839, 52.112150099108511 ], [ 5.3660693, 52.112219099108515 ], [ 5.3662019, 52.112245299108501 ], [ 5.3663683, 52.112267399108497 ], [ 5.3665031, 52.112308799108504 ], [ 5.3666065, 52.112384799108504 ], [ 5.3666807, 52.112377799108494 ], [ 5.3667616, 52.11234199910848 ], [ 5.3669055, 52.112362699108495 ], [ 5.3670426, 52.112423399108494 ], [ 5.3671351, 52.112429299108506 ], [ 5.367196, 52.112704899108486 ], [ 5.3682496, 52.112700699108466 ], [ 5.3683148, 52.112643599108466 ], [ 5.3683778, 52.112569699108484 ], [ 5.368425, 52.112524899108479 ], [ 5.3684632, 52.112460699108489 ], [ 5.368416, 52.112398599108488 ], [ 5.3683665, 52.112321899108501 ], [ 5.3683901, 52.11225149910851 ], [ 5.3683508, 52.112176999108492 ], [ 5.3682811, 52.112102499108502 ], [ 5.3682856, 52.112017599108519 ], [ 5.3682586, 52.111942299108527 ], [ 5.368153, 52.111889899108519 ], [ 5.368026, 52.111832599108531 ], [ 5.3680249, 52.111766999108539 ], [ 5.3680192, 52.111681399108541 ], [ 5.3679777, 52.111612399108544 ], [ 5.3678821, 52.111602099108545 ], [ 5.3677945, 52.111587599108525 ], [ 5.3677428, 52.111524799108579 ], [ 5.3676585, 52.111503399108543 ], [ 5.3675888, 52.111523399108563 ], [ 5.3675337, 52.111583399108561 ], [ 5.3675056, 52.111636599108564 ], [ 5.3674607, 52.11164419910854 ], [ 5.3674056, 52.111629699108555 ], [ 5.3673505, 52.111588299108554 ], [ 5.3672955, 52.111535099108544 ], [ 5.3672134, 52.111499899108559 ], [ 5.3671235, 52.11152679910856 ], [ 5.3670471, 52.111520599108566 ], [ 5.3670572, 52.11148539910856 ], [ 5.3671426, 52.111452299108564 ], [ 5.3672752, 52.111417799108558 ], [ 5.3673708, 52.111359799108563 ], [ 5.367237, 52.111338399108583 ], [ 5.3670853, 52.111363299108568 ], [ 5.3669774, 52.111432299108557 ], [ 5.3669204, 52.111570799108556 ], [ 5.3668425, 52.11171659910854 ], [ 5.3667594, 52.111786999108539 ], [ 5.3666447, 52.111789799108543 ], [ 5.3665054, 52.111796699108538 ], [ 5.3663638, 52.111780099108529 ], [ 5.3662761, 52.111727699108556 ], [ 5.3662716, 52.111690399108554 ], [ 5.3663525, 52.111655899108555 ], [ 5.3664312, 52.111611699108558 ], [ 5.3664155, 52.11155509910855 ], [ 5.3663615, 52.111512299108561 ], [ 5.3663008, 52.111544099108563 ], [ 5.3662132, 52.111577199108545 ], [ 5.366121, 52.111574499108556 ], [ 5.3660446, 52.11153989910855 ], [ 5.3659794, 52.111492999108563 ], [ 5.3660041, 52.111428099108544 ], [ 5.3659232, 52.111374299108554 ], [ 5.3658176, 52.111310799108573 ], [ 5.3656939, 52.111248699108572 ], [ 5.365631, 52.111284599108565 ], [ 5.3655208, 52.111278999108585 ], [ 5.3653972, 52.111295599108573 ], [ 5.3652758, 52.111357699108567 ], [ 5.3651252, 52.111412899108558 ], [ 5.3649634, 52.111415699108562 ], [ 5.3648173, 52.111357699108567 ], [ 5.3646465, 52.111372899108559 ], [ 5.3645183, 52.11144189910857 ], [ 5.3644104, 52.111499899108559 ], [ 5.3642688, 52.111509599108544 ], [ 5.3641137, 52.111484699108566 ], [ 5.3639834, 52.111394999108569 ], [ 5.363853, 52.111298399108598 ], [ 5.363623, 52.111278899108569 ], [ 5.3634686, 52.111324599108578 ], [ 5.3633068, 52.111353599108575 ], [ 5.3631562, 52.111437799108572 ], [ 5.3629899, 52.111492999108563 ], [ 5.3627831, 52.111472299108563 ], [ 5.3626122, 52.111426799108571 ], [ 5.3625111, 52.111338399108583 ], [ 5.3623672, 52.111330099108564 ], [ 5.3622076, 52.111317699108575 ], [ 5.362048, 52.111274899108565 ], [ 5.3619286, 52.111230799108576 ], [ 5.3617446, 52.111186599108585 ], [ 5.36154, 52.111183799108609 ], [ 5.3614816, 52.111241799108569 ], [ 5.3614007, 52.111274899108565 ], [ 5.3613265, 52.111324599108578 ], [ 5.3612478, 52.111386699108571 ], [ 5.3611444, 52.111407399108579 ], [ 5.3610208, 52.111364599108569 ], [ 5.3608972, 52.111280399108566 ], [ 5.3607848, 52.111154799108583 ], [ 5.3607129, 52.111009899108574 ], [ 5.3607533, 52.110936699108613 ], [ 5.360868, 52.110855299108607 ], [ 5.3610096, 52.110747599108613 ], [ 5.3610725, 52.110681299108627 ], [ 5.3612321, 52.110677199108601 ], [ 5.3614232, 52.110670299108627 ], [ 5.3615738, 52.110619199108619 ], [ 5.3617131, 52.110554299108628 ], [ 5.361778, 52.110542299108623 ], [ 5.3619132, 52.110559799108628 ], [ 5.3621042, 52.110532199108626 ], [ 5.362293, 52.110533599108635 ], [ 5.3625156, 52.110547399108647 ], [ 5.3627111, 52.110533599108635 ], [ 5.362891, 52.11051979910863 ], [ 5.3630371, 52.110464599108624 ], [ 5.3631584, 52.110406599108636 ], [ 5.3633086, 52.110397399108635 ], [ 5.3634574, 52.110416299108643 ], [ 5.363617, 52.110436999108622 ], [ 5.3638013, 52.110431499108657 ], [ 5.3638642, 52.110405199108648 ], [ 5.3639811, 52.11039829910861 ], [ 5.3641025, 52.110387299108631 ], [ 5.3641767, 52.110365199108635 ], [ 5.3642778, 52.110372099108645 ], [ 5.3643835, 52.110365199108635 ], [ 5.3645004, 52.110358299108626 ], [ 5.364606, 52.110340299108628 ], [ 5.3647184, 52.11032789910864 ], [ 5.3648218, 52.110305799108644 ], [ 5.3649544, 52.11028099910866 ], [ 5.365078, 52.11029479910863 ], [ 5.3652017, 52.110286499108668 ], [ 5.3653185, 52.110298899108642 ], [ 5.3654264, 52.11028099910866 ], [ 5.3655051, 52.110269899108644 ], [ 5.3655973, 52.110246499108662 ], [ 5.3656984, 52.110218899108652 ], [ 5.3658131, 52.11022439910866 ], [ 5.3659434, 52.110240999108655 ], [ 5.3660288, 52.11023269910865 ], [ 5.3660446, 52.110193999108631 ], [ 5.366076, 52.110152599108659 ], [ 5.3661457, 52.110135999108657 ], [ 5.3661907, 52.110111199108665 ], [ 5.3661847, 52.110052799108672 ], [ 5.3661797, 52.110019599108661 ], [ 5.3661335, 52.10985729910869 ], [ 5.366117, 52.109723699108699 ], [ 5.3660148, 52.109575899108712 ], [ 5.3659336, 52.109418699108716 ], [ 5.3661506, 52.108737699108765 ], [ 5.3664176, 52.108022999108812 ], [ 5.3667423, 52.107170999108881 ], [ 5.3667885, 52.107105499108876 ], [ 5.3668215, 52.107046899108894 ], [ 5.3668451, 52.10693099910889 ], [ 5.366846, 52.106783299108912 ], [ 5.3669186, 52.106620499108935 ], [ 5.3670479, 52.106308199108945 ], [ 5.3671356, 52.106146299108943 ], [ 5.3671205, 52.106011899108964 ], [ 5.3671436, 52.105896299108984 ], [ 5.3672261, 52.10573989910899 ], [ 5.3673016, 52.105559699109001 ], [ 5.3673165, 52.105475599109013 ], [ 5.367462, 52.104953699109046 ], [ 5.3674856, 52.104849599109045 ], [ 5.367463, 52.104821499109057 ], [ 5.3674221, 52.104809999109065 ], [ 5.367408, 52.104779899109054 ], [ 5.3673537, 52.104768799109046 ], [ 5.3672786, 52.10472099910907 ], [ 5.367174, 52.104630399109062 ], [ 5.3671297, 52.104628399109075 ], [ 5.3670104, 52.104561999109087 ], [ 5.36695, 52.104526999109055 ], [ 5.3668937, 52.10448209910907 ], [ 5.3668897, 52.10445699910909 ], [ 5.3669018, 52.104421999109071 ], [ 5.3669152, 52.104384499109074 ], [ 5.366938, 52.104358999109103 ], [ 5.3669695, 52.104358199109086 ], [ 5.367005, 52.104361499109075 ], [ 5.3670909, 52.104367199109085 ], [ 5.3671271, 52.104396899109076 ], [ 5.3671814, 52.104437699109077 ], [ 5.3672055, 52.104476799109079 ], [ 5.3672364, 52.104508099109069 ], [ 5.3672759, 52.104520899109069 ], [ 5.3673074, 52.104510099109071 ], [ 5.3673222, 52.10446689910907 ], [ 5.3673336, 52.104435199109083 ], [ 5.3672706, 52.104386999109082 ], [ 5.3671619, 52.104342099109097 ], [ 5.3670801, 52.104330599109083 ], [ 5.3670292, 52.104297599109088 ], [ 5.3669722, 52.104284399109076 ], [ 5.3668709, 52.104220999109089 ], [ 5.3668723, 52.1041921991091 ], [ 5.3668562, 52.104171199109089 ], [ 5.3668575, 52.104138599109127 ], [ 5.3668521, 52.104108199109113 ], [ 5.366879, 52.104073599109114 ], [ 5.3669836, 52.104047999109106 ], [ 5.3670841, 52.104027399109128 ], [ 5.3672266, 52.10392579910912 ], [ 5.3673483, 52.103826399109124 ], [ 5.3674194, 52.103815699109127 ], [ 5.3675106, 52.103841299109142 ], [ 5.3676018, 52.10386189910912 ], [ 5.3678055, 52.103807299109128 ], [ 5.3679398, 52.103799299109149 ], [ 5.3680497, 52.103837099109114 ], [ 5.3681195, 52.103868399109132 ], [ 5.3682522, 52.103921199109116 ], [ 5.3682978, 52.103945899109114 ], [ 5.3683636, 52.103968899109113 ], [ 5.3684306, 52.103964799109121 ], [ 5.3685097, 52.103948399109129 ], [ 5.368554, 52.103925299109115 ], [ 5.3686438, 52.103873399109112 ], [ 5.368672, 52.103818999109116 ], [ 5.3686412, 52.103784399109124 ], [ 5.368605, 52.103767499109132 ], [ 5.3685714, 52.103736599109148 ], [ 5.3685728, 52.103711899109129 ], [ 5.3686036, 52.103689299109135 ], [ 5.3686713, 52.103685599109127 ], [ 5.3687505, 52.103735399109134 ], [ 5.3688397, 52.103796399109129 ], [ 5.3688819, 52.103818199109107 ], [ 5.3689711, 52.10382969910912 ], [ 5.3690596, 52.103793499109145 ], [ 5.3691025, 52.103764699109128 ], [ 5.3691401, 52.103769199109145 ], [ 5.3691696, 52.103785199109133 ], [ 5.3692071, 52.103786099109129 ], [ 5.3692473, 52.103805799109132 ], [ 5.3692487, 52.10383549910911 ], [ 5.369185, 52.103944199109108 ], [ 5.3692299, 52.103992799109108 ], [ 5.3692447, 52.104053799109103 ], [ 5.3692675, 52.104099099109092 ], [ 5.3692916, 52.104129599109108 ], [ 5.3693198, 52.104142799109098 ], [ 5.3693466, 52.104113099109092 ], [ 5.3693788, 52.104047999109106 ], [ 5.3693748, 52.104001899109122 ], [ 5.3693895, 52.103963999109112 ], [ 5.3694043, 52.103918699109123 ], [ 5.3695008, 52.103938499109098 ], [ 5.3696001, 52.103935999109126 ], [ 5.3696457, 52.103859399109119 ], [ 5.3697221, 52.103809099109128 ], [ 5.3697759, 52.103827099109132 ], [ 5.3698254, 52.103866799109113 ], [ 5.3699166, 52.103959099109112 ], [ 5.3699514, 52.104076899109131 ], [ 5.3700212, 52.104124599109092 ], [ 5.3701057, 52.104113899109116 ], [ 5.3703175, 52.104060399109123 ], [ 5.3704503, 52.104039799109124 ], [ 5.3705375, 52.104056299109118 ], [ 5.3705898, 52.104082599109113 ], [ 5.3706247, 52.104129599109108 ], [ 5.3705415, 52.104219399109084 ], [ 5.3705455, 52.104254799109086 ], [ 5.3705804, 52.104271699109091 ], [ 5.3706381, 52.10426099910908 ], [ 5.3707742, 52.10421439910909 ], [ 5.3708754, 52.104198799109092 ], [ 5.3709975, 52.10417859910909 ], [ 5.3710484, 52.104176899109106 ], [ 5.3711001, 52.104185599109087 ], [ 5.3711403, 52.104224299109092 ], [ 5.3711812, 52.10425149910909 ], [ 5.3712402, 52.104269599109095 ], [ 5.3712865, 52.104267599109107 ], [ 5.3713515, 52.104245199109094 ], [ 5.3714119, 52.104216899109105 ], [ 5.3714642, 52.104212799109099 ], [ 5.3715111, 52.104241599109088 ], [ 5.3715608, 52.104295099109095 ], [ 5.3717257, 52.104306699109081 ], [ 5.3717917, 52.104303199109083 ], [ 5.3718078, 52.104642299109081 ], [ 5.3719349, 52.104615599109067 ], [ 5.3720368, 52.104613899109047 ], [ 5.3721924, 52.104603199109064 ], [ 5.3723051, 52.104571899109075 ], [ 5.3724298, 52.104484599109085 ], [ 5.3725009, 52.104494499109066 ], [ 5.372521, 52.10454559910908 ], [ 5.3725719, 52.104586799109065 ], [ 5.3727329, 52.104650999109062 ], [ 5.3729139, 52.104742399109071 ], [ 5.3730521, 52.104742399109071 ], [ 5.3730896, 52.104759699109067 ], [ 5.3732049, 52.104872599109044 ], [ 5.3732559, 52.104882499109038 ], [ 5.3733203, 52.104882499109038 ], [ 5.3734249, 52.10487919910905 ], [ 5.3735147, 52.104855299109055 ], [ 5.3735577, 52.104827299109054 ], [ 5.3736435, 52.104809199109049 ], [ 5.3736703, 52.104828099109042 ], [ 5.3736851, 52.104891499109058 ], [ 5.3737012, 52.104935199109036 ], [ 5.373732, 52.104956599109045 ], [ 5.373787, 52.104955799109042 ], [ 5.373836, 52.104594599109056 ], [ 5.3738996, 52.104552999109082 ], [ 5.3739372, 52.104526599109086 ], [ 5.3740069, 52.104513399109059 ], [ 5.3740096, 52.104487099109086 ], [ 5.3740686, 52.10448209910907 ], [ 5.3741571, 52.104491999109086 ], [ 5.374192, 52.104483799109076 ], [ 5.3742027, 52.104467299109068 ], [ 5.3742108, 52.104432699109083 ], [ 5.3742671, 52.10439809910909 ], [ 5.374361, 52.104386599109077 ], [ 5.3744388, 52.104355299109102 ], [ 5.3745139, 52.104317399109092 ], [ 5.3745782, 52.104312399109091 ], [ 5.3746104, 52.104271299109094 ], [ 5.3746641, 52.104198799109092 ], [ 5.3746775, 52.104131199109091 ], [ 5.3746587, 52.104033999109113 ], [ 5.3746158, 52.10396649910912 ], [ 5.3745863, 52.103949999109112 ], [ 5.37453, 52.103773699109112 ], [ 5.3744227, 52.103691299109137 ], [ 5.3742939, 52.103641899109135 ], [ 5.3741866, 52.103612299109159 ], [ 5.3739897, 52.103555799109159 ], [ 5.3740332, 52.103303999109158 ], [ 5.3741477, 52.103269599109176 ], [ 5.3742215, 52.103220199109181 ], [ 5.3742161, 52.103174799109176 ], [ 5.3742027, 52.103122099109186 ], [ 5.3742295, 52.103083399109202 ], [ 5.3742845, 52.103068599109179 ], [ 5.3743985, 52.10311549910918 ], [ 5.3744401, 52.103125399109182 ], [ 5.3745554, 52.103127099109173 ], [ 5.3746064, 52.103104799109182 ], [ 5.3746507, 52.103074299109181 ], [ 5.3746587, 52.103003499109178 ], [ 5.3745648, 52.102982899109179 ], [ 5.3745169, 52.102960599109203 ], [ 5.3744087, 52.102841499109218 ], [ 5.3743449, 52.102754699109205 ], [ 5.3743087, 52.102668199109196 ], [ 5.3743865, 52.102586699109231 ], [ 5.3745165, 52.102485399109234 ], [ 5.3744052, 52.102430999109245 ], [ 5.3743529, 52.102409599109244 ], [ 5.3743274, 52.102369199109241 ], [ 5.3743315, 52.102313999109256 ], [ 5.374416, 52.102248099109246 ], [ 5.3745179, 52.102216799109243 ], [ 5.3746265, 52.102220099109239 ], [ 5.3747807, 52.102080899109247 ], [ 5.3747579, 52.10199109910927 ], [ 5.3747191, 52.101860099109274 ], [ 5.3747244, 52.101798299109284 ], [ 5.3749658, 52.101682199109277 ], [ 5.3749725, 52.101629399109299 ], [ 5.3749497, 52.101610499109299 ], [ 5.3749014, 52.101606399109293 ], [ 5.3748076, 52.101621199109289 ], [ 5.3747445, 52.101604699109288 ], [ 5.3746828, 52.101610499109299 ], [ 5.3745688, 52.101681299109295 ], [ 5.3744736, 52.101730799109276 ], [ 5.3743932, 52.101769499109267 ], [ 5.3743596, 52.101912799109279 ], [ 5.3742946, 52.101930899109277 ], [ 5.374141, 52.101899199109276 ], [ 5.374023, 52.101868299109285 ], [ 5.3739647, 52.101831299109278 ], [ 5.3739171, 52.101782699109279 ], [ 5.3738051, 52.10177609910928 ], [ 5.3737615, 52.101761699109275 ], [ 5.3736716, 52.101744799109298 ], [ 5.3736489, 52.101729499109275 ], [ 5.3735959, 52.101729499109275 ], [ 5.3734142, 52.101773599109286 ], [ 5.3733109, 52.101803299109278 ], [ 5.373221, 52.101846099109274 ], [ 5.3732036, 52.101937499109276 ], [ 5.3731526, 52.101965499109269 ], [ 5.3730561, 52.102004299109275 ], [ 5.3730065, 52.101996899109267 ], [ 5.3728844, 52.101947399109264 ], [ 5.3727664, 52.101874899109276 ], [ 5.3724274, 52.101872499109284 ], [ 5.3723614, 52.101886499109256 ], [ 5.3721374, 52.101901299109265 ], [ 5.3720489, 52.101896299109278 ], [ 5.371998, 52.101878999109267 ], [ 5.3719068, 52.101877399109263 ], [ 5.3717568, 52.101891899109269 ], [ 5.3716526, 52.101906599109256 ], [ 5.3715098, 52.101907899109264 ], [ 5.3712155, 52.10191609910926 ], [ 5.3708348, 52.101953699109274 ], [ 5.3705825, 52.10198259910927 ], [ 5.3704946, 52.102044599109256 ], [ 5.370426, 52.102129099109249 ], [ 5.3703859, 52.102145999109247 ], [ 5.3703068, 52.102136099109259 ], [ 5.3702532, 52.102107199109248 ], [ 5.3701767, 52.102076799109248 ], [ 5.3700708, 52.102065199109248 ], [ 5.369914, 52.102090499109266 ], [ 5.3697516, 52.10212619910925 ], [ 5.3696685, 52.102196199109265 ], [ 5.3695826, 52.102219299109251 ], [ 5.3695115, 52.102209399109242 ], [ 5.3694716, 52.102188699109242 ], [ 5.3694458, 52.102172299109256 ], [ 5.3694029, 52.102168199109251 ], [ 5.369352, 52.102153899109261 ], [ 5.3692715, 52.102168999109267 ], [ 5.3691722, 52.102182999109239 ], [ 5.3689697, 52.102218399109255 ], [ 5.3688609, 52.102267599109247 ], [ 5.3685638, 52.10228769910924 ], [ 5.3685071, 52.102317299109266 ], [ 5.3684413, 52.102327999109235 ], [ 5.3683086, 52.102317299109266 ], [ 5.3681906, 52.102306599109262 ], [ 5.3680859, 52.10228599910922 ], [ 5.3680771, 52.102245199109248 ], [ 5.3679532, 52.102153399109248 ], [ 5.3679384, 52.102079199109248 ], [ 5.3679619, 52.101967499109271 ], [ 5.3679594, 52.101770999109291 ], [ 5.367862, 52.101666499109299 ], [ 5.3677225, 52.101518199109314 ], [ 5.3676742, 52.101485299109314 ], [ 5.3675348, 52.101455599109315 ], [ 5.3674221, 52.101332099109328 ], [ 5.3672585, 52.101284299109331 ], [ 5.3671646, 52.101220799109313 ], [ 5.3670466, 52.101115399109325 ], [ 5.3669527, 52.10107589910934 ], [ 5.3669098, 52.101041299109326 ], [ 5.3668899, 52.100973199109319 ], [ 5.3674235, 52.100929299109346 ], [ 5.3678708, 52.10090469910935 ], [ 5.3680265, 52.100872999109342 ], [ 5.3681039, 52.100817499109354 ], [ 5.3681837, 52.100742099109368 ], [ 5.368333, 52.100377199109388 ], [ 5.3683364, 52.100167699109399 ], [ 5.3685043, 52.099914199109413 ], [ 5.368638, 52.09985999910942 ], [ 5.3689101, 52.099855799109434 ], [ 5.3688997, 52.099766299109433 ], [ 5.3687359, 52.099617299109433 ], [ 5.3685987, 52.09955409910944 ], [ 5.3685908, 52.099362999109459 ], [ 5.3687042, 52.099298199109469 ], [ 5.3688322, 52.099159199109472 ], [ 5.3688423, 52.099083899109473 ], [ 5.3688718, 52.099047599109483 ], [ 5.3688732, 52.099017899109469 ], [ 5.3689121, 52.098957799109478 ], [ 5.3689429, 52.098914999109489 ], [ 5.3689483, 52.098867199109499 ], [ 5.3689843, 52.098835799109501 ], [ 5.3689778, 52.098800499109508 ], [ 5.3690046, 52.098735399109501 ], [ 5.3690247, 52.098661999109517 ], [ 5.3690913, 52.098586699109532 ], [ 5.3690851, 52.098583799109541 ], [ 5.3690851, 52.098518699109519 ], [ 5.369075, 52.098458299109531 ], [ 5.3690824, 52.098418199109538 ], [ 5.3691127, 52.098364699109538 ], [ 5.3692406, 52.098289699109536 ], [ 5.3692487, 52.098255899109553 ], [ 5.3692688, 52.098214699109548 ], [ 5.3692473, 52.098187499109549 ], [ 5.3692769, 52.098138099109555 ], [ 5.3692715, 52.098104299109558 ], [ 5.3693305, 52.098033499109562 ], [ 5.3693654, 52.097977399109567 ], [ 5.3693479, 52.097915599109577 ], [ 5.3692849, 52.097879399109566 ], [ 5.369238, 52.097875299109582 ], [ 5.3691776, 52.097851099109583 ], [ 5.3689918, 52.097871299109578 ], [ 5.3685367, 52.097850499109562 ], [ 5.3682316, 52.097806899109578 ], [ 5.3681221, 52.097803699109576 ], [ 5.3679854, 52.097813799109595 ], [ 5.3678383, 52.097843999109585 ], [ 5.367711, 52.097872899109561 ], [ 5.3675924, 52.097915999109581 ], [ 5.3671526, 52.09811859910954 ], [ 5.3669418, 52.098194799109542 ], [ 5.3663735, 52.098401799109539 ], [ 5.3662237, 52.098422699109555 ], [ 5.3661623, 52.098421799109538 ], [ 5.366161, 52.098630799109515 ], [ 5.3659829, 52.098702599109515 ], [ 5.3657337, 52.098810199109494 ], [ 5.365602, 52.098877599109493 ], [ 5.3654492, 52.098868599109501 ], [ 5.3653824, 52.098864099109491 ], [ 5.3652681, 52.098835999109511 ], [ 5.3651531, 52.098640499109521 ], [ 5.3650492, 52.098283499109534 ], [ 5.3649876, 52.098114399109555 ], [ 5.364707, 52.098065799109555 ], [ 5.3644511, 52.09794539910957 ], [ 5.3642143, 52.097783199109593 ], [ 5.3641496, 52.097738299109587 ], [ 5.3639394, 52.09759259910961 ], [ 5.3636223, 52.097481199109595 ], [ 5.363404, 52.095553999109761 ], [ 5.3633368, 52.095547799109738 ], [ 5.3632667, 52.095518999109757 ], [ 5.3632271, 52.095476899109755 ], [ 5.363199, 52.095415999109754 ], [ 5.3630957, 52.095331899109745 ], [ 5.3630581, 52.095281699109769 ], [ 5.363026, 52.095226899109775 ], [ 5.3629817, 52.095188599109775 ], [ 5.3629884, 52.095153199109767 ], [ 5.3629549, 52.095137499109775 ], [ 5.3628543, 52.095138699109782 ], [ 5.3627584, 52.095153599109793 ], [ 5.3627202, 52.095145699109786 ], [ 5.3626773, 52.095119399109784 ], [ 5.3626665, 52.095083099109793 ], [ 5.3628074, 52.095044399109781 ], [ 5.362924, 52.095014699109782 ], [ 5.3629374, 52.094968599109798 ], [ 5.3629133, 52.094933999109792 ], [ 5.3628704, 52.0949067991098 ], [ 5.3628007, 52.094862299109813 ], [ 5.3627859, 52.094788199109807 ], [ 5.3627416, 52.094707399109801 ], [ 5.3627148, 52.094694199109796 ], [ 5.3626934, 52.094660499109814 ], [ 5.3626089, 52.09456649910981 ], [ 5.3626089, 52.094498099109813 ], [ 5.3626049, 52.094428099109834 ], [ 5.3625633, 52.094400099109848 ], [ 5.3625405, 52.094348999109847 ], [ 5.362511, 52.094302899109834 ], [ 5.3624922, 52.094281399109846 ], [ 5.3625083, 52.094245599109847 ], [ 5.3625029, 52.094203999109844 ], [ 5.3624734, 52.094131499109849 ], [ 5.3624654, 52.094077099109846 ], [ 5.3624614, 52.094019399109875 ], [ 5.3624788, 52.093945299109876 ], [ 5.3625351, 52.093864499109898 ], [ 5.3625298, 52.09378959910989 ], [ 5.3624962, 52.093735199109865 ], [ 5.3624734, 52.093684899109896 ], [ 5.3624426, 52.093618999109893 ], [ 5.3624493, 52.093590999109885 ], [ 5.3624855, 52.093553899109899 ], [ 5.3626043, 52.093508399109915 ], [ 5.3626505, 52.093495399109919 ], [ 5.362684, 52.093438599109916 ], [ 5.3626518, 52.093402299109933 ], [ 5.3625847, 52.093353699109912 ], [ 5.3625244, 52.093333899109922 ], [ 5.3625177, 52.093269699109932 ], [ 5.362578, 52.093220999109917 ], [ 5.3626639, 52.093163399109947 ], [ 5.3626719, 52.093136199109928 ], [ 5.3626169, 52.093050499109928 ], [ 5.3626317, 52.093023299109937 ], [ 5.3626652, 52.092961499109947 ], [ 5.3626424, 52.092926099109938 ], [ 5.3626118, 52.09290219910995 ], [ 5.3625821, 52.09285519910997 ], [ 5.3626437, 52.092805799109968 ], [ 5.3627292, 52.092789799109944 ], [ 5.3628986, 52.092746399109977 ], [ 5.3629147, 52.092723399109957 ], [ 5.3629334, 52.092679699109972 ], [ 5.3629026, 52.092639299109969 ], [ 5.3628556, 52.092612099109971 ], [ 5.3627953, 52.092607199109985 ], [ 5.3627215, 52.09264509910998 ], [ 5.36268, 52.092664099109975 ], [ 5.362637, 52.092672299109971 ], [ 5.3626008, 52.092649999109973 ], [ 5.3626129, 52.092612999109967 ], [ 5.3626692, 52.092568499109987 ], [ 5.3627926, 52.092504199109982 ], [ 5.3629321, 52.092481999109985 ], [ 5.3630478, 52.092492799109976 ], [ 5.3630893, 52.092464599109981 ], [ 5.363097, 52.09243169910998 ], [ 5.3630944, 52.092363299109998 ], [ 5.3631306, 52.092247099109997 ], [ 5.3632428, 52.092199899110007 ], [ 5.3633344, 52.092180399109992 ], [ 5.3634027, 52.092130799110009 ], [ 5.363535, 52.092082499110028 ], [ 5.3634497, 52.091921999110014 ] ] } }
]
}
